"company name","Name of owner","Street","City","District","Tel.","homepage","Email","page_url"
"Töpfer Dipl. Ing. Rolf  ","","Himmelgeister Str. 37","Düsseldorf","Bilk","(02 11) 30 27 16-0","http://www.blinken-toepfer.de","info@blinken-toepfer.de","https://www.dasoertliche.de/?id=0184088687297393278156&recuid=OVBCCYJQMALIGMQTQOIOXEPPOCNLLIOU5N52NY5W6XV3VYDWAI&action=58&pagePos=1&dar=5&kw=Ingenieurb%c3%bcro&form_name=detail&lastFormName=search_nat&ci=D%c3%bcsseldorf&recFrom=1&hitno=0&kgs=05111000&zvo_ok=0&orderby=name&ttforderby=rel&buc=184&verlNr=102&page=78&context=11"
"Schüßler-Plan Ingenieurges. mbH  ","","St.-Franziskus-Str. 148","Düsseldorf","Mörsenbroich","(02 11) 61 02-01","http://www.schuessler-plan.de","duesseldorf@schuessler-pla...","https://www.dasoertliche.de/?id=0184088669174392846134&recuid=JFLAG6OHRQCSUPVVUCPP5LP3JSH6DIHA4FEM5AOTZH7YN5CKAI&action=58&pagePos=1&dar=2&kw=Ingenieurb%c3%bcro&form_name=detail&lastFormName=search_nat&ci=D%c3%bcsseldorf&recFrom=1&hitno=11&kgs=05111000&zvo_ok=0&orderby=name&ttforderby=rel&buc=184&verlNr=102&page=78&context=11"
"AES Arbeits Entlastungs Service GmbH  ","","Striegauer Weg 7","Düsseldorf","Vennhausen","(02 11) 9 03 00-0","www.aes-df.de","","https://www.dasoertliche.de/?id=0184080065591392938153&recuid=S3753PIYX27NHLFWJBPGI5SSSNTQ45Z4JCLSOJ3LHJJXAXMVAI&action=58&pagePos=1&dar=1&kw=Ingenieurb%c3%bcro&form_name=detail&lastFormName=search_nat&ci=D%c3%bcsseldorf&recFrom=1&hitno=24&kgs=05111000&zvo_ok=0&orderby=name&ttforderby=rel&buc=184&verlNr=102&page=78&context=11"
"ACS Airport Consulting & Services Planungsges. mbH  ","","Peter-Müller-Str. 16","Düsseldorf","Unterrath","(02 11) 5 28 74 45-0","http://www.acs-planer.de","","https://www.dasoertliche.de/?id=0184067675366393370086&recuid=IJ236VKPTU2ACJTCSPV5FGGYI6TY3M465HGXJQFS2GHIETYC&action=58&pagePos=1&dar=1&kw=Ingenieurb%c3%bcro&form_name=detail&lastFormName=search_nat&ci=D%c3%bcsseldorf&recFrom=1&hitno=23&kgs=05111000&zvo_ok=0&orderby=name&ttforderby=rel&buc=184&verlNr=102&page=78&context=11"
"A + U GmbH Dr. Scheffold  ","","Klosekamp 17","Düsseldorf","Kaiserswerth","(02 11) 40 10 55","","","https://www.dasoertliche.de/?id=0184032976828329877721&recuid=562Y5JK5HT2M7HWPBFIFIJQY5JVCSXCGALXF6TSXPIXNKAQ&action=58&pagePos=1&dar=1&kw=Ingenieurb%c3%bcro&form_name=detail&lastFormName=search_nat&ci=D%c3%bcsseldorf&recFrom=1&hitno=22&kgs=05111000&zvo_ok=0&orderby=name&ttforderby=rel&buc=184&verlNr=102&page=78&context=11"
"Blasczok Ingenieure  ","","Schwanenmarkt 4","Düsseldorf","Carlstadt","(02 11) 8 69 38 45","www.blasczok-ingenieure.de","","https://www.dasoertliche.de/?id=0184079103930381533935&recuid=5NITQ3HUDYJYOMEY5MCLCNH452CEJ3CP7DS4C66EBGINCAQ&action=58&pagePos=2&dar=1&kw=Ingenieurb%c3%bcro&form_name=detail&lastFormName=search_nat&ci=D%c3%bcsseldorf&recFrom=26&hitno=24&kgs=05111000&zvo_ok=0&radius=5&orderby=name&ttforderby=rel&buc=184&verlNr=102&page=78&context=11"
"Blasczok Ingenieure  ","","Kaiserswerther Str. 43","Düsseldorf","Pempelfort","(02 11) 3 83 08 83","http://www.blasczok-ingenieure.de","","https://www.dasoertliche.de/?id=0184054894725329877721&recuid=CY6VVAZ4IR7XUXDFXC32NQUQCPPNDKNUSQMOXGEUUSQCYAQ&action=58&pagePos=2&dar=1&kw=Ingenieurb%c3%bcro&form_name=detail&lastFormName=search_nat&ci=D%c3%bcsseldorf&recFrom=26&hitno=23&kgs=05111000&zvo_ok=0&radius=5&orderby=name&ttforderby=rel&buc=184&verlNr=102&page=78&context=11"
"Bilfinger Berger AG NL Ingenieurbau Inland  ","","Friedrichstr. 103","Düsseldorf","Unterbilk","(02 11) 3 01 83-0","http://www.hochbau.bilfinger.com","","https://www.dasoertliche.de/?id=0184054277980389649502&recuid=SP46VNXVA657VFPVEVOQYQCUSY7SYGR2J2JH6UI4MNDKSAQ&action=58&pagePos=2&dar=1&kw=Ingenieurb%c3%bcro&form_name=detail&lastFormName=search_nat&ci=D%c3%bcsseldorf&recFrom=26&hitno=22&kgs=05111000&zvo_ok=0&radius=5&orderby=name&ttforderby=rel&buc=184&verlNr=102&page=78&context=11"
"DASTUR ENGINEERING INTERNATIONAL GmbH  ","","Emanuel-Leutze-Str. 8","Düsseldorf","Lörick","(02 11) 1 78 54-0","http://www.dastur.com/","","https://www.dasoertliche.de/?id=0184085562616393370086&recuid=QTPHBFEFPKNMLDOQEYGTKZTTQFZHQBJNNGCWYTYNCRC34AQ&action=58&pagePos=3&dar=1&kw=Ingenieurb%c3%bcro&form_name=detail&lastFormName=search_nat&ci=D%c3%bcsseldorf&recFrom=51&hitno=24&kgs=05111000&zvo_ok=0&radius=5&orderby=name&ttforderby=rel&buc=184&verlNr=102&page=78&context=11"
"Czock Ingenieure Ingenieurgesellschaft mbH Verkehrsplanung u. Städtebau  ","","Gerresheimer Landstr. 110","Düsseldorf","Unterbach","(02 11) 2 05 51-0","www.czock-ingenieure.de","","https://www.dasoertliche.de/?id=0184059112099389395069&recuid=DPESK7NWUCFGDJTYNLHFLTLEDZH5IFFSPYNEPHRPRNJCCAQ&action=58&pagePos=3&dar=1&kw=Ingenieurb%c3%bcro&form_name=detail&lastFormName=search_nat&ci=D%c3%bcsseldorf&recFrom=51&hitno=23&kgs=05111000&zvo_ok=0&radius=5&orderby=name&ttforderby=rel&buc=184&verlNr=102&page=78&context=11"
"CYTEC Engineering GmbH  ","","Garather Schloßallee 19","Düsseldorf","40595 Düsseldorf","(02 11) 63 55 70 20","www.cytec-engineering.com","","https://www.dasoertliche.de/?id=0184082904637329877721&recuid=PDHGIIU75KGSDGR5OOKANGLDPVJKSHEZKL347LCUS5QNIKG2ZUBA&action=58&pagePos=3&dar=1&kw=Ingenieurb%c3%bcro&form_name=detail&lastFormName=search_nat&ci=D%c3%bcsseldorf&recFrom=51&hitno=22&kgs=05111000&zvo_ok=0&radius=5&orderby=name&ttforderby=rel&buc=184&verlNr=102&page=78&context=11"
"CRESCES Engineering GmbH  ","","Neuer Zollhof 1","Düsseldorf","40221 Düsseldorf","(02 11) 91 37 72 30","","","https://www.dasoertliche.de/?id=0184082762188329877721&recuid=WHTPLCT552S6HI7CFIRCMUCLWQUGGES7PI7OOEJJNFEB2AAT4UBA&action=58&pagePos=3&dar=1&kw=Ingenieurb%c3%bcro&form_name=detail&lastFormName=search_nat&ci=D%c3%bcsseldorf&recFrom=51&hitno=21&kgs=05111000&zvo_ok=0&radius=5&orderby=name&ttforderby=rel&buc=184&verlNr=102&page=78&context=11"
"Franke Reiner Ing.-grad. Ingenieurbüro  ","","Düsselthaler Str. 1","Düsseldorf","Pempelfort","(02 11) 35 48 31","","","https://www.dasoertliche.de/?id=0184032971385393278156&recuid=2EMXIICKPJP2G6F74BC7QGFU2TLAZ73YV3IKO36TIWBOWAQ&action=58&pagePos=4&dar=1&kw=Ingenieurb%c3%bcro&form_name=detail&lastFormName=search_nat&ci=D%c3%bcsseldorf&recFrom=76&hitno=24&kgs=05111000&zvo_ok=0&radius=5&orderby=name&ttforderby=rel&buc=184&verlNr=102&page=78&context=11"
"Feuerstack Oliver Büro für Baustatik  ","","Am Gieb 35","Düsseldorf","Hubbelrath","(02 11) 29 69 66","www.feuerstack-beyen.de","","https://www.dasoertliche.de/?id=0184032979739353715988&recuid=5UYQFS46WV3YQREIVI55AJE45D3XJUSEQ3WL67VUP2VNOAQ&action=58&pagePos=4&dar=1&kw=Ingenieurb%c3%bcro&form_name=detail&lastFormName=search_nat&ci=D%c3%bcsseldorf&recFrom=76&hitno=23&kgs=05111000&zvo_ok=0&radius=5&orderby=name&ttforderby=rel&buc=184&verlNr=102&page=78&context=11"
"Hamma. Vom Berg Architekten. Ingenieure  ","","Edmund-Bertrams-Str. 55","Düsseldorf","Kalkum","(02 11) 41 55 56 30","","","https://www.dasoertliche.de/?id=0184081637695332974058&recuid=YMWQJZMG6RS2EQFOSIA5MI4AY2BSBPQUWFGCYVMJE6CAGFYC&action=58&pagePos=5&dar=1&kw=Ingenieurb%c3%bcro&form_name=detail&lastFormName=search_nat&ci=D%c3%bcsseldorf&recFrom=101&hitno=24&kgs=05111000&zvo_ok=0&radius=5&orderby=name&ttforderby=rel&buc=184&verlNr=102&page=78&context=11"
"H & S Elektroingenieurbetrieb  ","","Nikolausstr. 37","Düsseldorf","Himmelgeist","(02 11) 7 59 89 71","www.elektro-h-s.de","","https://www.dasoertliche.de/?id=0184032993717392938153&recuid=RPEWZXZB5WA2X35LPRECWQTERYZE4MZIMCCR6ZAYDNLLCAQ&action=58&pagePos=5&dar=1&kw=Ingenieurb%c3%bcro&form_name=detail&lastFormName=search_nat&ci=D%c3%bcsseldorf&recFrom=101&hitno=23&kgs=05111000&zvo_ok=0&radius=5&orderby=name&ttforderby=rel&buc=184&verlNr=102&page=78&context=11"
"Grützner Karl-Heinz Bauingenieur  ","","Flensburger Str. 30","Düsseldorf","Unterrath","(02 11) 42 65 44","","","https://www.dasoertliche.de/?id=0184083540244358894707&recuid=6V2QJQ4SQAZIPCMB4ETZUFGY6CCXRHS4YL2MOBOIMPXM6AQ&action=58&pagePos=5&dar=1&kw=Ingenieurb%c3%bcro&form_name=detail&lastFormName=search_nat&ci=D%c3%bcsseldorf&recFrom=101&hitno=22&kgs=05111000&zvo_ok=0&radius=5&orderby=name&ttforderby=rel&buc=184&verlNr=102&page=78&context=11"
"III ING Ingenieurgesellschaft mbH  ","","Heinrichstr. 129","Düsseldorf","Mörsenbroich","(02 11) 92 41 70 79","http://iii-ing.com/","","https://www.dasoertliche.de/?id=0184087841851375487724&recuid=CNALOVZOP4EVUCJT7OF3N4HNC33Z35H43SOEDH5OQT2L7JVRIMBA&action=58&pagePos=6&dar=1&kw=Ingenieurb%c3%bcro&form_name=detail&lastFormName=search_nat&ci=D%c3%bcsseldorf&recFrom=126&hitno=24&kgs=05111000&zvo_ok=0&radius=5&orderby=name&ttforderby=rel&buc=184&verlNr=102&page=78&context=11"
"IfU Düsseldorf Ingenieurbüro Hesse-Albert-Nover GbR  ","","Harkortstr. 13","Düsseldorf","Friedrichstadt","(02 11) 23 92 18 10","www.ifu-duesseldorf.de","","https://www.dasoertliche.de/?id=0184071829754329877721&recuid=TTG354OKKWCPVGF4G5WWSQDATFPSGESSKEJ4YOSJGY6FZ5YC&action=58&pagePos=6&dar=1&kw=Ingenieurb%c3%bcro&form_name=detail&lastFormName=search_nat&ci=D%c3%bcsseldorf&recFrom=126&hitno=23&kgs=05111000&zvo_ok=0&radius=5&orderby=name&ttforderby=rel&buc=184&verlNr=102&page=78&context=11"
"IFM Ingenieurgemeinschaft Fahrzeugtechník und Maschinen GmbH & Co. KG KFZ-Sachverständiger  ","","Königsberger Str. 10","Düsseldorf","Lierenfeld","(02 11) 9 03 05-0","www.ifm-ssh.de","","https://www.dasoertliche.de/?id=0184054626567393370086&recuid=BRMPXY3BWIIUUFJM377NFWHVBGJJJUFG54G4RHW67PTTMAQ&action=58&pagePos=6&dar=1&kw=Ingenieurb%c3%bcro&form_name=detail&lastFormName=search_nat&ci=D%c3%bcsseldorf&recFrom=126&hitno=22&kgs=05111000&zvo_ok=0&radius=5&orderby=name&ttforderby=rel&buc=184&verlNr=102&page=78&context=11"
"Ingenieurbüro Manfred Schwierz  ","","Benrodestr. 35","Düsseldorf","Benrath","","","","https://www.dasoertliche.de/?id=0184072016710329877721&recuid=SOCBKVHANPG73Y7WII2TITZJSZKDS5S7DAOIKACJPYSVFPQC&action=58&pagePos=7&dar=1&kw=Ingenieurb%c3%bcro&form_name=detail&lastFormName=search_nat&ci=D%c3%bcsseldorf&recFrom=151&hitno=22&kgs=05111000&zvo_ok=0&radius=5&orderby=name&ttforderby=rel&buc=184&verlNr=102&page=78&context=11"
"IRS Ingenieurgesellschaft für Bautechnik mbH  ","","Heinrichstr. 85","Düsseldorf","Mörsenbroich","(02 11) 6 99 05-0","www.irs-ingenieure.de","","https://www.dasoertliche.de/?id=0184058070350389395069&recuid=Y43PBWBIEV7ZKZPH7BG6WEU3YLOBTTLOQHDIQZ5LLL3P2AQ&action=58&pagePos=8&dar=1&kw=Ingenieurb%c3%bcro&form_name=detail&lastFormName=search_nat&ci=D%c3%bcsseldorf&recFrom=176&hitno=24&kgs=05111000&zvo_ok=0&radius=5&orderby=name&ttforderby=rel&buc=184&verlNr=102&page=78&context=11"
"IRIKA Engineering & Commercial Services GmbH  ","","Grafenberger Allee 295","Düsseldorf","Flingern Nord","(02 11) 6 99 90 52-0","http://www.irika.de","","https://www.dasoertliche.de/?id=0184077201159393278156&recuid=TCTZH2R5ETXMV3WTEBDEWRQKTVPT47D4HML2MYLHJZQFTHIC&action=58&pagePos=8&dar=1&kw=Ingenieurb%c3%bcro&form_name=detail&lastFormName=search_nat&ci=D%c3%bcsseldorf&recFrom=176&hitno=23&kgs=05111000&zvo_ok=0&radius=5&orderby=name&ttforderby=rel&buc=184&verlNr=102&page=78&context=11"
"IRIKA Engineering Commercial Im-Export  ","","Grafenberger Allee 342","Düsseldorf","Grafenberg","","http://www.irika.de","","https://www.dasoertliche.de/?id=0184076891739329877721&recuid=GMRGKE7WNBVWC23Y7HP7X3MPG2HJT54QRM65VTEXUGBASAQ&action=58&pagePos=8&dar=1&kw=Ingenieurb%c3%bcro&form_name=detail&lastFormName=search_nat&ci=D%c3%bcsseldorf&recFrom=176&hitno=22&kgs=05111000&zvo_ok=0&radius=5&orderby=name&ttforderby=rel&buc=184&verlNr=102&page=78&context=11"
"Kuhlmann Ingenieurbüro für Baustatik  ","","Fröhlenstr. 6","Düsseldorf","Hassels","(02 11) 71 32 20","","","https://www.dasoertliche.de/?id=0184032978523389741381&recuid=I2JCEVCVDLMTH6RKJGFHHDZ7INLIW3XPEVDSRXZO3IEXYAQ&action=58&pagePos=9&dar=1&kw=Ingenieurb%c3%bcro&form_name=detail&lastFormName=search_nat&ci=D%c3%bcsseldorf&recFrom=201&hitno=24&kgs=05111000&zvo_ok=0&radius=5&orderby=name&ttforderby=rel&buc=184&verlNr=102&page=78&context=11"
"Küffner Dr. Ingenieurbüro  ","","Düsseldorfer Str. 56","Düsseldorf","Oberkassel","(02 11) 55 36 41","www.ibft-online.de","","https://www.dasoertliche.de/?id=0184078119202329877721&recuid=TLJ4IP4NJ2MGNNP4OF4HORL6T4IQSLJYPKKHC62VANEKAAQ&action=58&pagePos=9&dar=1&kw=Ingenieurb%c3%bcro&form_name=detail&lastFormName=search_nat&ci=D%c3%bcsseldorf&recFrom=201&hitno=23&kgs=05111000&zvo_ok=0&radius=5&orderby=name&ttforderby=rel&buc=184&verlNr=102&page=78&context=11"
"Ksiensik Theo Ing.grad. Ing.Büro  ","","Oberkasseler Str. 125 A","Düsseldorf","Oberkassel","","","","https://www.dasoertliche.de/?id=0184035115856329877721&recuid=QFYOKAVR5M57EGPEUADZIS65QS5TRBBIY6ALAB6GA7SU5UUCAI&action=58&pagePos=9&dar=1&kw=Ingenieurb%c3%bcro&form_name=detail&lastFormName=search_nat&ci=D%c3%bcsseldorf&recFrom=201&hitno=22&kgs=05111000&zvo_ok=0&radius=5&orderby=name&ttforderby=rel&buc=184&verlNr=102&page=78&context=11"
"Meuser Hans Dipl.-Ing. Ingenieurbüro  ","","Stoffeler Damm 106","Düsseldorf","Bilk","","","","https://www.dasoertliche.de/?id=0184063296265329877721&recuid=74A6YD2E5BGJU5EMRB4Z2J5M7LJQXERATVYAALGRPTKT6OYC&action=58&pagePos=10&dar=1&kw=Ingenieurb%c3%bcro&form_name=detail&lastFormName=search_nat&ci=D%c3%bcsseldorf&recFrom=226&hitno=24&kgs=05111000&zvo_ok=0&radius=5&orderby=name&ttforderby=rel&buc=184&verlNr=102&page=78&context=11"
"Meuser Hans Dipl.-Ing. Ingenieurbüro  ","","Stoffeler Damm 106","Düsseldorf","Bilk","(02 11) 58 33 50 51","","","https://www.dasoertliche.de/?id=0184032989571329877721&recuid=O2OXBBWYMHIBH2AFD3KX7PZQONLIEDVJAH4ZZYQRWJQ6RJYC&action=58&pagePos=10&dar=1&kw=Ingenieurb%c3%bcro&form_name=detail&lastFormName=search_nat&ci=D%c3%bcsseldorf&recFrom=226&hitno=23&kgs=05111000&zvo_ok=0&radius=5&orderby=name&ttforderby=rel&buc=184&verlNr=102&page=78&context=11"
"Meinsma MTM Ingenieure GmbH Ingenieurbüro  ","","Jürgensplatz 38","Düsseldorf","Unterbilk","(02 11) 56 62 27 71","www.mtm-ingenieure.de","","https://www.dasoertliche.de/?id=0184052739282393370086&recuid=YNFHMM2YOAD2MI5NTANN2EHHY34XBYI52ZGEW65HBOFGG4AC&action=58&pagePos=10&dar=1&kw=Ingenieurb%c3%bcro&form_name=detail&lastFormName=search_nat&ci=D%c3%bcsseldorf&recFrom=226&hitno=22&kgs=05111000&zvo_ok=0&radius=5&orderby=name&ttforderby=rel&buc=184&verlNr=102&page=78&context=11"
"PRO SERVICE Industriedienst- und Ingenieurleistungen GmbH  ","","Dreifaltigkeitsstr. 19 A","Düsseldorf","Gerresheim","(02 11) 2 91 03-90","www.proman-gmbh.de","","https://www.dasoertliche.de/?id=0184032980136389309238&recuid=YUZQNFU4SZRZO7HFTMONEDE6YCCXL33ETLF5K6GDK6UP6AQ&action=58&pagePos=11&dar=1&kw=Ingenieurb%c3%bcro&form_name=detail&lastFormName=search_nat&ci=D%c3%bcsseldorf&recFrom=251&hitno=24&kgs=05111000&zvo_ok=0&radius=5&orderby=name&ttforderby=rel&buc=184&verlNr=102&page=78&context=11"
"Pontos Analytics GmbH  ","","Merowingerplatz 1","Düsseldorf","40225 Düsseldorf","(02 11) 91 19 33 46","www.pontosanalytics.com","","https://www.dasoertliche.de/?id=0184082968315392938153&recuid=PDHCDXKEJ2PBPIAMGWSQFGLDPVGM4J4WKL347QAFQBQNIKG2ZUBA&action=58&pagePos=11&dar=1&kw=Ingenieurb%c3%bcro&form_name=detail&lastFormName=search_nat&ci=D%c3%bcsseldorf&recFrom=251&hitno=23&kgs=05111000&zvo_ok=0&radius=5&orderby=name&ttforderby=rel&buc=184&verlNr=102&page=78&context=11"
"Schäfer Joachim Ingenieurbüro  ","","Quirinstr. 20","Düsseldorf","Oberkassel","(02 11) 57 81 16","","","https://www.dasoertliche.de/?id=0184032990934329877721&recuid=KIGQE3UAYZPDCZNW3P767G5AK6E7Z6P3XJJ2HOFRZOLGQAQ&action=58&pagePos=12&dar=1&kw=Ingenieurb%c3%bcro&form_name=detail&lastFormName=search_nat&ci=D%c3%bcsseldorf&recFrom=276&hitno=24&kgs=05111000&zvo_ok=0&radius=5&orderby=name&ttforderby=rel&buc=184&verlNr=102&page=78&context=11"
"SakostaCAU GmbH Ingenieurdienstleistungen  ","","Liststr. 49","Düsseldorf","Düsseltal","(02 11) 17 18 31-0","www.sakostacau.de","","https://www.dasoertliche.de/?id=0184064188266332454969&recuid=7I3K7VMPBZSZWXMV3RCOIIU376IDLJK3T72KASHAFX3MAAQ&action=58&pagePos=12&dar=1&kw=Ingenieurb%c3%bcro&form_name=detail&lastFormName=search_nat&ci=D%c3%bcsseldorf&recFrom=276&hitno=23&kgs=05111000&zvo_ok=0&radius=5&orderby=name&ttforderby=rel&buc=184&verlNr=102&page=78&context=11"
"Sachverständige KFZ Abielau - Schmitt u. Partner  ","","Niersstr. 5","Düsseldorf","Oberkassel","(02 11) 57 36 92","http://www.schmitt-partner.de","","https://www.dasoertliche.de/?id=0184088714674393624946&recuid=FGTM4PTNTD2URRKBCSJA3TILFQNKEUUACEUC5CR5VMH6MBBKAI&action=58&pagePos=12&dar=2&kw=Ingenieurb%c3%bcro&form_name=detail&lastFormName=search_nat&ci=D%c3%bcsseldorf&recFrom=276&hitno=22&kgs=05111000&zvo_ok=0&radius=5&orderby=name&ttforderby=rel&buc=184&verlNr=102&page=78&context=11"
"Sachverständige Auto Experts Tassone GmbH  ","","Kölner Str. 38-40","Düsseldorf","40211 Düsseldorf","(02 11) 97 30 90","http://www.auto-experts.de","info@auto-experts.de","https://www.dasoertliche.de/?id=0184088680955393019036&recuid=LNRI7YYHKAYTUAJTTHUMXP6PL2AOB3XR2VNO5Z5P3PFZJQCYAI&action=58&pagePos=12&dar=5&kw=Ingenieurb%c3%bcro&form_name=detail&lastFormName=search_nat&ci=D%c3%bcsseldorf&recFrom=276&hitno=21&kgs=05111000&zvo_ok=0&radius=5&orderby=name&ttforderby=rel&buc=184&verlNr=102&page=78&context=11"
"Sturm & Partner Ing. Büro GbR  ","","Thomas-Mann-Str. 12","Düsseldorf","Mörsenbroich","0172 2 95 34 24","","","https://www.dasoertliche.de/?id=0184062947741389395069&recuid=I3KX2YCIC6DDFIBUJCSVHHTYIMC6GNVBOJEED3TB2ZFHYAQ&action=58&pagePos=13&dar=1&kw=Ingenieurb%c3%bcro&form_name=detail&lastFormName=search_nat&ci=D%c3%bcsseldorf&recFrom=301&hitno=24&kgs=05111000&zvo_ok=0&radius=5&orderby=name&ttforderby=rel&buc=184&verlNr=102&page=78&context=11"
"Sturm & Partner  ","","Thomas-Mann-Str. 12","Düsseldorf","Mörsenbroich","0172 2 15 30 37","","","https://www.dasoertliche.de/?id=0184062947706389395069&recuid=PY2UFD3GHBTAUQAMZ6OLHJUYPP4MNB4ZSJYK36HM5OVEIAQ&action=58&pagePos=13&dar=1&kw=Ingenieurb%c3%bcro&form_name=detail&lastFormName=search_nat&ci=D%c3%bcsseldorf&recFrom=301&hitno=23&kgs=05111000&zvo_ok=0&radius=5&orderby=name&ttforderby=rel&buc=184&verlNr=102&page=78&context=11"
"Sturm Norbert  ","","Heinrichstr. 153","Düsseldorf","Mörsenbroich","(02 11) 61 44 17","www.sturm-und-sept.com","","https://www.dasoertliche.de/?id=0184074898357389395069&recuid=P67Q77UNVPWAXSQNBLUF7IQSPJXLMSOWBB7EX5QY2UJZSHL4AI&action=58&pagePos=13&dar=1&kw=Ingenieurb%c3%bcro&form_name=detail&lastFormName=search_nat&ci=D%c3%bcsseldorf&recFrom=301&hitno=22&kgs=05111000&zvo_ok=0&radius=5&orderby=name&ttforderby=rel&buc=184&verlNr=102&page=78&context=11"
"VGP Industriebau GmbH  ","","Prinz-Georg-Str. 78","Düsseldorf","Pempelfort","01522 2 65 66 85","http://www.vgp.cz","","https://www.dasoertliche.de/?id=0184086452696353715988&recuid=EUAZT3ZM3FLWEUIF3GLKBRVMECWMRZ7VQ6VAB4O67LF6OOYC&action=58&pagePos=14&dar=1&kw=Ingenieurb%c3%bcro&form_name=detail&lastFormName=search_nat&ci=D%c3%bcsseldorf&recFrom=326&hitno=24&kgs=05111000&zvo_ok=0&radius=5&orderby=name&ttforderby=rel&buc=184&verlNr=102&page=78&context=11"
"Vermessungs-Büro Ingenieur-Büro A. Schulte Tenderich Dipl.-Ing. Vermessungsbüro  ","","Martinstr. 47-55","Düsseldorf","Bilk","(02 11) 56 69 99 05","","","https://www.dasoertliche.de/?id=0184055968098329877721&recuid=CWSAKYNB6XZHBVTYI33XRQIJCASZWFGLHCNKLIKHTYQNLHQC&action=58&pagePos=14&dar=1&kw=Ingenieurb%c3%bcro&form_name=detail&lastFormName=search_nat&ci=D%c3%bcsseldorf&recFrom=326&hitno=23&kgs=05111000&zvo_ok=0&radius=5&orderby=name&ttforderby=rel&buc=184&verlNr=102&page=78&context=11"
"Verband Privater Bauherren e.V.  ","","Rolf-Bongs-Str. 6","Düsseldorf","Lörick","(02 11) 59 60 60","www.vpb.de","","https://www.dasoertliche.de/?id=0184066917190389395069&recuid=4SO2ZFNJQ7FYD34GLNRGIPJQ4EAV42CNFLSQSZZSIIYQEP7HAI&action=58&pagePos=14&dar=1&kw=Ingenieurb%c3%bcro&form_name=detail&lastFormName=search_nat&ci=D%c3%bcsseldorf&recFrom=326&hitno=22&kgs=05111000&zvo_ok=0&radius=5&orderby=name&ttforderby=rel&buc=184&verlNr=102&page=78&context=11"
"Mühlhans Andreas  ","","Hammfelddamm 6","Neuss","Hammfeld","(0 21 31) 17 09 22-0","http://www.a-muehlhans.de","","https://www.dasoertliche.de/?id=0184088476708392846134&recuid=LWQEZPKHZ7W2DSBRASSTZOINLACM2BPVHXJKDTKMWNLPK377UMBA&action=58&pagePos=15&dar=2&kw=Ingenieurb%c3%bcro&form_name=detail&lastFormName=search_nat&ci=D%c3%bcsseldorf&recFrom=351&hitno=23&kgs=05111000&zvo_ok=0&radius=5&orderby=name&ttforderby=rel&buc=184&verlNr=102&page=78&context=11"
"Boesner GmbH  ","","Wiesenstr. 72","Düsseldorf","Heerdt","(02 11) 56 38 45-0","http://www.boesner.com","","https://www.dasoertliche.de/?id=0184088670753392846134&recuid=56WFKQ72NHXIBSM4BUFQICYB5IPB4LSMAXQUQ5RDN4CSADXMAI&action=58&pagePos=15&dar=2&kw=Ingenieurb%c3%bcro&form_name=detail&lastFormName=search_nat&ci=D%c3%bcsseldorf&recFrom=351&hitno=22&kgs=05111000&zvo_ok=0&radius=5&orderby=name&ttforderby=rel&buc=184&verlNr=102&page=78&context=11"
"Zickler Udo Ingenieurbüro  ","","Löricker Str. 7","Düsseldorf","Lörick","0171 7 43 94 50","","","https://www.dasoertliche.de/?id=0184032981241329877721&recuid=QTWUN3POYK363DXPCRSQYTKAQE3VW73BJKFG6OZCCNY34AQ&action=58&pagePos=15&dar=1&kw=Ingenieurb%c3%bcro&form_name=detail&lastFormName=search_nat&ci=D%c3%bcsseldorf&recFrom=351&hitno=21&kgs=05111000&zvo_ok=0&radius=5&orderby=name&ttforderby=rel&buc=184&verlNr=102&page=78&context=11"
"Zentes Gerhard Bauingenieur  ","","Mannesmannufer 5","Düsseldorf","Carlstadt","(02 11) 3 23 03 88","","","https://www.dasoertliche.de/?id=0184032980456329877721&recuid=QYJOR5KUEREOG7HS7JO7GT57QOTHF7JHXOEJQFWFCWE3YAQ&action=58&pagePos=15&dar=1&kw=Ingenieurb%c3%bcro&form_name=detail&lastFormName=search_nat&ci=D%c3%bcsseldorf&recFrom=351&hitno=20&kgs=05111000&zvo_ok=0&radius=5&orderby=name&ttforderby=rel&buc=184&verlNr=102&page=78&context=11"
"YUHA GmbH  ","","Jacobistr. 7","Düsseldorf","Stadtmitte","(02 11) 6 99 90 95-0","www.yuha.de","","https://www.dasoertliche.de/?id=0184074898375332454969&recuid=N4OOZO6NJFCTUVBO3P4PZMVRNK5MLR4LQDQB3XNP235PAJQC&action=58&pagePos=15&dar=1&kw=Ingenieurb%c3%bcro&form_name=detail&lastFormName=search_nat&ci=D%c3%bcsseldorf&recFrom=351&hitno=19&kgs=05111000&zvo_ok=0&radius=5&orderby=name&ttforderby=rel&buc=184&verlNr=102&page=78&context=11"
"WSP CBP Consulting Engineers  ","","Georg-Glock-Str. 3","Düsseldorf","Golzheim","(02 11) 36 11 96-0","","","https://www.dasoertliche.de/?id=0184032967842392241576&recuid=SADGGK4AQFI4GVVQURU6MWNLSW7ATAJSV6PKY2HOACM2UAQ&action=58&pagePos=15&dar=1&kw=Ingenieurb%c3%bcro&form_name=detail&lastFormName=search_nat&ci=D%c3%bcsseldorf&recFrom=351&hitno=18&kgs=05111000&zvo_ok=0&radius=5&orderby=name&ttforderby=rel&buc=184&verlNr=102&page=78&context=11"
"Wolf Helmut  ","","Pöhlenweg 30","Düsseldorf","Ludenberg","(02 11) 9 74 74-0","","","https://www.dasoertliche.de/?id=0184062734342389395069&recuid=UCIXHXVNS7DM77OGC5AGQ5Z4UVCWQHIKE2QSWC2JKUGZUAQ&action=58&pagePos=15&dar=1&kw=Ingenieurb%c3%bcro&form_name=detail&lastFormName=search_nat&ci=D%c3%bcsseldorf&recFrom=351&hitno=17&kgs=05111000&zvo_ok=0&radius=5&orderby=name&ttforderby=rel&buc=184&verlNr=102&page=78&context=11"
"Witte Projektmanagement GmbH Ingenieurbüro  ","","Holzstr. 2","Düsseldorf","Hafen","(02 11) 73 27 86-0","www.witte-projektmanagement.de","","https://www.dasoertliche.de/?id=0184073272998329877721&recuid=YTCW6BKT46JK3MNQMM4TSGDIYEYTWLDHNTFBMQ3KNICP4AQ&action=58&pagePos=15&dar=1&kw=Ingenieurb%c3%bcro&form_name=detail&lastFormName=search_nat&ci=D%c3%bcsseldorf&recFrom=351&hitno=16&kgs=05111000&zvo_ok=0&radius=5&orderby=name&ttforderby=rel&buc=184&verlNr=102&page=78&context=11"
"Witew Borislaw Ingenieurbüro  ","","Westfalenstr. 13","Düsseldorf","Rath","","http://www.strahlenschutz-online.org","","https://www.dasoertliche.de/?id=0184058217238329877721&recuid=FNFRYMLYOMOEEP2O3WW237XGF2H5PGMP4IS4LAXGWTIBCAQ&action=58&pagePos=15&dar=1&kw=Ingenieurb%c3%bcro&form_name=detail&lastFormName=search_nat&ci=D%c3%bcsseldorf&recFrom=351&hitno=15&kgs=05111000&zvo_ok=0&radius=5&orderby=name&ttforderby=rel&buc=184&verlNr=102&page=78&context=11"
"Witew Borislaw Ingenieurbüro  ","","Westfalenstr. 13","Düsseldorf","Rath","(02 11) 65 10 52","http://www.strahlenschutz-online.org","","https://www.dasoertliche.de/?id=0184032992863329877721&recuid=STIYNDXCZSDP3JPRBYUDGXL4SE6XGKJ5M2KUWAQQBZFK4AQ&action=58&pagePos=15&dar=1&kw=Ingenieurb%c3%bcro&form_name=detail&lastFormName=search_nat&ci=D%c3%bcsseldorf&recFrom=351&hitno=14&kgs=05111000&zvo_ok=0&radius=5&orderby=name&ttforderby=rel&buc=184&verlNr=102&page=78&context=11"
"WINTER Beratende Ingenieure für Gebäudetechnik GmbH  ","","Vagedesstr. 19","Düsseldorf","Pempelfort","(02 11) 49 33 40","http://www.winter-ingenieure.de/","","https://www.dasoertliche.de/?id=0184086512438389395069&recuid=247WIWVQRRUJ44MDRFIZUNES2LRUBUD6RDLJOVGPM6JTDHOUAI&action=58&pagePos=15&dar=1&kw=Ingenieurb%c3%bcro&form_name=detail&lastFormName=search_nat&ci=D%c3%bcsseldorf&recFrom=351&hitno=13&kgs=05111000&zvo_ok=0&radius=5&orderby=name&ttforderby=rel&buc=184&verlNr=102&page=78&context=11"
"Winkels Rainer Ingenieurbüro  ","","Kamper Weg 137","Düsseldorf","Vennhausen","(02 11) 27 35 96","","","https://www.dasoertliche.de/?id=0184032969216329877721&recuid=XU75VX6L65UNIUOWX44545ESXDBV7XQURC6MC442F6SIOAQ&action=58&pagePos=15&dar=1&kw=Ingenieurb%c3%bcro&form_name=detail&lastFormName=search_nat&ci=D%c3%bcsseldorf&recFrom=351&hitno=12&kgs=05111000&zvo_ok=0&radius=5&orderby=name&ttforderby=rel&buc=184&verlNr=102&page=78&context=11"
"Wiese Klaus Bauingenieur  ","","Achillesstr. 7","Düsseldorf","Oberkassel","(02 11) 57 35 89","","","https://www.dasoertliche.de/?id=0184078649057389044515&recuid=P2X4NWM2XT4BPSQNJ3ZWVIICPN5PIW6XDB7QXLA6ZUYEIAQ&action=58&pagePos=15&dar=1&kw=Ingenieurb%c3%bcro&form_name=detail&lastFormName=search_nat&ci=D%c3%bcsseldorf&recFrom=351&hitno=11&kgs=05111000&zvo_ok=0&radius=5&orderby=name&ttforderby=rel&buc=184&verlNr=102&page=78&context=11"
"Wiese Klaus Bauingenieur  ","","Achillesstr. 7","Düsseldorf","Oberkassel","(02 11) 57 33 82","","","https://www.dasoertliche.de/?id=0184078649043389044515&recuid=NPE2BTH4VGPAFLAYDLTAZNDENZH6EPOCPZVF37T33BLFCAQ&action=58&pagePos=15&dar=1&kw=Ingenieurb%c3%bcro&form_name=detail&lastFormName=search_nat&ci=D%c3%bcsseldorf&recFrom=351&hitno=10&kgs=05111000&zvo_ok=0&radius=5&orderby=name&ttforderby=rel&buc=184&verlNr=102&page=78&context=11"
"Wichmann Architekten & Ingenieure GmbH  ","","Taubenstr. 7","Düsseldorf","Pempelfort","(02 11) 3 84 99 50","","","https://www.dasoertliche.de/?id=0184085249833392938153&recuid=RGLTRTYFUTAOB5HBHZ3UA2Z2RREVKARLH2DSWC3IEY5W6NMKAI&action=58&pagePos=15&dar=1&kw=Ingenieurb%c3%bcro&form_name=detail&lastFormName=search_nat&ci=D%c3%bcsseldorf&recFrom=351&hitno=9&kgs=05111000&zvo_ok=0&radius=5&orderby=name&ttforderby=rel&buc=184&verlNr=102&page=78&context=11"
"Werner Hans-Michael Ingenieurbüro  ","","Jordanstr. 31","Düsseldorf","Pempelfort","(02 11) 46 05 05","","","https://www.dasoertliche.de/?id=0184032972889329877721&recuid=W4ESUHNYTZPNE66Z2AL6Q7VEWKICBZA6X23KWVNEECJI2AQ&action=58&pagePos=15&dar=1&kw=Ingenieurb%c3%bcro&form_name=detail&lastFormName=search_nat&ci=D%c3%bcsseldorf&recFrom=351&hitno=8&kgs=05111000&zvo_ok=0&radius=5&orderby=name&ttforderby=rel&buc=184&verlNr=102&page=78&context=11"
"Werder Friedrich Ingenieur Architekt  ","","Driburger Str. 14","Düsseldorf","Rath","(02 11) 65 18 19","","","https://www.dasoertliche.de/?id=0184083158052329877721&recuid=LZT4OZDRVEYDWFJ2YP3L7P6KLOGLHH7X2BPZLAVDYT6GIAQ&action=58&pagePos=15&dar=1&kw=Ingenieurb%c3%bcro&form_name=detail&lastFormName=search_nat&ci=D%c3%bcsseldorf&recFrom=351&hitno=7&kgs=05111000&zvo_ok=0&radius=5&orderby=name&ttforderby=rel&buc=184&verlNr=102&page=78&context=11"
"Wendt Ingenieurbüro beratende Ingenieure  ","","Monheimstr. 24","Düsseldorf","Oberbilk","(02 11) 7 70 37-0","www.ib-wendt.de","","https://www.dasoertliche.de/?id=0184052845765332974058&recuid=WVSD32SCCYZ5ACWRUEWPUZWJWDTDTZA72O2I44WWFP7Y6AQ&action=58&pagePos=15&dar=1&kw=Ingenieurb%c3%bcro&form_name=detail&lastFormName=search_nat&ci=D%c3%bcsseldorf&recFrom=351&hitno=6&kgs=05111000&zvo_ok=0&radius=5&orderby=name&ttforderby=rel&buc=184&verlNr=102&page=78&context=11"
"Wendt Ing. Büro für Bau- u. Verkehrswesen  ","","Monheimstr. 24","Düsseldorf","Oberbilk","","www.ib-wendt.de","","https://www.dasoertliche.de/?id=0184058218755332974058&recuid=CMQVE2UF6Z3HMT3XUKA4PRUMC2MOXINXRAOZ374EUS6CSAQ&action=58&pagePos=15&dar=1&kw=Ingenieurb%c3%bcro&form_name=detail&lastFormName=search_nat&ci=D%c3%bcsseldorf&recFrom=351&hitno=5&kgs=05111000&zvo_ok=0&radius=5&orderby=name&ttforderby=rel&buc=184&verlNr=102&page=78&context=11"
"Wayss & Freytag Ing.-Bau AG  ","","Wiesenstr. 21 A","Düsseldorf","Heerdt","(02 11) 50 28-0","www.wf-ingbau.de","","https://www.dasoertliche.de/?id=0184062441142329877721&recuid=BQUTHGIA3F7G2UD7T7Q45W4EBHQZVYVGHPWPLMPFZQJQE&action=58&pagePos=15&dar=1&kw=Ingenieurb%c3%bcro&form_name=detail&lastFormName=search_nat&ci=D%c3%bcsseldorf&recFrom=351&hitno=4&kgs=05111000&zvo_ok=0&radius=5&orderby=name&ttforderby=rel&buc=184&verlNr=102&page=78&context=11"
"Virnich Ernst Adolf  ","","Rolf-Bongs-Str. 6","Düsseldorf","Lörick","(02 11) 59 60 16","www.virnich.eu","","https://www.dasoertliche.de/?id=0184060535110389395069&recuid=CNANSMBKIYLHUMT5Q3I3HRPNC2YKVNN264JMJYHAWLWPLYQQAI&action=58&pagePos=15&dar=1&kw=Ingenieurb%c3%bcro&form_name=detail&lastFormName=search_nat&ci=D%c3%bcsseldorf&recFrom=351&hitno=3&kgs=05111000&zvo_ok=0&radius=5&orderby=name&ttforderby=rel&buc=184&verlNr=102&page=78&context=11"
"Vinnemeier Ingenieurplanung  ","","Himmelgeister Landstr. 89","Düsseldorf","Himmelgeist","(02 11) 75 41 80","www.vinnemeier-licht.de","","https://www.dasoertliche.de/?id=0184084091960393278156&recuid=J75J7ZNCHOWCNFBBILTWXLKXJI7MEBPGJVHH77I75Q4HKAQ&action=58&pagePos=15&dar=1&kw=Ingenieurb%c3%bcro&form_name=detail&lastFormName=search_nat&ci=D%c3%bcsseldorf&recFrom=351&hitno=2&kgs=05111000&zvo_ok=0&radius=5&orderby=name&ttforderby=rel&buc=184&verlNr=102&page=78&context=11"
"VGP Industriebau GmbH  ","","Prinz-Georg-Str. 78","Düsseldorf","Pempelfort","(02 11) 87 54 45-0","http://www.vgp.cz","","https://www.dasoertliche.de/?id=0184082549508353715988&recuid=X7SHY5OJIOZPRNE7MAUVOXSJXJ3DMJI3JWYUCWD5GETIKAQ&action=58&pagePos=15&dar=1&kw=Ingenieurb%c3%bcro&form_name=detail&lastFormName=search_nat&ci=D%c3%bcsseldorf&recFrom=351&hitno=1&kgs=05111000&zvo_ok=0&radius=5&orderby=name&ttforderby=rel&buc=184&verlNr=102&page=78&context=11"
"VGP Industriebau GmbH  ","","Prinz-Georg-Str. 78","Düsseldorf","Pempelfort","0174 3 34 46 71","http://www.vgp.cz","","https://www.dasoertliche.de/?id=0184086452697353715988&recuid=O7MUDPPUROHTBCKXADCHRFDUOJDIOZUGPZ4TBKAGXUNU2AQ&action=58&pagePos=15&dar=1&kw=Ingenieurb%c3%bcro&form_name=detail&lastFormName=search_nat&ci=D%c3%bcsseldorf&recFrom=351&hitno=0&kgs=05111000&zvo_ok=0&radius=5&orderby=name&ttforderby=rel&buc=184&verlNr=102&page=78&context=11"
"VDI GmbH  ","","Graf-Recke-Str. 84","Düsseldorf","Düsseltal","(02 11) 62 14-0","www.vdi.de","","https://www.dasoertliche.de/?id=0184073065739393278156&recuid=JCW6SSVN2D5QZZDIE3RF3FAAJUY3WZXCX6OBXCJ5RCLQE&action=58&pagePos=14&dar=1&kw=Ingenieurb%c3%bcro&form_name=detail&lastFormName=search_nat&ci=D%c3%bcsseldorf&recFrom=326&hitno=21&kgs=05111000&zvo_ok=0&radius=5&orderby=name&ttforderby=rel&buc=184&verlNr=102&page=78&context=11"
"Uyar Ünsal Dipl.-Ing.  ","","Karl-Geusen-Str. 169","Düsseldorf","Lierenfeld","","","","https://www.dasoertliche.de/?id=0184086276385397252507&recuid=QEYQCBB4UBSPQUHTSBJ2OYU4QSBFBDBATCH62KHJGGOWPE4CAI&action=58&pagePos=14&dar=1&kw=Ingenieurb%c3%bcro&form_name=detail&lastFormName=search_nat&ci=D%c3%bcsseldorf&recFrom=326&hitno=20&kgs=05111000&zvo_ok=0&radius=5&orderby=name&ttforderby=rel&buc=184&verlNr=102&page=78&context=11"
"UNITED ENGINEERS GmbH  ","","Friedrichstr. 73","Düsseldorf","Unterbilk","(02 11) 31 11 47-0","www.united-engineers.de","","https://www.dasoertliche.de/?id=0184072601848329877721&recuid=VZPFMFL3MEF6AF72UYXYU4XTVPYH3NQP66QMKE4DA2PZIAQ&action=58&pagePos=14&dar=1&kw=Ingenieurb%c3%bcro&form_name=detail&lastFormName=search_nat&ci=D%c3%bcsseldorf&recFrom=326&hitno=19&kgs=05111000&zvo_ok=0&radius=5&orderby=name&ttforderby=rel&buc=184&verlNr=102&page=78&context=11"
"Ullmann Torsten  ","","Schumannstr. 109","Düsseldorf","Düsseltal","(02 11) 4 70 73 20","www.3b-sachverstaendige.de","","https://www.dasoertliche.de/?id=0184077293595392938153&recuid=J2EXFQUQMXOCFZJDCL7HXEBEJNY4QQ7MEBADDPIR4US2QK2NAI&action=58&pagePos=14&dar=1&kw=Ingenieurb%c3%bcro&form_name=detail&lastFormName=search_nat&ci=D%c3%bcsseldorf&recFrom=326&hitno=18&kgs=05111000&zvo_ok=0&radius=5&orderby=name&ttforderby=rel&buc=184&verlNr=102&page=78&context=11"
"Ullmann Torsten  ","","Schumannstr. 109","Düsseldorf","Düsseltal","0151 56 16 00 75","www.3b-sachverstaendige.de","","https://www.dasoertliche.de/?id=0184084390379392938153&recuid=M3KC72WNJWAQVOALH6SXPBDZMMP7UWGXKLU5L3R3VN54UMWE24BA&action=58&pagePos=14&dar=1&kw=Ingenieurb%c3%bcro&form_name=detail&lastFormName=search_nat&ci=D%c3%bcsseldorf&recFrom=326&hitno=17&kgs=05111000&zvo_ok=0&radius=5&orderby=name&ttforderby=rel&buc=184&verlNr=102&page=78&context=11"
"Turrek Cornelia Dipl. Ing.  ","","Quadenhofstr. 106","Düsseldorf","Gerresheim","(02 11) 2 09 84 24","","mail@ibturrek.de","https://www.dasoertliche.de/?id=0184086038945353715988&recuid=5HFXV6SUGWPZZOM3NJ5EGCTG5QZQCYKIMLTSUFCQF5K5GAQ&action=58&pagePos=14&dar=1&kw=Ingenieurb%c3%bcro&form_name=detail&lastFormName=search_nat&ci=D%c3%bcsseldorf&recFrom=326&hitno=16&kgs=05111000&zvo_ok=0&radius=5&orderby=name&ttforderby=rel&buc=184&verlNr=102&page=78&context=11"
"Transtec GmbH trade, engineering, consulting  ","","Birkenstr. 122","Düsseldorf","Flingern Nord","(02 11) 62 18 23 39","","","https://www.dasoertliche.de/?id=0184088172824382566388&recuid=2APLVY3C6BFKE756QZRJINFT2XOQ3YBQQJPR6KOKBH7REJAC&action=58&pagePos=14&dar=1&kw=Ingenieurb%c3%bcro&form_name=detail&lastFormName=search_nat&ci=D%c3%bcsseldorf&recFrom=326&hitno=15&kgs=05111000&zvo_ok=0&radius=5&orderby=name&ttforderby=rel&buc=184&verlNr=102&page=78&context=11"
"Transmechatronics GmbH  ","","Wertheimer Str. 3","Düsseldorf","Reisholz","(02 11) 9 99 11 91","www.transmechatronics.com","","https://www.dasoertliche.de/?id=0184080578098329877721&recuid=4YZWMACHY5TZIUUIQEFISBU64OSCDP2DTLUOSO4KL2J5YAQ&action=58&pagePos=14&dar=1&kw=Ingenieurb%c3%bcro&form_name=detail&lastFormName=search_nat&ci=D%c3%bcsseldorf&recFrom=326&hitno=14&kgs=05111000&zvo_ok=0&radius=5&orderby=name&ttforderby=rel&buc=184&verlNr=102&page=78&context=11"
"Tong Myung Engineering Europe GmbH  ","","Werftstr. 17","Düsseldorf","Heerdt","0172 2 38 61 37","www.etongmyung.com","","https://www.dasoertliche.de/?id=0184058219346329877721&recuid=P6HJFJHEVTNBBYAYLTUWRKRDPJL2UTUYFFYSZN3KTAIEKAQ&action=58&pagePos=14&dar=1&kw=Ingenieurb%c3%bcro&form_name=detail&lastFormName=search_nat&ci=D%c3%bcsseldorf&recFrom=326&hitno=13&kgs=05111000&zvo_ok=0&radius=5&orderby=name&ttforderby=rel&buc=184&verlNr=102&page=78&context=11"
"Töpfer Gerd-Joachim Dipl.-Ing.  ","","Hermann-Weill-Str. 2 A","Düsseldorf","Golzheim","","","","https://www.dasoertliche.de/?id=0184082476089392938153&recuid=UVIQD4CHG4CVGIOD5B676RH4UDGGVPIM42SICSOOE7GJ6AQ&action=58&pagePos=14&dar=1&kw=Ingenieurb%c3%bcro&form_name=detail&lastFormName=search_nat&ci=D%c3%bcsseldorf&recFrom=326&hitno=11&kgs=05111000&zvo_ok=0&radius=5&orderby=name&ttforderby=rel&buc=184&verlNr=102&page=78&context=11"
"Töpfer Dipl. Ing. Rolf  ","","Himmelgeister Str. 37","Düsseldorf","Bilk","(02 11) 30 27 16-0","http://www.blinken-toepfer.de","info@blinken-toepfer.de","https://www.dasoertliche.de/?id=0184088687297393278156&recuid=OVBCCYJQMALIGMQTQOIOXEPPOCNLLIOU5N52NY5W6XV3VYDWAI&action=58&pagePos=14&dar=5&kw=Ingenieurb%c3%bcro&form_name=detail&lastFormName=search_nat&ci=D%c3%bcsseldorf&recFrom=326&hitno=10&kgs=05111000&zvo_ok=0&radius=5&orderby=name&ttforderby=rel&buc=184&verlNr=102&page=78&context=11"
"Tibek CNC-Technik GmbH  ","","Gutenbergstr. 39","Düsseldorf","40235 Düsseldorf","(02 11) 6 10 80 90","www.tibek.de","","https://www.dasoertliche.de/?id=0184083654369388698982&recuid=4EOT67UPS5EYQ74E7QWOWAFQ4STSPASCWTX3SV4AJ2YQPP7CAI&action=58&pagePos=14&dar=1&kw=Ingenieurb%c3%bcro&form_name=detail&lastFormName=search_nat&ci=D%c3%bcsseldorf&recFrom=326&hitno=9&kgs=05111000&zvo_ok=0&radius=5&orderby=name&ttforderby=rel&buc=184&verlNr=102&page=78&context=11"
"Thome Willi Dipl.-Ing. Ingenieurbüro  ","","Sonderburgstr. 3","Düsseldorf","Oberkassel","(02 11) 55 57 41","","","https://www.dasoertliche.de/?id=0184063016276329877721&recuid=NZEBJP5QNMOAMJYDTSKMFNXFNPKZDOWH75XZNLWK67JVIAQ&action=58&pagePos=14&dar=1&kw=Ingenieurb%c3%bcro&form_name=detail&lastFormName=search_nat&ci=D%c3%bcsseldorf&recFrom=326&hitno=8&kgs=05111000&zvo_ok=0&radius=5&orderby=name&ttforderby=rel&buc=184&verlNr=102&page=78&context=11"
"Theurich Hans-Peter Dipl.-Ing. Ingenieurbüro  ","","Bongardstr. 14","Düsseldorf","Pempelfort","(02 11) 44 11 13","","","https://www.dasoertliche.de/?id=0184069848138392938153&recuid=K7KPFKZQBSAD7MJCD2XX7DDZKIG2QP76MNLDN2BHTN2G2AQ&action=58&pagePos=14&dar=1&kw=Ingenieurb%c3%bcro&form_name=detail&lastFormName=search_nat&ci=D%c3%bcsseldorf&recFrom=326&hitno=7&kgs=05111000&zvo_ok=0&radius=5&orderby=name&ttforderby=rel&buc=184&verlNr=102&page=78&context=11"
"Thales Electronic Engineering GmbH Design Center Elektronik Mikroelektronik Ingenieurbüroelektronik  ","","Grafenberger Allee 128 A","Düsseldorf","Düsseltal","(02 11) 23 94 87-0","","","https://www.dasoertliche.de/?id=0184054894271393543336&recuid=OZW3KZQEKU4R4DA22LV7NIWAOONYFUOXYR4KLSVTRLZUYAQ&action=58&pagePos=14&dar=1&kw=Ingenieurb%c3%bcro&form_name=detail&lastFormName=search_nat&ci=D%c3%bcsseldorf&recFrom=326&hitno=6&kgs=05111000&zvo_ok=0&radius=5&orderby=name&ttforderby=rel&buc=184&verlNr=102&page=78&context=11"
"TCA Engineering GmbH  ","","Grafenberger Allee 115","Düsseldorf","Flingern Nord","(02 11) 22 98 01-70","www.tca-certification.com","","https://www.dasoertliche.de/?id=0184084705771392938153&recuid=KJ5IFHCXD4XBCO3SSGY4ZMGXK6YNBXE443OXX4XZQLKP5HHQPEBA&action=58&pagePos=14&dar=1&kw=Ingenieurb%c3%bcro&form_name=detail&lastFormName=search_nat&ci=D%c3%bcsseldorf&recFrom=326&hitno=5&kgs=05111000&zvo_ok=0&radius=5&orderby=name&ttforderby=rel&buc=184&verlNr=102&page=78&context=11"
"SWH Schliepkorte.Winterberg. Huge Ingenieur GmbH  ","","Friedrich-Ebert-Str. 40","Düsseldorf","Stadtmitte","(02 11) 36 38 80","swh-architekten.de","","https://www.dasoertliche.de/?id=0184032971803329877721&recuid=GBC4LOZAIELGODIQ32UKJ6PIGXWZJIUZ6IY5PJFNUTPAUAQ&action=58&pagePos=14&dar=1&kw=Ingenieurb%c3%bcro&form_name=detail&lastFormName=search_nat&ci=D%c3%bcsseldorf&recFrom=326&hitno=4&kgs=05111000&zvo_ok=0&radius=5&orderby=name&ttforderby=rel&buc=184&verlNr=102&page=78&context=11"
"SWH Schliepkorte.Winterberg. Huge Ingenieur GmbH  ","","Friedrich-Ebert-Str. 40","Düsseldorf","Stadtmitte","(02 11) 35 72 92","swh-architekten.de","","https://www.dasoertliche.de/?id=0184032986375329877721&recuid=Y4NZWTD6WZEJAU7HTRG7SDVWYL3TP7LOVTDOGENKC2C72AQ&action=58&pagePos=14&dar=1&kw=Ingenieurb%c3%bcro&form_name=detail&lastFormName=search_nat&ci=D%c3%bcsseldorf&recFrom=326&hitno=3&kgs=05111000&zvo_ok=0&radius=5&orderby=name&ttforderby=rel&buc=184&verlNr=102&page=78&context=11"
"SWH Schliepkorte.Winterberg. Huge Ingenieur GmbH  ","","Friedrich-Ebert-Str. 40","Düsseldorf","Stadtmitte","(02 11) 35 72 79","swh-architekten.de","","https://www.dasoertliche.de/?id=0184032978030329877721&recuid=I4FYXTDOGZMBAQ3H4WH6VDVGILKLP3POXRDNL5O32OIH2AQ&action=58&pagePos=14&dar=1&kw=Ingenieurb%c3%bcro&form_name=detail&lastFormName=search_nat&ci=D%c3%bcsseldorf&recFrom=326&hitno=2&kgs=05111000&zvo_ok=0&radius=5&orderby=name&ttforderby=rel&buc=184&verlNr=102&page=78&context=11"
"Suchantke Fred Dipl.-Ing. Ingenieurbüro  ","","Gladbacher Str. 6","Düsseldorf","Unterbilk","(02 11) 39 17 06","www.suchantke.com","","https://www.dasoertliche.de/?id=0184032986392329877721&recuid=33NHIFYAYWE2XONWIJKDQF3X3MACGMTXNXPUUTZQCNC6IAQ&action=58&pagePos=14&dar=1&kw=Ingenieurb%c3%bcro&form_name=detail&lastFormName=search_nat&ci=D%c3%bcsseldorf&recFrom=326&hitno=1&kgs=05111000&zvo_ok=0&radius=5&orderby=name&ttforderby=rel&buc=184&verlNr=102&page=78&context=11"
"Sturm & Partner Ingenieurbüro  ","","Thomas-Mann-Str. 12","Düsseldorf","Mörsenbroich","(02 11) 61 45 20","","","https://www.dasoertliche.de/?id=0184052845524389395069&recuid=HS6WEK43M3XERSCONGVSH3YQHEC7MS4VBI6VDTAGXUQAMAQ&action=58&pagePos=14&dar=1&kw=Ingenieurb%c3%bcro&form_name=detail&lastFormName=search_nat&ci=D%c3%bcsseldorf&recFrom=326&hitno=0&kgs=05111000&zvo_ok=0&radius=5&orderby=name&ttforderby=rel&buc=184&verlNr=102&page=78&context=11"
"Studier Beratendes Ingenieurbüro  ","","Blanckertzstr. 13","Düsseldorf","40629 Düsseldorf","(02 11) 29 43 74","","","https://www.dasoertliche.de/?id=0184051221772329877721&recuid=KZ4SMYME4IVCEDBS6XOMFBGUKPP5HGX7ZZL2T4UZ53MWYAQ&action=58&pagePos=13&dar=1&kw=Ingenieurb%c3%bcro&form_name=detail&lastFormName=search_nat&ci=D%c3%bcsseldorf&recFrom=301&hitno=21&kgs=05111000&zvo_ok=0&radius=5&orderby=name&ttforderby=rel&buc=184&verlNr=102&page=78&context=11"
"Straetmans Markus  ","","Oberacker 4","Düsseldorf","Wittlaer","(02 11) 1 69 88 07","","","https://www.dasoertliche.de/?id=0184085325676332454969&recuid=2LMEA2NTWGF2NKVTGQOAIMDV24XWISTTOHOFEOSNJRDOQAQ&action=58&pagePos=13&dar=1&kw=Ingenieurb%c3%bcro&form_name=detail&lastFormName=search_nat&ci=D%c3%bcsseldorf&recFrom=301&hitno=20&kgs=05111000&zvo_ok=0&radius=5&orderby=name&ttforderby=rel&buc=184&verlNr=102&page=78&context=11"
"Stollfuss Christian  ","","Kaiserswerther Str. 220","Düsseldorf","40474 Düsseldorf","(02 11) 43 40 08","","","https://www.dasoertliche.de/?id=0184082915801329877721&recuid=BUVK5DMNHZ4XSRLB6PHOH3EHBCZMLQNETUGONC63UODOXCAOAI&action=58&pagePos=13&dar=1&kw=Ingenieurb%c3%bcro&form_name=detail&lastFormName=search_nat&ci=D%c3%bcsseldorf&recFrom=301&hitno=18&kgs=05111000&zvo_ok=0&radius=5&orderby=name&ttforderby=rel&buc=184&verlNr=102&page=78&context=11"
"Stone Consult GmbH  ","","Schulweg 14","Düsseldorf","Wittlaer","(02 11) 9 40 79 76","","","https://www.dasoertliche.de/?id=0184084996828329877721&recuid=RTWFQ5D3V677RA7CGBESI3SBRECHMBBIIWBAYGAZENAGUTUPAI&action=58&pagePos=13&dar=1&kw=Ingenieurb%c3%bcro&form_name=detail&lastFormName=search_nat&ci=D%c3%bcsseldorf&recFrom=301&hitno=19&kgs=05111000&zvo_ok=0&radius=5&orderby=name&ttforderby=rel&buc=184&verlNr=102&page=78&context=11"
"Stengler Werner  ","","Kanzlerstr. 8 A","Düsseldorf","Rath","(02 11) 65 60 68","http://www.statik-stengler.de","","https://www.dasoertliche.de/?id=0184085709507392938153&recuid=5JFU47C5SYMJ4LUERBX36CHG57HWLMSD7TV5W65YJTTQZ2PJAI&action=58&pagePos=13&dar=1&kw=Ingenieurb%c3%bcro&form_name=detail&lastFormName=search_nat&ci=D%c3%bcsseldorf&recFrom=301&hitno=17&kgs=05111000&zvo_ok=0&radius=5&orderby=name&ttforderby=rel&buc=184&verlNr=102&page=78&context=11"
"Steinberger J. Ing. Industrieberatung  ","","Sebastiansweg 30","Düsseldorf","Lierenfeld","(02 11) 21 94 10","","","https://www.dasoertliche.de/?id=0184032980596329877721&recuid=INJPIGXYM4ATONZKU2P3HCX7I2APRDHK4VBPBJOG2LEXSAQ&action=58&pagePos=13&dar=1&kw=Ingenieurb%c3%bcro&form_name=detail&lastFormName=search_nat&ci=D%c3%bcsseldorf&recFrom=301&hitno=16&kgs=05111000&zvo_ok=0&radius=5&orderby=name&ttforderby=rel&buc=184&verlNr=102&page=78&context=11"
"Stawski Gert Ingenieur  ","","Alt-Heerdt 75","Düsseldorf","Heerdt","(02 11) 50 12 25","","","https://www.dasoertliche.de/?id=0184032992419329877721&recuid=H5A7HEGCUYJEWICI4KDKH5XMHLUOVLUW6Y7J7KEMU7NAKAQ&action=58&pagePos=13&dar=1&kw=Ingenieurb%c3%bcro&form_name=detail&lastFormName=search_nat&ci=D%c3%bcsseldorf&recFrom=301&hitno=15&kgs=05111000&zvo_ok=0&radius=5&orderby=name&ttforderby=rel&buc=184&verlNr=102&page=78&context=11"
"STAR Engineering Suppliers & Contracting GmbH  ","","Kronacher Weg 28","Düsseldorf","Vennhausen","(02 11) 27 66 48","","","https://www.dasoertliche.de/?id=0184086251050353715988&recuid=OQZHNQVE4VQSA4ZGTD4KPF47OHNI5U65QV22547FYSPJFEDXAI&action=58&pagePos=13&dar=1&kw=Ingenieurb%c3%bcro&form_name=detail&lastFormName=search_nat&ci=D%c3%bcsseldorf&recFrom=301&hitno=14&kgs=05111000&zvo_ok=0&radius=5&orderby=name&ttforderby=rel&buc=184&verlNr=102&page=78&context=11"
"Spiekermann GmbH Consulting Engineers Ingenieurbüro  ","","Fritz-Vomfelde-Str. 12","Düsseldorf","Lörick","(02 11) 52 36-0","www.spiekermann.de","","https://www.dasoertliche.de/?id=0184083845631389395069&recuid=5L6MBDWN3GXZVFMPANEX4CCR54KEYN2A5ZXVYJTVFLDAE&action=58&pagePos=13&dar=1&kw=Ingenieurb%c3%bcro&form_name=detail&lastFormName=search_nat&ci=D%c3%bcsseldorf&recFrom=301&hitno=13&kgs=05111000&zvo_ok=0&radius=5&orderby=name&ttforderby=rel&buc=184&verlNr=102&page=78&context=11"
"Speitkamp Lutz  ","","Am Rittersberg 41","Düsseldorf","Urdenbach","(02 11) 7 00 58 42","www.spautec.de","","https://www.dasoertliche.de/?id=0184065413542329877721&recuid=ER746W6XIEWFIGSN3GD6F7OSEHWYRKMH2YVNH2NOQHJ4FXJHAI&action=58&pagePos=13&dar=1&kw=Ingenieurb%c3%bcro&form_name=detail&lastFormName=search_nat&ci=D%c3%bcsseldorf&recFrom=301&hitno=12&kgs=05111000&zvo_ok=0&radius=5&orderby=name&ttforderby=rel&buc=184&verlNr=102&page=78&context=11"
"SMC Personalservice GbR  ","","Volmerswerther Str. 348","Düsseldorf","Flehe","(02 11) 94 21 74 47","http://www.smc-personalservice.de","","https://www.dasoertliche.de/?id=0184085860403392938153&recuid=W7JSGYJGS2APVEEXMALS4VL6WI2EQ4SHJ44NEPZXBJRRWNIV2ABA&action=58&pagePos=13&dar=1&kw=Ingenieurb%c3%bcro&form_name=detail&lastFormName=search_nat&ci=D%c3%bcsseldorf&recFrom=301&hitno=10&kgs=05111000&zvo_ok=0&radius=5&orderby=name&ttforderby=rel&buc=184&verlNr=102&page=78&context=11"
"Software Engineering Vertriebsgesellschaft mbH  ","","Heinrichstr. 83","Düsseldorf","Mörsenbroich","(02 11) 9 61 49-0","www.seg.de","","https://www.dasoertliche.de/?id=0184084022695393278156&recuid=6QKZUJN5PZDJW44AWJ7ZQFVY6GDRLHS6UL23C7HLK3L44AQ&action=58&pagePos=13&dar=1&kw=Ingenieurb%c3%bcro&form_name=detail&lastFormName=search_nat&ci=D%c3%bcsseldorf&recFrom=301&hitno=11&kgs=05111000&zvo_ok=0&radius=5&orderby=name&ttforderby=rel&buc=184&verlNr=102&page=78&context=11"
"Schulhoff Ingenieur Planungs GmbH  ","","Erasmusstr. 18","Düsseldorf","Bilk","(02 11) 33 44 64","","","https://www.dasoertliche.de/?id=0184077486493329877721&recuid=4R2OR67HLYTYOHER5F3YUOWZ4G2FVEKNYPS4Y2OVJ7MAFVXHAI&action=58&pagePos=13&dar=1&kw=Ingenieurb%c3%bcro&form_name=detail&lastFormName=search_nat&ci=D%c3%bcsseldorf&recFrom=301&hitno=9&kgs=05111000&zvo_ok=0&radius=5&orderby=name&ttforderby=rel&buc=184&verlNr=102&page=78&context=11"
"Schüßler-Plan Ingenieurgesellschaft mbH  ","","St.-Franziskus-Str. 148","Düsseldorf","Mörsenbroich","(02 11) 61 02-01","www.schuessler-plan.de","","https://www.dasoertliche.de/?id=0184077690024392938153&recuid=UCJP4JFISHA4H6S4HJURQ7Z7UVFQQZAJEWQXM5B5A47EMMFDAI&action=58&pagePos=13&dar=1&kw=Ingenieurb%c3%bcro&form_name=detail&lastFormName=search_nat&ci=D%c3%bcsseldorf&recFrom=301&hitno=8&kgs=05111000&zvo_ok=0&radius=5&orderby=name&ttforderby=rel&buc=184&verlNr=102&page=78&context=11"
"Schroeder Horst Wirtschaftsingenieur  ","","Schumannstr. 2","Düsseldorf","Düsseltal","(02 11) 67 44 45","","","https://www.dasoertliche.de/?id=0184054246105329877721&recuid=UUOE6S2FK5H4M5GXYVYO65VRUDITXZQMVOSO43PSNC6J6AQ&action=58&pagePos=13&dar=1&kw=Ingenieurb%c3%bcro&form_name=detail&lastFormName=search_nat&ci=D%c3%bcsseldorf&recFrom=301&hitno=7&kgs=05111000&zvo_ok=0&radius=5&orderby=name&ttforderby=rel&buc=184&verlNr=102&page=78&context=11"
"Schneider Manfred Dipl.-Ing. Ingenieurbüro für Arbeitssicherheit  ","","Glatzer Str. 7","Düsseldorf","Eller","(02 11) 22 13 30","","","https://www.dasoertliche.de/?id=0184032994277329877721&recuid=SH6VEV2LWGXPFFP7DBLB6WCQSQXVWIZYJKIEKNJVOJRKWAQ&action=58&pagePos=13&dar=1&kw=Ingenieurb%c3%bcro&form_name=detail&lastFormName=search_nat&ci=D%c3%bcsseldorf&recFrom=301&hitno=6&kgs=05111000&zvo_ok=0&radius=5&orderby=name&ttforderby=rel&buc=184&verlNr=102&page=78&context=11"
"Schmitz Wolfgang Ingenieurbüro  ","","Kastanienhof 41","Düsseldorf","Bilk","0179 6 97 96 98","","","https://www.dasoertliche.de/?id=0184065319530389395069&recuid=GSWSGFGX4H7FPRKZI7YDV3IAGFPYWJF7AU5AP5TXUYIQ4AQ&action=58&pagePos=13&dar=1&kw=Ingenieurb%c3%bcro&form_name=detail&lastFormName=search_nat&ci=D%c3%bcsseldorf&recFrom=301&hitno=5&kgs=05111000&zvo_ok=0&radius=5&orderby=name&ttforderby=rel&buc=184&verlNr=102&page=78&context=11"
"Schmitt Peter GbR  ","","Niersstr. 3-5","Düsseldorf","Oberkassel","(02 11) 57 36 92","www.schmitt-partner.de","","https://www.dasoertliche.de/?id=0184065722913393624946&recuid=SCY2NATNI7RPHWP5CACACSI4SUGRWRJZA2IXCNZKBMOXME4TAI&action=58&pagePos=13&dar=1&kw=Ingenieurb%c3%bcro&form_name=detail&lastFormName=search_nat&ci=D%c3%bcsseldorf&recFrom=301&hitno=4&kgs=05111000&zvo_ok=0&radius=5&orderby=name&ttforderby=rel&buc=184&verlNr=102&page=78&context=11"
"Schmeink Heinr. Ingenieur  ","","Baumstr. 1","Düsseldorf","Derendorf","(02 11) 42 98 11","","","https://www.dasoertliche.de/?id=0184032976204329877721&recuid=ELHXNGCFFKOEDJ2PAOMC523CE56IKJELPARTDQYCWRKBQAQ&action=58&pagePos=13&dar=1&kw=Ingenieurb%c3%bcro&form_name=detail&lastFormName=search_nat&ci=D%c3%bcsseldorf&recFrom=301&hitno=3&kgs=05111000&zvo_ok=0&radius=5&orderby=name&ttforderby=rel&buc=184&verlNr=102&page=78&context=11"
"Schmauck Sebastian  ","","Krippstr. 44","Düsseldorf","Eller","(02 11) 2 49 58 52","www.sedoplan.de","","https://www.dasoertliche.de/?id=0184060822259329877721&recuid=DGD3PPXX3DKHV33UOSOAFTRKDRVZARFYFYLVPR3DXAV76JI2AI&action=58&pagePos=13&dar=1&kw=Ingenieurb%c3%bcro&form_name=detail&lastFormName=search_nat&ci=D%c3%bcsseldorf&recFrom=301&hitno=2&kgs=05111000&zvo_ok=0&radius=5&orderby=name&ttforderby=rel&buc=184&verlNr=102&page=78&context=11"
"Schelp Horst-Sigurd Dipl.-Ing. Wasserwirtschaft  ","","Pappelweg 31","Düsseldorf","40489 Düsseldorf","(02 03) 4 40 30 71","","","https://www.dasoertliche.de/?id=0184048677942329877721&recuid=4TPPG2CSI2GYPNUBNAGECNLT4EQTC6QYO3VBYBKNPB7N4AQ&action=58&pagePos=13&dar=1&kw=Ingenieurb%c3%bcro&form_name=detail&lastFormName=search_nat&ci=D%c3%bcsseldorf&recFrom=301&hitno=1&kgs=05111000&zvo_ok=0&radius=5&orderby=name&ttforderby=rel&buc=184&verlNr=102&page=78&context=11"
"Sachverständige Auto Experts Tassone GmbH  ","","Kölner Str. 38-40","Düsseldorf","40211 Düsseldorf","(02 11) 97 30 90","http://www.auto-experts.de","info@auto-experts.de","https://www.dasoertliche.de/?id=0184088680954393019036&recuid=575BOV474SUY5GMHABOFGC2X5IMFI5SFJXXFEVBXN5JSAWHMAI&action=58&pagePos=12&dar=2&kw=Ingenieurb%c3%bcro&form_name=detail&lastFormName=search_nat&ci=D%c3%bcsseldorf&recFrom=276&hitno=20&kgs=05111000&zvo_ok=0&radius=5&orderby=name&ttforderby=rel&buc=184&verlNr=102&page=78&context=11"
"Sachverständige Auto Experts Tassone GmbH  ","","Kölner Str. 38-40","Düsseldorf","40211 Düsseldorf","(02 11) 97 30 90","http://www.auto-experts.de","info@auto-experts.de","https://www.dasoertliche.de/?id=0184088680953393019036&recuid=SLVAOKUPTG47HCP2CMQUG5SHS4ECSZRYLWJS4KBHCJBV2SERAI&action=58&pagePos=12&dar=5&kw=Ingenieurb%c3%bcro&form_name=detail&lastFormName=search_nat&ci=D%c3%bcsseldorf&recFrom=276&hitno=19&kgs=05111000&zvo_ok=0&radius=5&orderby=name&ttforderby=rel&buc=184&verlNr=102&page=78&context=11"
"Sachverständige Auto Experts Tassone GmbH  ","","Kölner Str. 38-40","Düsseldorf","40211 Düsseldorf","(02 11) 97 30 90","http://www.auto-experts.de","info@auto-experts.de","https://www.dasoertliche.de/?id=0184088680952393019036&recuid=6YXMGTSL7V6ZOTM62ZCYOEUD6PGE3IS4TH344T7DO2DTTDHVAI&action=58&pagePos=12&dar=2&kw=Ingenieurb%c3%bcro&form_name=detail&lastFormName=search_nat&ci=D%c3%bcsseldorf&recFrom=276&hitno=18&kgs=05111000&zvo_ok=0&radius=5&orderby=name&ttforderby=rel&buc=184&verlNr=102&page=78&context=11"
"Sachverständige a. KFZ Hildebrandt u. Brechfeld Ingenieurbüro  ","","Jülicher Str. 96","Düsseldorf","Derendorf","(02 11) 46 73 33","www.hlbg.eu","","https://www.dasoertliche.de/?id=0184032981000392938153&recuid=XTW3X4JAYC7N3DWUMVOAY5KAXEUHAAAVLK6VS4TWJRYYMAQ&action=58&pagePos=12&dar=1&kw=Ingenieurb%c3%bcro&form_name=detail&lastFormName=search_nat&ci=D%c3%bcsseldorf&recFrom=276&hitno=17&kgs=05111000&zvo_ok=0&radius=5&orderby=name&ttforderby=rel&buc=184&verlNr=102&page=78&context=11"
"Sachverständige a. KFZ Hildebrandt & Brechfeld GbR Ingenieurbüro  ","","Jülicher Str. 96","Düsseldorf","Derendorf","","","","https://www.dasoertliche.de/?id=0184066870249329877721&recuid=T6RCDNCKRLY75QPXJMEFIRQPTJ5EURR5BOISMILJN4BFAAE4AI&action=58&pagePos=12&dar=1&kw=Ingenieurb%c3%bcro&form_name=detail&lastFormName=search_nat&ci=D%c3%bcsseldorf&recFrom=276&hitno=16&kgs=05111000&zvo_ok=0&radius=5&orderby=name&ttforderby=rel&buc=184&verlNr=102&page=78&context=11"
"Runge, Küchler Ingenieurbüro für Verkehr  ","","Hohenstaufenstr. 4","Düsseldorf","Niederkassel","(02 11) 55 33 50","","","https://www.dasoertliche.de/?id=0184062083104329877721&recuid=IOEZOJGZVTNTNZZEFHBVXFBEIZH2667KHZBFHYYV6MUXSAQ&action=58&pagePos=12&dar=1&kw=Ingenieurb%c3%bcro&form_name=detail&lastFormName=search_nat&ci=D%c3%bcsseldorf&recFrom=276&hitno=15&kgs=05111000&zvo_ok=0&radius=5&orderby=name&ttforderby=rel&buc=184&verlNr=102&page=78&context=11"
"Ruffert Ingenieurgesellschaft für Konstruktiven Ingenieurbau mbH  ","","Heinrichstr. 155","Düsseldorf","MÖRSENBROICH","(02 11) 68 77 65-0","www.ruffert-partner.de","","https://www.dasoertliche.de/?id=0184057639273329877721&recuid=VWQZQRUVGLZ5RR6LJBHWG6AMVBZW63YOBCRQCOJWGYGUWA5OAI&action=58&pagePos=12&dar=1&kw=Ingenieurb%c3%bcro&form_name=detail&lastFormName=search_nat&ci=D%c3%bcsseldorf&recFrom=276&hitno=14&kgs=05111000&zvo_ok=0&radius=5&orderby=name&ttforderby=rel&buc=184&verlNr=102&page=78&context=11"
"RHEINPLAN GmbH  ","","Kreutzerstr. 6","Düsseldorf","40547 Düsseldorf","(02 11) 38 73 80 18","","","https://www.dasoertliche.de/?id=0184082890415329877721&recuid=I5DMDAD5TIKA6AYO5G5IDJXLIKSKDIMS3LEEPA4TVTUOXIHFIUBA&action=58&pagePos=12&dar=1&kw=Ingenieurb%c3%bcro&form_name=detail&lastFormName=search_nat&ci=D%c3%bcsseldorf&recFrom=276&hitno=13&kgs=05111000&zvo_ok=0&radius=5&orderby=name&ttforderby=rel&buc=184&verlNr=102&page=78&context=11"
"Rhein Engineering Metall GmbH  ","","Grafenberger Allee 125","Düsseldorf","Flingern Nord","(02 11) 96 83 93-0","","","https://www.dasoertliche.de/?id=0184081622520332974058&recuid=H7EFCA34DSNFPLKWGD2DFX3FHIJNSMM3MEYUXF36Y4EQKAQ&action=58&pagePos=12&dar=1&kw=Ingenieurb%c3%bcro&form_name=detail&lastFormName=search_nat&ci=D%c3%bcsseldorf&recFrom=276&hitno=12&kgs=05111000&zvo_ok=0&radius=5&orderby=name&ttforderby=rel&buc=184&verlNr=102&page=78&context=11"
"Rejek u. Tobai GbR  ","","Gerresheimer Landstr. 110","Düsseldorf","Unterbach","0171 2 02 20 97","www.birichter.de","","https://www.dasoertliche.de/?id=0184032987023329877721&recuid=66RS2DP6B3YZFSMSFR4ECPQO6JZHW2YVAT4UC5QFMQP42AQ&action=58&pagePos=12&dar=1&kw=Ingenieurb%c3%bcro&form_name=detail&lastFormName=search_nat&ci=D%c3%bcsseldorf&recFrom=276&hitno=11&kgs=05111000&zvo_ok=0&radius=5&orderby=name&ttforderby=rel&buc=184&verlNr=102&page=78&context=11"
"Reducta GmbH  ","","Schinkelstr. 29","Düsseldorf","Pempelfort","(02 11) 68 77 07-0","","","https://www.dasoertliche.de/?id=0184084522594389395069&recuid=U3RZZ7XBT6Y4HB6TAFVEQRCOUNWRQLIFJKUDGVZWBFHUAQNFAI&action=58&pagePos=12&dar=1&kw=Ingenieurb%c3%bcro&form_name=detail&lastFormName=search_nat&ci=D%c3%bcsseldorf&recFrom=276&hitno=10&kgs=05111000&zvo_ok=0&radius=5&orderby=name&ttforderby=rel&buc=184&verlNr=102&page=78&context=11"
"Recknagel Horst-Dieter Dipl.-Ing. Ingenieurbüro für technische Gebäudeausrüstung  ","","Konkordiastr. 55","Düsseldorf","Unterbilk","(02 11) 8 76 62 54","www.rectech.de","","https://www.dasoertliche.de/?id=0184083310262329877721&recuid=J7VRLJ2FKS4SVCBELWBAVLSGJJC2UKXLIJAWXAD524UXKAQ&action=58&pagePos=12&dar=1&kw=Ingenieurb%c3%bcro&form_name=detail&lastFormName=search_nat&ci=D%c3%bcsseldorf&recFrom=276&hitno=9&kgs=05111000&zvo_ok=0&radius=5&orderby=name&ttforderby=rel&buc=184&verlNr=102&page=78&context=11"
"Ramler GmbH, Peter Dipl.-Ing.  ","","Bayreuther Str. 28","Düsseldorf","Benrath","(02 11) 8 79 35 42","ramler-gmbh.de","","https://www.dasoertliche.de/?id=0184032988609332974058&recuid=SEI4MRVSDFB7A7H52AFPGWF4STLSXURVXCPYWNWHJ2GKWAQ&action=58&pagePos=12&dar=1&kw=Ingenieurb%c3%bcro&form_name=detail&lastFormName=search_nat&ci=D%c3%bcsseldorf&recFrom=276&hitno=8&kgs=05111000&zvo_ok=0&radius=5&orderby=name&ttforderby=rel&buc=184&verlNr=102&page=78&context=11"
"Ramler GmbH, Peter Dipl.-Ing.  ","","Bayreuther Str. 28","Düsseldorf","Benrath","(02 11) 22 82 82","ramler-gmbh.de","","https://www.dasoertliche.de/?id=0184032988668332974058&recuid=CPEB7RDLTONHFJL7GSECVWTFCYZJGF52P4JGZ2QMZZKSSAQ&action=58&pagePos=12&dar=1&kw=Ingenieurb%c3%bcro&form_name=detail&lastFormName=search_nat&ci=D%c3%bcsseldorf&recFrom=276&hitno=7&kgs=05111000&zvo_ok=0&radius=5&orderby=name&ttforderby=rel&buc=184&verlNr=102&page=78&context=11"
"R u. S Haustechnik  ","","Hansaallee 321","Düsseldorf","Heerdt","(02 11) 30 23 94-0","http://www.rus-haustechnik.de","","https://www.dasoertliche.de/?id=0184067802131329877721&recuid=53J6NOIWESA45JWAIBTHYND65MLUSMCPPLQFA6BKCEJ5IAQ&action=58&pagePos=12&dar=1&kw=Ingenieurb%c3%bcro&form_name=detail&lastFormName=search_nat&ci=D%c3%bcsseldorf&recFrom=276&hitno=6&kgs=05111000&zvo_ok=0&radius=5&orderby=name&ttforderby=rel&buc=184&verlNr=102&page=78&context=11"
"Qualitas Engineering Oil & Marine Services GmbH  ","","Grafenberger Allee 355","Düsseldorf","Grafenberg","(02 11) 68 34 87","","","https://www.dasoertliche.de/?id=0184076248700329877721&recuid=FYXY4EHQV57FWTSC2PRJ34ECFOYMXVMHTAXY36PJWW2BIAQ&action=58&pagePos=12&dar=1&kw=Ingenieurb%c3%bcro&form_name=detail&lastFormName=search_nat&ci=D%c3%bcsseldorf&recFrom=276&hitno=5&kgs=05111000&zvo_ok=0&radius=5&orderby=name&ttforderby=rel&buc=184&verlNr=102&page=78&context=11"
"Püllen Karl-Heinz Bauingenieur  ","","Heggemannstr. 23","Düsseldorf","Holthausen","(02 11) 79 23 60","","","https://www.dasoertliche.de/?id=0184032979422329877721&recuid=QUCNJFXAW5KHS2HJ3JLOKTFJQDWDFBJPWOCIEVEGDKP36AQ&action=58&pagePos=12&dar=1&kw=Ingenieurb%c3%bcro&form_name=detail&lastFormName=search_nat&ci=D%c3%bcsseldorf&recFrom=276&hitno=4&kgs=05111000&zvo_ok=0&radius=5&orderby=name&ttforderby=rel&buc=184&verlNr=102&page=78&context=11"
"PSE Engineering GmbH  ","","Monschauer Str. 1","Düsseldorf","Heerdt","(02 11) 17 93 44-0","","","https://www.dasoertliche.de/?id=0184083771536393370086&recuid=BSPTR5HDLPHV7WRMB7WWF3JSBE7ZMB5NGYBFRTYXSJOTMAQ&action=58&pagePos=12&dar=1&kw=Ingenieurb%c3%bcro&form_name=detail&lastFormName=search_nat&ci=D%c3%bcsseldorf&recFrom=276&hitno=3&kgs=05111000&zvo_ok=0&radius=5&orderby=name&ttforderby=rel&buc=184&verlNr=102&page=78&context=11"
"Projektmanagement GmbH&Co. KG EP Engineering  ","","Roßstr. 130","Düsseldorf","Golzheim","(02 11) 2 20 75 90","","","https://www.dasoertliche.de/?id=0184068344034329877721&recuid=LHV6MEVVN25SXBBTBHEDXA2GLQG6IWXYIJLQ7WBD3UVGGAQ&action=58&pagePos=12&dar=1&kw=Ingenieurb%c3%bcro&form_name=detail&lastFormName=search_nat&ci=D%c3%bcsseldorf&recFrom=276&hitno=2&kgs=05111000&zvo_ok=0&radius=5&orderby=name&ttforderby=rel&buc=184&verlNr=102&page=78&context=11"
"Prof. Dr. Ing. Dirk Bohne Ingenieure GmbH  ","","Werdener Str. 6","Düsseldorf","Oberbilk","(02 11) 9 30 95-0","","","https://www.dasoertliche.de/?id=0184078975227393370086&recuid=5QYGKEJTUBQJ4X4KZNW6SM455H3B5OKGQ7W5CGEEBTY5MAQ&action=58&pagePos=12&dar=1&kw=Ingenieurb%c3%bcro&form_name=detail&lastFormName=search_nat&ci=D%c3%bcsseldorf&recFrom=276&hitno=1&kgs=05111000&zvo_ok=0&radius=5&orderby=name&ttforderby=rel&buc=184&verlNr=102&page=78&context=11"
"PROECON GmbH  ","","Kleinschmitthauser Weg 11","Düsseldorf","40468 Düsseldorf","(02 11) 4 22 85 33","","","https://www.dasoertliche.de/?id=0184082859724329877721&recuid=HFSTXPAAR42WWKT4VG2KHWGIHTINHSM3ZQ36L4MMS7E57RZ2AI&action=58&pagePos=12&dar=1&kw=Ingenieurb%c3%bcro&form_name=detail&lastFormName=search_nat&ci=D%c3%bcsseldorf&recFrom=276&hitno=0&kgs=05111000&zvo_ok=0&radius=5&orderby=name&ttforderby=rel&buc=184&verlNr=102&page=78&context=11"
"Planungsteam Gruchmann Herbert  ","","Eibenstr. 2","Düsseldorf","Unterbach","0171 4 20 20 13","","","https://www.dasoertliche.de/?id=0184032980030329877721&recuid=STFMONWJT6NPRK72ORGCWXLHSFLQOB3XNWNCYFTDLNIK4AQ&action=58&pagePos=11&dar=1&kw=Ingenieurb%c3%bcro&form_name=detail&lastFormName=search_nat&ci=D%c3%bcsseldorf&recFrom=251&hitno=22&kgs=05111000&zvo_ok=0&radius=5&orderby=name&ttforderby=rel&buc=184&verlNr=102&page=78&context=11"
"Planungsgruppe Schneider & Partner mbB Ingenieurbüro  ","","Vogelsanger Weg 111","Düsseldorf","Mörsenbroich","(02 11) 96 16-3","www.huber-ingenieur-technik.de","","https://www.dasoertliche.de/?id=0184087982025393370086&recuid=EVOVW3ZGOMGUSPCLST5KHRXQEDPNREEPJ7LONLUG45TQE&action=58&pagePos=11&dar=1&kw=Ingenieurb%c3%bcro&form_name=detail&lastFormName=search_nat&ci=D%c3%bcsseldorf&recFrom=251&hitno=21&kgs=05111000&zvo_ok=0&radius=5&orderby=name&ttforderby=rel&buc=184&verlNr=102&page=78&context=11"
"Planungsgruppe Gestering und Partner  ","","Vogelsanger Weg 111","Düsseldorf","Mörsenbroich","(02 11) 1 79 91 43","","","https://www.dasoertliche.de/?id=0184049752906393370086&recuid=HYUR2ARYWN4VESCQ4OEMR34EHPHPRMM7QAYL7QUTSKEQIAQ&action=58&pagePos=11&dar=1&kw=Ingenieurb%c3%bcro&form_name=detail&lastFormName=search_nat&ci=D%c3%bcsseldorf&recFrom=251&hitno=20&kgs=05111000&zvo_ok=0&radius=5&orderby=name&ttforderby=rel&buc=184&verlNr=102&page=78&context=11"
"Peutz Consult GmbH  ","","Kolberger Str. 19","Düsseldorf","Hassels","(02 11) 99 95 82-60","www.peutz.de","","https://www.dasoertliche.de/?id=0184032984913329877721&recuid=NIYQRUX7RVQQ6RA64CKNBI44N7C5XMMZVXSTBQHV7LDPMCYC&action=58&pagePos=11&dar=1&kw=Ingenieurb%c3%bcro&form_name=detail&lastFormName=search_nat&ci=D%c3%bcsseldorf&recFrom=251&hitno=19&kgs=05111000&zvo_ok=0&radius=5&orderby=name&ttforderby=rel&buc=184&verlNr=102&page=78&context=11"
"PEM Planungs-Engineering- Management GmbH  ","","Berliner Allee 51","Düsseldorf","Stadtmitte","(02 11) 4 79 19 91","www.pem-consult.de","","https://www.dasoertliche.de/?id=0184055046807329877721&recuid=JTYY332M6KQQTPDMM2EVLGC4JFDNAPXOLBBFZIZXXZHHMAQ&action=58&pagePos=11&dar=1&kw=Ingenieurb%c3%bcro&form_name=detail&lastFormName=search_nat&ci=D%c3%bcsseldorf&recFrom=251&hitno=18&kgs=05111000&zvo_ok=0&radius=5&orderby=name&ttforderby=rel&buc=184&verlNr=102&page=78&context=11"
"Pelzer Haustechnik GmbH  ","","Am Fronhof 10-12","Meerbusch","Büderich","(0 21 32) 13 67-0","http://www.pelzer-haustechnik.de","shk@pelzer-haustechnik.de","https://www.dasoertliche.de/?id=0184088669497392846134&recuid=SG2ONMB5HPSPJWHLBVFRY5IZSRJAM3B3AOIHAVJTCEOV4FUSAI&action=58&pagePos=11&dar=5&kw=Ingenieurb%c3%bcro&form_name=detail&lastFormName=search_nat&ci=D%c3%bcsseldorf&recFrom=251&hitno=16&kgs=05111000&zvo_ok=0&radius=5&orderby=name&ttforderby=rel&buc=184&verlNr=102&page=78&context=11"
"PEM Planungs-Engineering- Management GmbH  ","","Berliner Allee 51","Düsseldorf","Stadtmitte","(02 11) 4 17 18-0","www.pem-consult.de","","https://www.dasoertliche.de/?id=0184055046806329877721&recuid=ESD7XBZ2TLLWDSQECHQSH4BKEFN6A3MNGASXLYCB2Y4B4AQ&action=58&pagePos=11&dar=1&kw=Ingenieurb%c3%bcro&form_name=detail&lastFormName=search_nat&ci=D%c3%bcsseldorf&recFrom=251&hitno=17&kgs=05111000&zvo_ok=0&radius=5&orderby=name&ttforderby=rel&buc=184&verlNr=102&page=78&context=11"
"Passau Ingenieure GmbH  ","","Münsterstr. 100","Düsseldorf","Derendorf","(02 11) 94 47 77-0","www.pi-gruppe.com","","https://www.dasoertliche.de/?id=0184065722721389395069&recuid=M6E6RLEXFXMQN6QUND2TTPREMJJ5MYWDEBUTDHBV6IKF2AQ&action=58&pagePos=11&dar=1&kw=Ingenieurb%c3%bcro&form_name=detail&lastFormName=search_nat&ci=D%c3%bcsseldorf&recFrom=251&hitno=15&kgs=05111000&zvo_ok=0&radius=5&orderby=name&ttforderby=rel&buc=184&verlNr=102&page=78&context=11"
"Parsolve GmbH Dr. Marc Bosseler Ingenieurdienstleistungen  ","","Hermannstadtstr. 23","Düsseldorf","Wersten","(02 11) 5 98 70-3 25","www.parsolve.de","","https://www.dasoertliche.de/?id=0184062549615329877721&recuid=YWCT4A3O5DK2J55WNJ4WWERIYBYAW5A2DFFII4DLC5EALPYC&action=58&pagePos=11&dar=1&kw=Ingenieurb%c3%bcro&form_name=detail&lastFormName=search_nat&ci=D%c3%bcsseldorf&recFrom=251&hitno=14&kgs=05111000&zvo_ok=0&radius=5&orderby=name&ttforderby=rel&buc=184&verlNr=102&page=78&context=11"
"Paar Hans H. Dipl.-Ing. Ingenieurbüro  ","","Ganghoferstr. 8","Düsseldorf","Stockum","(02 11) 43 22 48","","","https://www.dasoertliche.de/?id=0184032975986377211660&recuid=QR6XPBN3XYW6KHHWR46JYTOQQHCT5FRNZKC3OJ5JCLTL4AQ&action=58&pagePos=11&dar=1&kw=Ingenieurb%c3%bcro&form_name=detail&lastFormName=search_nat&ci=D%c3%bcsseldorf&recFrom=251&hitno=11&kgs=05111000&zvo_ok=0&radius=5&orderby=name&ttforderby=rel&buc=184&verlNr=102&page=78&context=11"
"Ostrick Ingenieur Planungs GmbH  ","","Kopernikusstr. 28","Düsseldorf","Bilk","(02 11) 33 44 64","http://oip-tga.de","","https://www.dasoertliche.de/?id=0184080279950392938153&recuid=6DRFX6Z5POWYHFUCNQRUUECP6URE4B2ZKXYV42T6LRHBMQHTAI&action=58&pagePos=11&dar=1&kw=Ingenieurb%c3%bcro&form_name=detail&lastFormName=search_nat&ci=D%c3%bcsseldorf&recFrom=251&hitno=10&kgs=05111000&zvo_ok=0&radius=5&orderby=name&ttforderby=rel&buc=184&verlNr=102&page=78&context=11"
"OGIS GmbH Ingenieurbüro  ","","Grafenberger Allee 277-287","Düsseldorf","Flingern Nord","(02 11) 28 07 33-0","www.ogis.de","","https://www.dasoertliche.de/?id=0184068754402332974058&recuid=Q5J72E7DKUOMAGWUWEILUXP6QLYQZBJG7KE72CUTB6JL2AQ&action=58&pagePos=11&dar=1&kw=Ingenieurb%c3%bcro&form_name=detail&lastFormName=search_nat&ci=D%c3%bcsseldorf&recFrom=251&hitno=8&kgs=05111000&zvo_ok=0&radius=5&orderby=name&ttforderby=rel&buc=184&verlNr=102&page=78&context=11"
"Naschberger Herbert u. Daub Hano Ingenieurbüro ","","Am Hüttenhof 22","Düsseldorf","Kalkum","(02 11) 4 08 00 51","www.hano-daub.de","","https://www.dasoertliche.de/?id=0184084774264329877721&recuid=EGIZHAF2ILPUBYSCNHNSXQZ4EQRMGMUDHAXRJBDCSBJRWAQ&action=58&pagePos=11&dar=1&kw=Ingenieurb%c3%bcro&form_name=detail&lastFormName=search_nat&ci=D%c3%bcsseldorf&recFrom=251&hitno=7&kgs=05111000&zvo_ok=0&radius=5&orderby=name&ttforderby=rel&buc=184&verlNr=102&page=78&context=11"
"Muro Donato Sicherheitsingenieur.NRW  ","","Birkenstr. 87","Düsseldorf","Flingern Nord","(02 11) 20 57 67 24","http://sicherheitsingenieur.nrw/","","https://www.dasoertliche.de/?id=0184088355306395357594&recuid=TG2FTKZKA346ZRXWLZNCC7IZTRQDAJ2UFALLKELFEYBTKUR3W4BA&action=58&pagePos=11&dar=1&kw=Ingenieurb%c3%bcro&form_name=detail&lastFormName=search_nat&ci=D%c3%bcsseldorf&recFrom=251&hitno=5&kgs=05111000&zvo_ok=0&radius=5&orderby=name&ttforderby=rel&buc=184&verlNr=102&page=78&context=11"
"MUT-Tschamber GmbH Ingenieurbüro  ","","Nettetalstr. 37","Düsseldorf","Unterbach","(02 11) 2 70 17 24","http://www.mut-tschamber.de","","https://www.dasoertliche.de/?id=0184032969511329877721&recuid=MBCJ37OE5AETKECN4PTKLKPJMXMLFC6B5VXKBTEZUDMVUAQ&action=58&pagePos=11&dar=1&kw=Ingenieurb%c3%bcro&form_name=detail&lastFormName=search_nat&ci=D%c3%bcsseldorf&recFrom=251&hitno=6&kgs=05111000&zvo_ok=0&radius=5&orderby=name&ttforderby=rel&buc=184&verlNr=102&page=78&context=11"
"Müther Engineering GmbH  ","","Vennhauser Allee 251","Düsseldorf","Vennhausen","(02 11) 92 62-6 20","","","https://www.dasoertliche.de/?id=0184054893930329877721&recuid=3ZWNROKTV4QSEGFWQZCPOCWB3PYFLDD2YXIOEJOPNLY6IAQ&action=58&pagePos=11&dar=1&kw=Ingenieurb%c3%bcro&form_name=detail&lastFormName=search_nat&ci=D%c3%bcsseldorf&recFrom=251&hitno=4&kgs=05111000&zvo_ok=0&radius=5&orderby=name&ttforderby=rel&buc=184&verlNr=102&page=78&context=11"
"MTM Ingenieure GmbH  ","","Jürgensplatz 38","Düsseldorf","Unterbilk","(02 11) 56 62 27 70","www.mtm-ingenieure.de","","https://www.dasoertliche.de/?id=0184066835771329877721&recuid=M26YG7STOLYDF4CGA3WETPYQMMH5KFVYEHU3ZAQKZUN4UW6EXYBA&action=58&pagePos=11&dar=1&kw=Ingenieurb%c3%bcro&form_name=detail&lastFormName=search_nat&ci=D%c3%bcsseldorf&recFrom=251&hitno=2&kgs=05111000&zvo_ok=0&radius=5&orderby=name&ttforderby=rel&buc=184&verlNr=102&page=78&context=11"
"Moritz Rolf Ingenieurbüro  ","","Geibelstr. 73","Düsseldorf","Grafenberg","(02 11) 67 68 49","","","https://www.dasoertliche.de/?id=0184032991995365549918&recuid=VTCXXFFKRGEMHN6FHYMSOZLIVF2B2PYFOKWTWO3AGNNJMAQ&action=58&pagePos=11&dar=1&kw=Ingenieurb%c3%bcro&form_name=detail&lastFormName=search_nat&ci=D%c3%bcsseldorf&recFrom=251&hitno=1&kgs=05111000&zvo_ok=0&radius=5&orderby=name&ttforderby=rel&buc=184&verlNr=102&page=78&context=11"
"mo Architekten Ingenieure Architekt  ","","Heinrichstr. 55","Düsseldorf","Düsseltal","(02 11) 53 02 50-0","www.mo-architekten.de","","https://www.dasoertliche.de/?id=0184088131936381533935&recuid=IF6UOZFNAYIC4XIATWZ7VJOQISM7DE7D2RH7HR5677OXWAQ&action=58&pagePos=11&dar=1&kw=Ingenieurb%c3%bcro&form_name=detail&lastFormName=search_nat&ci=D%c3%bcsseldorf&recFrom=251&hitno=0&kgs=05111000&zvo_ok=0&radius=5&orderby=name&ttforderby=rel&buc=184&verlNr=102&page=78&context=11"
"Meinsma MTM Ingenieure GmbH Ingenieurbüro  ","","Jürgensplatz 38","Düsseldorf","Unterbilk","(02 11) 56 62 27 70","www.mtm-ingenieure.de","","https://www.dasoertliche.de/?id=0184052739267393370086&recuid=RDN6O6GJHOLO3MXGDBIUYW3WRVUTW4CWI4D5U5RWIANSRYIC&action=58&pagePos=10&dar=1&kw=Ingenieurb%c3%bcro&form_name=detail&lastFormName=search_nat&ci=D%c3%bcsseldorf&recFrom=226&hitno=21&kgs=05111000&zvo_ok=0&radius=5&orderby=name&ttforderby=rel&buc=184&verlNr=102&page=78&context=11"
"Meinsma MTM Ingenieure GmbH Ingenieurbüro  ","","Jürgensplatz 38","Düsseldorf","Unterbilk","","www.mtm-ingenieure.de","","https://www.dasoertliche.de/?id=0184058221967393370086&recuid=HN7EFS3MRAZV4F2V6GIJR3WTHZH5XE7TX2NUIAQ&action=58&pagePos=10&dar=1&kw=Ingenieurb%c3%bcro&form_name=detail&lastFormName=search_nat&ci=D%c3%bcsseldorf&recFrom=226&hitno=20&kgs=05111000&zvo_ok=0&radius=5&orderby=name&ttforderby=rel&buc=184&verlNr=102&page=78&context=11"
"Medilanski Rudolf Ingenieurbüro  ","","Bismarckweg 9","Düsseldorf","Ludenberg","(02 11) 6 80 22 19","","","https://www.dasoertliche.de/?id=0184082006233329877721&recuid=GES4MOSMSNUFIQKY7SYLPUEIGSHMJ3ESRQ73HHERVK7AWAQ&action=58&pagePos=10&dar=1&kw=Ingenieurb%c3%bcro&form_name=detail&lastFormName=search_nat&ci=D%c3%bcsseldorf&recFrom=226&hitno=19&kgs=05111000&zvo_ok=0&radius=5&orderby=name&ttforderby=rel&buc=184&verlNr=102&page=78&context=11"
"Markmann Erwin Bauingenieur  ","","Emil-Barth-Str. 103","Düsseldorf","Garath","(02 11) 70 92 33","","","https://www.dasoertliche.de/?id=0184082068663329877721&recuid=66ALLBQ3RTGZN4U4G4PBKFRN6IYVS7C6G73BMFRINMN42AQ&action=58&pagePos=10&dar=1&kw=Ingenieurb%c3%bcro&form_name=detail&lastFormName=search_nat&ci=D%c3%bcsseldorf&recFrom=226&hitno=18&kgs=05111000&zvo_ok=0&radius=5&orderby=name&ttforderby=rel&buc=184&verlNr=102&page=78&context=11"
"Mantel K. , Theurich H.-P. Dipl.-Ing.(TH) Ingenieurbüro für Objektplanung ","","Posener Str. 43","Düsseldorf","Eller","(02 11) 21 77 11","","","https://www.dasoertliche.de/?id=0184082187622332974058&recuid=62VUBFJOFDTJPRMCJV6DMFYG6MCFQ5K7DT3Q2IYVIY3MYAQ&action=58&pagePos=10&dar=1&kw=Ingenieurb%c3%bcro&form_name=detail&lastFormName=search_nat&ci=D%c3%bcsseldorf&recFrom=226&hitno=17&kgs=05111000&zvo_ok=0&radius=5&orderby=name&ttforderby=rel&buc=184&verlNr=102&page=78&context=11"
"MAK -Engineering-und Handels gesellschaft mbH  ","","Frobenstr. 25","Düsseldorf","Rath","(02 11) 6 39 54 22","","","https://www.dasoertliche.de/?id=0184066699142393370086&recuid=3COL3U7MKDIZTV7YDIDXOAJR3UBFGLL3GXLBADDJFROOEAQ&action=58&pagePos=10&dar=1&kw=Ingenieurb%c3%bcro&form_name=detail&lastFormName=search_nat&ci=D%c3%bcsseldorf&recFrom=226&hitno=16&kgs=05111000&zvo_ok=0&radius=5&orderby=name&ttforderby=rel&buc=184&verlNr=102&page=78&context=11"
"Mai Planung & Konstruktions GmbH  ","","Elisabethstr. 105","Düsseldorf","40217 Düsseldorf","(02 11) 9 34 80 87","","","https://www.dasoertliche.de/?id=0184082742366329877721&recuid=7D743GNY2OZJTFWYEEAECGKS7UEF4GS4K33EWEZNKZJR4XP3AI&action=58&pagePos=10&dar=1&kw=Ingenieurb%c3%bcro&form_name=detail&lastFormName=search_nat&ci=D%c3%bcsseldorf&recFrom=226&hitno=15&kgs=05111000&zvo_ok=0&radius=5&orderby=name&ttforderby=rel&buc=184&verlNr=102&page=78&context=11"
"M Plan  ","","Holzstr. 2","Düsseldorf","Hafen","(02 11) 30 23 46-0","www.onmotive.de","","https://www.dasoertliche.de/?id=0184084611052329877721&recuid=6LTTYZHPASVNFN46BMGVOECK64BVCBCTJ36BOHB7LVFRIRPRAI&action=58&pagePos=10&dar=1&kw=Ingenieurb%c3%bcro&form_name=detail&lastFormName=search_nat&ci=D%c3%bcsseldorf&recFrom=226&hitno=14&kgs=05111000&zvo_ok=0&radius=5&orderby=name&ttforderby=rel&buc=184&verlNr=102&page=78&context=11"
"lux et umbra Inh. Natalia Hoffmann-Demsing Coaching  ","","Reisholzer Werftstr. 29 A","Düsseldorf","Holthausen","(02 11) 82 80 07 67","www.lux-umbra-coaching.de","","https://www.dasoertliche.de/?id=0184081678261396566230&recuid=RBM5EKV6MQ272INI5R32I2HURWTB5MDCYUDVQUVUOTMUUYYC&action=58&pagePos=10&dar=1&kw=Ingenieurb%c3%bcro&form_name=detail&lastFormName=search_nat&ci=D%c3%bcsseldorf&recFrom=226&hitno=13&kgs=05111000&zvo_ok=0&radius=5&orderby=name&ttforderby=rel&buc=184&verlNr=102&page=78&context=11"
"Loesche GmbH  ","","Hansaallee 243","Düsseldorf","Heerdt","0162 2 08 03 32","http://www.loesche.com","","https://www.dasoertliche.de/?id=0184072601821393278156&recuid=BPQE3G4VBWWGJBLYHWFDJV2NBYWLKNV4I4CVPPSJVQQTCAQ&action=58&pagePos=10&dar=1&kw=Ingenieurb%c3%bcro&form_name=detail&lastFormName=search_nat&ci=D%c3%bcsseldorf&recFrom=226&hitno=12&kgs=05111000&zvo_ok=0&radius=5&orderby=name&ttforderby=rel&buc=184&verlNr=102&page=78&context=11"
"Lindschulte + Kloppe Ingenieurgesellschaft mbH  ","","Stresemannstr. 26","Düsseldorf","Stadtmitte","(02 11) 36 11 37-0","www.lindschulte.de","","https://www.dasoertliche.de/?id=0184051374668329877721&recuid=XWY7MKE5QT65JX6ZPUEXK3Y4XBNSSNQ7DCZTGPARA4IYOAQ&action=58&pagePos=10&dar=1&kw=Ingenieurb%c3%bcro&form_name=detail&lastFormName=search_nat&ci=D%c3%bcsseldorf&recFrom=226&hitno=11&kgs=05111000&zvo_ok=0&radius=5&orderby=name&ttforderby=rel&buc=184&verlNr=102&page=78&context=11"
"Levar Jure  ","","Sulzbachstr. 71","Düsseldorf","Gerresheim","(02 11) 23 71 73","http://de.dawanda.com/shop/LEVARDESIGN/info#shop_imprint","","https://www.dasoertliche.de/?id=0184084686745329877721&recuid=ZSMAG7CG6XKKT3VNAEBS2LRVZEWQUR3FF7GS42DHMM4PMAQ&action=58&pagePos=10&dar=1&kw=Ingenieurb%c3%bcro&form_name=detail&lastFormName=search_nat&ci=D%c3%bcsseldorf&recFrom=226&hitno=10&kgs=05111000&zvo_ok=0&radius=5&orderby=name&ttforderby=rel&buc=184&verlNr=102&page=78&context=11"
"Lemke Günter Dipl.Ing. Ingenieurbüro für Statik  ","","Corellistr. 75","Düsseldorf","Urdenbach","(02 11) 70 79 61","","","https://www.dasoertliche.de/?id=0184032978376329877721&recuid=S27FCTOL2LZPHU75OZOV6XYTSMDTEQR7BGLVYRBBBIS2YAQ&action=58&pagePos=10&dar=1&kw=Ingenieurb%c3%bcro&form_name=detail&lastFormName=search_nat&ci=D%c3%bcsseldorf&recFrom=226&hitno=9&kgs=05111000&zvo_ok=0&radius=5&orderby=name&ttforderby=rel&buc=184&verlNr=102&page=78&context=11"
"Lehmann Siegfried Dr. Ingenieur  ","","Kleiansring 1","Düsseldorf","Kalkum","(02 11) 40 44 80","","","https://www.dasoertliche.de/?id=0184032976673329877721&recuid=DXYU36WZXW6XRGLQKCRRBVC4DAY7YGFUIYOHH6ICRBVCOAQ&action=58&pagePos=10&dar=1&kw=Ingenieurb%c3%bcro&form_name=detail&lastFormName=search_nat&ci=D%c3%bcsseldorf&recFrom=226&hitno=8&kgs=05111000&zvo_ok=0&radius=5&orderby=name&ttforderby=rel&buc=184&verlNr=102&page=78&context=11"
"LEG Wohnen NRW GmbH  ","","Hans-Böckler-Str. 38","Düsseldorf","Golzheim","(02 11) 45 68-0","http://www.leg-wohnen.de","info@leg-wohnen.de","https://www.dasoertliche.de/?id=0184088670333392846134&recuid=ISQTZFZ2I7WQDZTELSSATIAMIFY3M27OWOIHBSBB5VXONIQC&action=58&pagePos=10&dar=2&kw=Ingenieurb%c3%bcro&form_name=detail&lastFormName=search_nat&ci=D%c3%bcsseldorf&recFrom=226&hitno=7&kgs=05111000&zvo_ok=0&radius=5&orderby=name&ttforderby=rel&buc=184&verlNr=102&page=78&context=11"
"Lackner Manfred Architekt und Ingenieur  ","","Scheurenstr. 4","Düsseldorf","Friedrichstadt","(02 11) 38 15 26","","","https://www.dasoertliche.de/?id=0184032976654389649502&recuid=OPQTNEGOICWRFAQYN7GQBOSMOZ352CO2KZZC7PLY4Z5ESAQ&action=58&pagePos=10&dar=1&kw=Ingenieurb%c3%bcro&form_name=detail&lastFormName=search_nat&ci=D%c3%bcsseldorf&recFrom=226&hitno=6&kgs=05111000&zvo_ok=0&radius=5&orderby=name&ttforderby=rel&buc=184&verlNr=102&page=78&context=11"
"Kunze Oliver Dipl.-Ing. Sicherheitsingenieur  ","","Pigageallee 26","Düsseldorf","Benrath","(02 11) 7 11 91 21","www.arbeitesicher.de","","https://www.dasoertliche.de/?id=0184088031264379636104&recuid=T2B4Q4CRIPEOX3PEEN7AE6ROTMJD6XR5FKIA6MKTFMR2IAQ&action=58&pagePos=10&dar=1&kw=Ingenieurb%c3%bcro&form_name=detail&lastFormName=search_nat&ci=D%c3%bcsseldorf&recFrom=226&hitno=5&kgs=05111000&zvo_ok=0&radius=5&orderby=name&ttforderby=rel&buc=184&verlNr=102&page=78&context=11"
"KUNKEL + Partner KG  ","","Tußmannstr. 61","Düsseldorf","Pempelfort","","http://www.kunkel-partner.de","","https://www.dasoertliche.de/?id=0184087740475392938153&recuid=HKAB3B5ADXFW7TTRHO5HBWJNH6Y5ICPFD6Q3UAQ&action=58&pagePos=10&dar=1&kw=Ingenieurb%c3%bcro&form_name=detail&lastFormName=search_nat&ci=D%c3%bcsseldorf&recFrom=226&hitno=4&kgs=05111000&zvo_ok=0&radius=5&orderby=name&ttforderby=rel&buc=184&verlNr=102&page=78&context=11"
"KUNKEL + Partner GmbH & Co.KG  ","","Tussmanstr. 61","Düsseldorf","40477 Düsseldorf","(02 11) 94 88-0","http://www.kunkel-partner.de","","https://www.dasoertliche.de/?id=0184087740479392938153&recuid=FQ5IHJKCBFYXS5DHQWWMVT4XFG5N754GFD4KRXETQDOI4OIC&action=58&pagePos=10&dar=1&kw=Ingenieurb%c3%bcro&form_name=detail&lastFormName=search_nat&ci=D%c3%bcsseldorf&recFrom=226&hitno=3&kgs=05111000&zvo_ok=0&radius=5&orderby=name&ttforderby=rel&buc=184&verlNr=102&page=78&context=11"
"Kultscher Dagmar  ","","Heiligenhauser Str. 41 A","Düsseldorf","Hassels","","","","https://www.dasoertliche.de/?id=0184082419074353715988&recuid=DWSMNCLMIDXWRSDJE2DA77AJDAAMGV56BUJUZC2UWQ5SOAQ&action=58&pagePos=10&dar=1&kw=Ingenieurb%c3%bcro&form_name=detail&lastFormName=search_nat&ci=D%c3%bcsseldorf&recFrom=226&hitno=2&kgs=05111000&zvo_ok=0&radius=5&orderby=name&ttforderby=rel&buc=184&verlNr=102&page=78&context=11"
"Kullmann Jürgen Dipl.-Ing.  ","","Malkastenstr. 2","Düsseldorf","Pempelfort","(02 11) 35 62 33","","","https://www.dasoertliche.de/?id=0184055975936371167384&recuid=GM22A3YXCJ7EMWK7WWJ6RZ4YG36NXU42QIZJ7FPATGVASAQ&action=58&pagePos=10&dar=1&kw=Ingenieurb%c3%bcro&form_name=detail&lastFormName=search_nat&ci=D%c3%bcsseldorf&recFrom=226&hitno=1&kgs=05111000&zvo_ok=0&radius=5&orderby=name&ttforderby=rel&buc=184&verlNr=102&page=78&context=11"
"Kuhn Eduard Elektroingenieur  ","","Drususstr. 25","Düsseldorf","Oberkassel","(02 11) 57 09 53","","","https://www.dasoertliche.de/?id=0184079262295329877721&recuid=SGX7UU7MN3SOJR77PBKUKTQCSQTGOXBYDCIEWWRIOVXKWAQ&action=58&pagePos=10&dar=1&kw=Ingenieurb%c3%bcro&form_name=detail&lastFormName=search_nat&ci=D%c3%bcsseldorf&recFrom=226&hitno=0&kgs=05111000&zvo_ok=0&radius=5&orderby=name&ttforderby=rel&buc=184&verlNr=102&page=78&context=11"
"Kruschinski Reinhold Büro  ","","Am Roten Haus 71","Düsseldorf","Unterrath","(02 11) 4 79 20 46","","","https://www.dasoertliche.de/?id=0184055068609329877721&recuid=QVE2AQDTUMBPOPHWRBVOYUPEQCTRTBRH4CF3OVFJCLJL6AQ&action=58&pagePos=9&dar=1&kw=Ingenieurb%c3%bcro&form_name=detail&lastFormName=search_nat&ci=D%c3%bcsseldorf&recFrom=201&hitno=21&kgs=05111000&zvo_ok=0&radius=5&orderby=name&ttforderby=rel&buc=184&verlNr=102&page=78&context=11"
"Kreißl Peter Ingenieur- und Vermessungsbüro  ","","Am Ginsterberg 29 A","Düsseldorf","Unterbach","(02 11) 20 12 66","www.ingbkreissl.de","","https://www.dasoertliche.de/?id=0184032970600389649502&recuid=YUM7ADS7ONJLO7FM6FF7QDFUYDVWRRDMV3CPWC6MKWBP6AQ&action=58&pagePos=9&dar=1&kw=Ingenieurb%c3%bcro&form_name=detail&lastFormName=search_nat&ci=D%c3%bcsseldorf&recFrom=201&hitno=20&kgs=05111000&zvo_ok=0&radius=5&orderby=name&ttforderby=rel&buc=184&verlNr=102&page=78&context=11"
"Krecklau Detlev Dipl.-Ing. Ingenieurbüro  ","","Lakronstr. 48","Düsseldorf","Gerresheim","(02 11) 29 70 22","","","https://www.dasoertliche.de/?id=0184064977331329877721&recuid=2G6GFSICAT32HWNSB4BD4CAR2RBEQX3YBPID4YJZIIT6WAQ&action=58&pagePos=9&dar=1&kw=Ingenieurb%c3%bcro&form_name=detail&lastFormName=search_nat&ci=D%c3%bcsseldorf&recFrom=201&hitno=19&kgs=05111000&zvo_ok=0&radius=5&orderby=name&ttforderby=rel&buc=184&verlNr=102&page=78&context=11"
"Krahe Helmut Ingenieur  ","","Glehner Weg 30","Düsseldorf","Lörick","(02 11) 59 11 40","","","https://www.dasoertliche.de/?id=0184032991459329877721&recuid=RJVF566OUYQ7QC7CRE5YQQ6HR6HBTHZD3WF6YGVBCPY3AAQ&action=58&pagePos=9&dar=1&kw=Ingenieurb%c3%bcro&form_name=detail&lastFormName=search_nat&ci=D%c3%bcsseldorf&recFrom=201&hitno=16&kgs=05111000&zvo_ok=0&radius=5&orderby=name&ttforderby=rel&buc=184&verlNr=102&page=78&context=11"
"Kochanek Rinne GbR Julian-Andrè  ","","Suitbertusstr. 149","Düsseldorf","Bilk","(02 11) 93 37 10 71","","","https://www.dasoertliche.de/?id=0184086817132389649502&recuid=IJ4XJMXENIZC2GRKSWIM5IOUI7DOTF5N4XGXRA6GVT4YAQYC&action=58&pagePos=9&dar=1&kw=Ingenieurb%c3%bcro&form_name=detail&lastFormName=search_nat&ci=D%c3%bcsseldorf&recFrom=201&hitno=15&kgs=05111000&zvo_ok=0&radius=5&orderby=name&ttforderby=rel&buc=184&verlNr=102&page=78&context=11"
"Knoche Horst Ingenieurbüro  ","","Meineckestr. 63","Düsseldorf","Golzheim","","www.hknochedus-claimsoffice.de","","https://www.dasoertliche.de/?id=0184058216912332974058&recuid=YFHOF6BP2QC26INCTZBKQFHDYSLHBJLI7HALYVMBK7K7WAQ&action=58&pagePos=9&dar=1&kw=Ingenieurb%c3%bcro&form_name=detail&lastFormName=search_nat&ci=D%c3%bcsseldorf&recFrom=201&hitno=14&kgs=05111000&zvo_ok=0&radius=5&orderby=name&ttforderby=rel&buc=184&verlNr=102&page=78&context=11"
"Knoche Horst Ingenieur- und Sachverständigenbüro  ","","Meineckestr. 63","Düsseldorf","Golzheim","(02 11) 45 17 77","www.hknochedus-claimsoffice.de","","https://www.dasoertliche.de/?id=0184081546953332974058&recuid=6LHHQLFCAGCZZIMRA4HTWETD65HSCIS3PHZUATK2MVK4QAQ&action=58&pagePos=9&dar=1&kw=Ingenieurb%c3%bcro&form_name=detail&lastFormName=search_nat&ci=D%c3%bcsseldorf&recFrom=201&hitno=13&kgs=05111000&zvo_ok=0&radius=5&orderby=name&ttforderby=rel&buc=184&verlNr=102&page=78&context=11"
"Klein Manfred Ing.grad. Fernmeldetechnik , Bettina ","","Wernigeroder Str. 63","Düsseldorf","Hellerhof","(02 11) 70 31 77","www.ingenieurbuero-klein.net","","https://www.dasoertliche.de/?id=0184078610496329877721&recuid=Y5ACRLTH3UF2WJNOQATYEGHNYLETRO3O67DKEYOELPN72AQ&action=58&pagePos=9&dar=1&kw=Ingenieurb%c3%bcro&form_name=detail&lastFormName=search_nat&ci=D%c3%bcsseldorf&recFrom=201&hitno=12&kgs=05111000&zvo_ok=0&radius=5&orderby=name&ttforderby=rel&buc=184&verlNr=102&page=78&context=11"
"Klapdor GmbH, Dr.Ing.  ","","Kalkumer Str. 173","Düsseldorf","Unterrath","(02 11) 4 22 08 89","","","https://www.dasoertliche.de/?id=0184032977527329877721&recuid=2K23RAIQS37L5VFCIILFIGYY25WHYGLQDTOCCPYGPEUOQAQ&action=58&pagePos=9&dar=1&kw=Ingenieurb%c3%bcro&form_name=detail&lastFormName=search_nat&ci=D%c3%bcsseldorf&recFrom=201&hitno=9&kgs=05111000&zvo_ok=0&radius=5&orderby=name&ttforderby=rel&buc=184&verlNr=102&page=78&context=11"
"Klapdor GmbH, Dr.Ing.  ","","Kalkumer Str. 173","Düsseldorf","Unterrath","(02 11) 4 22 02 18","http://www.isrw-klapdor.de","","https://www.dasoertliche.de/?id=0184032977528392938153&recuid=QXSOTVSBYGX6TBPVDRAQKTCJQBPCYSBHJWFWI2CXFZ436AQ&action=58&pagePos=9&dar=1&kw=Ingenieurb%c3%bcro&form_name=detail&lastFormName=search_nat&ci=D%c3%bcsseldorf&recFrom=201&hitno=8&kgs=05111000&zvo_ok=0&radius=5&orderby=name&ttforderby=rel&buc=184&verlNr=102&page=78&context=11"
"Klapdor Dr.-Ing. GmbH  ","","Kalkumer Str. 173","Düsseldorf","Unterrath","(02 11) 41 85 56-0","http://www.isrw-klapdor.de","","https://www.dasoertliche.de/?id=0184088476930392846134&recuid=Z4UNGQGOLNR2GSN7VI23IK4FZLYFLATNQHA6AVWYHGAABCWMAI&action=58&pagePos=9&dar=2&kw=Ingenieurb%c3%bcro&form_name=detail&lastFormName=search_nat&ci=D%c3%bcsseldorf&recFrom=201&hitno=7&kgs=05111000&zvo_ok=0&radius=5&orderby=name&ttforderby=rel&buc=184&verlNr=102&page=78&context=11"
"KKK Ingenieurgesellschaft mbH Beratende Ingenieure Bauwesen Ingenieure  ","","Kurfürstenstr. 30","Düsseldorf","Stadtmitte","(02 11) 17 93 00-0","www.kkk-ing.de","","https://www.dasoertliche.de/?id=0184032988362329877721&recuid=PHNESEAA3GITFEKZCDQDRMDXPQZO6QWYON3RZOQYYNCEGAQ&action=58&pagePos=9&dar=1&kw=Ingenieurb%c3%bcro&form_name=detail&lastFormName=search_nat&ci=D%c3%bcsseldorf&recFrom=201&hitno=6&kgs=05111000&zvo_ok=0&radius=5&orderby=name&ttforderby=rel&buc=184&verlNr=102&page=78&context=11"
"Keilholz Walter Rechtsanwalt  ","","Schäferstr. 3","Düsseldorf","Pempelfort","(02 11) 49 91 32","www.anwalt-keilholz-duesseldorf.de","","https://www.dasoertliche.de/?id=0184032992769392938153&recuid=Z7DBBY3L6KG2VL5DI5ZSIBTLZI5AWKLGOHHBAHYAK5O7KAQ&action=58&pagePos=9&dar=1&kw=Ingenieurb%c3%bcro&form_name=detail&lastFormName=search_nat&ci=D%c3%bcsseldorf&recFrom=201&hitno=5&kgs=05111000&zvo_ok=0&radius=5&orderby=name&ttforderby=rel&buc=184&verlNr=102&page=78&context=11"
"KARKHEH GmbH  ","","Lenaustr. 1","Düsseldorf","Rath","(02 11) 83 09 36 40","www.karkhehgroup.com","","https://www.dasoertliche.de/?id=0184084635268329877721&recuid=KAHKSKH3WVCRCXA3RLW3ZMVDKWDNP5N2SLPQ75GJRKQ7Z2HSBUBA&action=58&pagePos=9&dar=1&kw=Ingenieurb%c3%bcro&form_name=detail&lastFormName=search_nat&ci=D%c3%bcsseldorf&recFrom=201&hitno=4&kgs=05111000&zvo_ok=0&radius=5&orderby=name&ttforderby=rel&buc=184&verlNr=102&page=78&context=11"
"Kallenberger Ingenieur-GmbH  ","","Vagedesstr. 2","Düsseldorf","Pempelfort","(02 11) 36 77 69 30","","","https://www.dasoertliche.de/?id=0184085276404329877721&recuid=ONJUEKVEG4MBEPY7U67IVEP6O2Y75I5HZ76FFHWU2PSLC2IC&action=58&pagePos=9&dar=1&kw=Ingenieurb%c3%bcro&form_name=detail&lastFormName=search_nat&ci=D%c3%bcsseldorf&recFrom=201&hitno=3&kgs=05111000&zvo_ok=0&radius=5&orderby=name&ttforderby=rel&buc=184&verlNr=102&page=78&context=11"
"Just Wilfried Ingenieur  ","","Rosenstr. 67","Düsseldorf","Pempelfort","(02 11) 4 98 03 10","","","https://www.dasoertliche.de/?id=0184071805906329877721&recuid=I7XRUXEXOWSTFHBTHXYEZG2CII4ZYNPFIZEWDJ2X352H2AQ&action=58&pagePos=9&dar=1&kw=Ingenieurb%c3%bcro&form_name=detail&lastFormName=search_nat&ci=D%c3%bcsseldorf&recFrom=201&hitno=2&kgs=05111000&zvo_ok=0&radius=5&orderby=name&ttforderby=rel&buc=184&verlNr=102&page=78&context=11"
"IVB Ingenieurgesellschaft für Verkehrs-und Baumanagement mbH  ","","St.-Franziskus-Str. 148","Düsseldorf","Mörsenbroich","(02 11) 61 01 89-90","http://www.ivb-consult.de","","https://www.dasoertliche.de/?id=0184088537276390426999&recuid=SB65N3AKTA2MMP5QYFA525GQSWJUZSTQ4EPXYPGJLXFDZGZSPYBA&action=58&pagePos=9&dar=1&kw=Ingenieurb%c3%bcro&form_name=detail&lastFormName=search_nat&ci=D%c3%bcsseldorf&recFrom=201&hitno=1&kgs=05111000&zvo_ok=0&radius=5&orderby=name&ttforderby=rel&buc=184&verlNr=102&page=78&context=11"
"ISF-Nowoplan GmbH Ingenieurbüro  ","","Hansaallee 201","Düsseldorf","Heerdt","(02 11) 4 54 20 90","","","https://www.dasoertliche.de/?id=0184032994584393278156&recuid=NIUSGJ5SC5QDS32HWGQMXI4EN6RZNFWIQBSNXPPER63FAAQ&action=58&pagePos=9&dar=1&kw=Ingenieurb%c3%bcro&form_name=detail&lastFormName=search_nat&ci=D%c3%bcsseldorf&recFrom=201&hitno=0&kgs=05111000&zvo_ok=0&radius=5&orderby=name&ttforderby=rel&buc=184&verlNr=102&page=78&context=11"
"IRIKA Engineering Commercial Im-Export  ","","Grafenberger Allee 342","Düsseldorf","Grafenberg","(02 11) 6 98 92 26","http://www.irika.de","","https://www.dasoertliche.de/?id=0184076891738329877721&recuid=CRCQENERJ4GEMDC7T74JZSXICHX35EFX5QNKX27QQ3SS4AQ&action=58&pagePos=8&dar=1&kw=Ingenieurb%c3%bcro&form_name=detail&lastFormName=search_nat&ci=D%c3%bcsseldorf&recFrom=176&hitno=21&kgs=05111000&zvo_ok=0&radius=5&orderby=name&ttforderby=rel&buc=184&verlNr=102&page=78&context=11"
"IPS Ingenieurbüro Peter Schneider Ingenieurbüro für Maschinenbau  ","","Börchemstr. 9","Düsseldorf","Benrath","(02 11) 25 29 42","www.ips-schneider.de","","https://www.dasoertliche.de/?id=0184058753946389395069&recuid=DW6ZM23S3P2E33R5E75DXSYQDBZ5YXNUBIOELHA2XN6SOAQ&action=58&pagePos=8&dar=1&kw=Ingenieurb%c3%bcro&form_name=detail&lastFormName=search_nat&ci=D%c3%bcsseldorf&recFrom=176&hitno=20&kgs=05111000&zvo_ok=0&radius=5&orderby=name&ttforderby=rel&buc=184&verlNr=102&page=78&context=11"
"IPS Ingenieurbüro Peter Schneider Ingenieurbüro für Maschinenbau  ","","Börchemstr. 9","Düsseldorf","Benrath","(02 11) 20 20 90","www.ips-schneider.de","","https://www.dasoertliche.de/?id=0184058753948389395069&recuid=SZQUVYFOKAUMMMVW7VY6OQGMSPFSFPB722L5SDOGGCQ2YAQ&action=58&pagePos=8&dar=1&kw=Ingenieurb%c3%bcro&form_name=detail&lastFormName=search_nat&ci=D%c3%bcsseldorf&recFrom=176&hitno=19&kgs=05111000&zvo_ok=0&radius=5&orderby=name&ttforderby=rel&buc=184&verlNr=102&page=78&context=11"
"IPS Ingenieurbüro Peter Schneider Ingenieurbüro für Maschinenbau  ","","Börchemstr. 9","Düsseldorf","Benrath","","www.ips-schneider.de","","https://www.dasoertliche.de/?id=0184058753947389395069&recuid=SBMXFZUWKYIMACVQYJ356RXUSVUCFWZX75IGGAQ&action=58&pagePos=8&dar=1&kw=Ingenieurb%c3%bcro&form_name=detail&lastFormName=search_nat&ci=D%c3%bcsseldorf&recFrom=176&hitno=18&kgs=05111000&zvo_ok=0&radius=5&orderby=name&ttforderby=rel&buc=184&verlNr=102&page=78&context=11"
"Intertec Int.technische Assistenz GmbH  ","","Niederkasseler Lohweg 20","Düsseldorf","Lörick","(02 11) 53 74 05-80","","","https://www.dasoertliche.de/?id=0184032968192389649502&recuid=EJPLR2D7DALUYKSH33PL527TE75JZJP6YKWV7RFVUOX34ZAC&action=58&pagePos=8&dar=1&kw=Ingenieurb%c3%bcro&form_name=detail&lastFormName=search_nat&ci=D%c3%bcsseldorf&recFrom=176&hitno=17&kgs=05111000&zvo_ok=0&radius=5&orderby=name&ttforderby=rel&buc=184&verlNr=102&page=78&context=11"
"International Business Consulting Engineering GmbH & Co. KG  ","","Berliner Allee 56","Düsseldorf","Friedrichstadt","(02 11) 15 92 87 20","www.ibce.de","","https://www.dasoertliche.de/?id=0184071957068393370086&recuid=HN46F64IPEYFKDK6WXX5LZ6UH3U6VDXR4W2HRMHZV7MPUQYC&action=58&pagePos=8&dar=1&kw=Ingenieurb%c3%bcro&form_name=detail&lastFormName=search_nat&ci=D%c3%bcsseldorf&recFrom=176&hitno=16&kgs=05111000&zvo_ok=0&radius=5&orderby=name&ttforderby=rel&buc=184&verlNr=102&page=78&context=11"
"International Business Consulting & Engineering GmbH & Co KG  ","","Berliner Allee 56","Düsseldorf","Friedrichstadt","0172 5 32 22 17","www.ibce.de","","https://www.dasoertliche.de/?id=0184062936782393370086&recuid=K2ERFFTYCTADR7JTI7NQ7DREKNQLS6V6FZMCTGIMTAJWYAQ&action=58&pagePos=8&dar=1&kw=Ingenieurb%c3%bcro&form_name=detail&lastFormName=search_nat&ci=D%c3%bcsseldorf&recFrom=176&hitno=15&kgs=05111000&zvo_ok=0&radius=5&orderby=name&ttforderby=rel&buc=184&verlNr=102&page=78&context=11"
"Institut für Schalltechnik, Raumakustik, Wärmeschutz Dr.-Ing. Klapdor GmbH  ","","Kalkumer Str. 173","Düsseldorf","Unterrath","(02 11) 41 85 56-0","http://www.isrw-klapdor.de","","https://www.dasoertliche.de/?id=0184058215890392938153&recuid=XA5UZK4CYNZNMSGM5FB543MWXXRSFEI2SK3OKKHXI2TYEAQ&action=58&pagePos=8&dar=1&kw=Ingenieurb%c3%bcro&form_name=detail&lastFormName=search_nat&ci=D%c3%bcsseldorf&recFrom=176&hitno=14&kgs=05111000&zvo_ok=0&radius=5&orderby=name&ttforderby=rel&buc=184&verlNr=102&page=78&context=11"
"Institut für Lärmschutz GmbH  ","","Arnheimer Str. 107","Düsseldorf","Kaiserswerth","(02 11) 40 10 35","http://www.ifl-acoustics.de","","https://www.dasoertliche.de/?id=0184088670158392846134&recuid=EMUTJSKI5BQE2WSX476IDR4EE3ROLQEKTYRND25CUOAOZCZAAI&action=58&pagePos=8&dar=2&kw=Ingenieurb%c3%bcro&form_name=detail&lastFormName=search_nat&ci=D%c3%bcsseldorf&recFrom=176&hitno=13&kgs=05111000&zvo_ok=0&radius=5&orderby=name&ttforderby=rel&buc=184&verlNr=102&page=78&context=11"
"ingenieurwerk Dipl. Ing. Gerd Koch  ","","Borsigstr. 17","Düsseldorf","Oberbilk","(02 11) 77 92 38-0","www.ingenieurwerk.de","","https://www.dasoertliche.de/?id=0184032990855329877721&recuid=CNSTPFRUBYGH2ATW4K7IPWWIC2M37Y5XZQO73N67WX5CSAQ&action=58&pagePos=8&dar=1&kw=Ingenieurb%c3%bcro&form_name=detail&lastFormName=search_nat&ci=D%c3%bcsseldorf&recFrom=176&hitno=12&kgs=05111000&zvo_ok=0&radius=5&orderby=name&ttforderby=rel&buc=184&verlNr=102&page=78&context=11"
"Ingenieursgesellschaft mbH Warns Löschmann  ","","Otto-Beche-Str. 36","Düsseldorf","Vennhausen","(02 11) 27 01 92 15","http://wlp-ingenieure.de","","https://www.dasoertliche.de/?id=0184066847984329877721&recuid=O5MX56XIGEIBSPQSVGPK3LXUOKLLFRNHYX4FRDOUVCW3OYYC&action=58&pagePos=8&dar=1&kw=Ingenieurb%c3%bcro&form_name=detail&lastFormName=search_nat&ci=D%c3%bcsseldorf&recFrom=176&hitno=10&kgs=05111000&zvo_ok=0&radius=5&orderby=name&ttforderby=rel&buc=184&verlNr=102&page=78&context=11"
"Ingenieurgesellschaft BSP Brauns Straetmans Partnerschaft  ","","Kreuzbergstr. 69","Düsseldorf","Kaiserswerth","(02 11) 51 34 09-0","www.bsp-duesseldorf.de","","https://www.dasoertliche.de/?id=0184088623460392938153&recuid=Q22GPAQIMP66RU7DKB2BCYQZQM7AWUBEDWEDAKJDIV23YAQ&action=58&pagePos=8&dar=1&kw=Ingenieurb%c3%bcro&form_name=detail&lastFormName=search_nat&ci=D%c3%bcsseldorf&recFrom=176&hitno=9&kgs=05111000&zvo_ok=0&radius=5&orderby=name&ttforderby=rel&buc=184&verlNr=102&page=78&context=11"
"Ingenieure Stötzel | Neeb GmbH  ","","Sistenichstr. 2","Düsseldorf","Benrath","(02 11) 17 80 34 20","http://www.btui.de/","","https://www.dasoertliche.de/?id=0184085020497329877721&recuid=INKUDY4ME4OC2MRGQS6ZZIPYI3E4JP4IZHGFJ54CWT5O7M7BKYBA&action=58&pagePos=8&dar=1&kw=Ingenieurb%c3%bcro&form_name=detail&lastFormName=search_nat&ci=D%c3%bcsseldorf&recFrom=176&hitno=8&kgs=05111000&zvo_ok=0&radius=5&orderby=name&ttforderby=rel&buc=184&verlNr=102&page=78&context=11"
"Ingenieurbüro Wolfgang Schmitz Bausachverständiger  ","","Kastanienhof 41","Düsseldorf","Bilk","(02 11) 3 10 77 11","","","https://www.dasoertliche.de/?id=0184032988897389395069&recuid=L4J5F7ROMNNDC5B26LBPDFV6LLWOV676XJIZP4NV46GWKAQ&action=58&pagePos=8&dar=1&kw=Ingenieurb%c3%bcro&form_name=detail&lastFormName=search_nat&ci=D%c3%bcsseldorf&recFrom=176&hitno=7&kgs=05111000&zvo_ok=0&radius=5&orderby=name&ttforderby=rel&buc=184&verlNr=102&page=78&context=11"
"Ingenieurbüro Töpfer  ","","Hermann-Weill-Str. 2 A","Düsseldorf","Golzheim","(02 11) 45 12 89","www.gj-toepfer.de","","https://www.dasoertliche.de/?id=0184046625030392938153&recuid=WRSABCCGXIW5UA6R4J3MMZGJWH6XXCA52O244H7WEP7Y4AQ&action=58&pagePos=8&dar=1&kw=Ingenieurb%c3%bcro&form_name=detail&lastFormName=search_nat&ci=D%c3%bcsseldorf&recFrom=176&hitno=6&kgs=05111000&zvo_ok=0&radius=5&orderby=name&ttforderby=rel&buc=184&verlNr=102&page=78&context=11"
"Ingenieurbüro Töpfer  ","","Hermann-Weill-Str. 2 A","Düsseldorf","Golzheim","","www.gj-toepfer.de","","https://www.dasoertliche.de/?id=0184073359598392938153&recuid=KY4FY2Q2LBYTQXZT2333VC4VKME4JOPJXLFQEAQ&action=58&pagePos=8&dar=1&kw=Ingenieurb%c3%bcro&form_name=detail&lastFormName=search_nat&ci=D%c3%bcsseldorf&recFrom=176&hitno=5&kgs=05111000&zvo_ok=0&radius=5&orderby=name&ttforderby=rel&buc=184&verlNr=102&page=78&context=11"
"Ingenieurbüro Qualitätsmanagement Ingenieurbüro  ","","Wendersstr. 56","Düsseldorf","Rath","(02 11) 6 41 10 06","","","https://www.dasoertliche.de/?id=0184060199055329877721&recuid=2Z2HM5FFS463QE5T7NL2WAGZ2OFFFRTV3XMJYU5SMC2OYAQ&action=58&pagePos=8&dar=1&kw=Ingenieurb%c3%bcro&form_name=detail&lastFormName=search_nat&ci=D%c3%bcsseldorf&recFrom=176&hitno=4&kgs=05111000&zvo_ok=0&radius=5&orderby=name&ttforderby=rel&buc=184&verlNr=102&page=78&context=11"
"Ingenieurbüro Pieper GmbH  ","","Gumbertstr. 111","Düsseldorf","Eller","(02 11) 21 50 33","","","https://www.dasoertliche.de/?id=0184032991534392938153&recuid=4PNLIXBT42JY3PMGORITQKTX4ZRXUBCKNXRBA2JKIFC5SAQ&action=58&pagePos=8&dar=1&kw=Ingenieurb%c3%bcro&form_name=detail&lastFormName=search_nat&ci=D%c3%bcsseldorf&recFrom=176&hitno=3&kgs=05111000&zvo_ok=0&radius=5&orderby=name&ttforderby=rel&buc=184&verlNr=102&page=78&context=11"
"Ingenieurbüro Oliver Mauss  ","","Benzenbergstr. 2","Düsseldorf","Unterbilk","(02 11) 17 90 01 71","http://www.ibmauss.de","","https://www.dasoertliche.de/?id=0184080620773332974058&recuid=FM3STV4LJV7EKUCO2KJIVS42F26NBWHAVOSDNNHFY7YOUDIC&action=58&pagePos=8&dar=1&kw=Ingenieurb%c3%bcro&form_name=detail&lastFormName=search_nat&ci=D%c3%bcsseldorf&recFrom=176&hitno=2&kgs=05111000&zvo_ok=0&radius=5&orderby=name&ttforderby=rel&buc=184&verlNr=102&page=78&context=11"
"Ingenieurbüro Mike Frajese Management-Informations-Systeme  ","","Kleinschmitthauser Weg 64","Düsseldorf","Unterrath","(02 11) 41 85 89-0","if2000.de","","https://www.dasoertliche.de/?id=0184032975098389395069&recuid=KE3JJZCB2V7T6UJUZTQNPGE3KSKMZHHTT5P2JW4K22VWWAQ&action=58&pagePos=8&dar=1&kw=Ingenieurb%c3%bcro&form_name=detail&lastFormName=search_nat&ci=D%c3%bcsseldorf&recFrom=176&hitno=1&kgs=05111000&zvo_ok=0&radius=5&orderby=name&ttforderby=rel&buc=184&verlNr=102&page=78&context=11"
"Ingenieurbüro Meneghinello  ","","Am Röttchen 32","Düsseldorf","Unterrath","0172 2 11 44 14","","","https://www.dasoertliche.de/?id=0184032979762329877721&recuid=CE7QKPCHJN3H6WDURXD55WESCTIZXD7WTAP3LGXWYGSSWAQ&action=58&pagePos=8&dar=1&kw=Ingenieurb%c3%bcro&form_name=detail&lastFormName=search_nat&ci=D%c3%bcsseldorf&recFrom=176&hitno=0&kgs=05111000&zvo_ok=0&radius=5&orderby=name&ttforderby=rel&buc=184&verlNr=102&page=78&context=11"
"Ingenieurbüro Manfred Schwierz  ","","Benrodestr. 35","Düsseldorf","Benrath","(02 11) 20 03 61 75","","","https://www.dasoertliche.de/?id=0184072016731329877721&recuid=VS6SY26ZKT2MFWWJMYFA24AQVFZAMT3AEER3YUDRIEOG3BYC&action=58&pagePos=7&dar=1&kw=Ingenieurb%c3%bcro&form_name=detail&lastFormName=search_nat&ci=D%c3%bcsseldorf&recFrom=151&hitno=21&kgs=05111000&zvo_ok=0&radius=5&orderby=name&ttforderby=rel&buc=184&verlNr=102&page=78&context=11"
"Ingenieurbüro Klimek Baustatik Ingenieurbau  ","","Comeniusstr. 1","Düsseldorf","Oberkassel","(02 11) 4 92 18 86","www.ib-klimek.de","","https://www.dasoertliche.de/?id=0184032992076329877721&recuid=QJTREITXWQXOYAHHVM2IKS6KQ74RDMBAZ2GOGQV5EL4LQAQ&action=58&pagePos=7&dar=1&kw=Ingenieurb%c3%bcro&form_name=detail&lastFormName=search_nat&ci=D%c3%bcsseldorf&recFrom=151&hitno=20&kgs=05111000&zvo_ok=0&radius=5&orderby=name&ttforderby=rel&buc=184&verlNr=102&page=78&context=11"
"Ingenieurbüro Kaczarewski GmbH Jaroslaw Dipl.-Ing.  ","","Graf-Adolf-Str. 70 A","Düsseldorf","Stadtmitte","(02 11) 6 02 09 24","","","https://www.dasoertliche.de/?id=0184032983716393278156&recuid=6DY3USH75S4J5FUVKUCRAOK46VGW222TLD7HOAAQHRWMUAQ&action=58&pagePos=7&dar=1&kw=Ingenieurb%c3%bcro&form_name=detail&lastFormName=search_nat&ci=D%c3%bcsseldorf&recFrom=151&hitno=19&kgs=05111000&zvo_ok=0&radius=5&orderby=name&ttforderby=rel&buc=184&verlNr=102&page=78&context=11"
"Ingenieurbüro Kaczarewski GmbH  ","","Bendemannstr. 11","Düsseldorf","Stadtmitte","(02 11) 1 70 87 59","www.ika-net.de","","https://www.dasoertliche.de/?id=0184086066725353715988&recuid=Y457KHATFJZKSXFCTYV3EJEWYLWEHKDGSLEZG57TO6LSDGOEAI&action=58&pagePos=7&dar=1&kw=Ingenieurb%c3%bcro&form_name=detail&lastFormName=search_nat&ci=D%c3%bcsseldorf&recFrom=151&hitno=18&kgs=05111000&zvo_ok=0&radius=5&orderby=name&ttforderby=rel&buc=184&verlNr=102&page=78&context=11"
"Ingenieurbüro IBWS Zimmermann GmbH  ","","Lakronstr. 93","Düsseldorf","Gerresheim","(02 11) 28 82 06","","","https://www.dasoertliche.de/?id=0184032985040329877721&recuid=U22P2LG3ST64RU6DMRMVK3YZUM5HGVQPAOTWI5RCBEUZYAQ&action=58&pagePos=7&dar=1&kw=Ingenieurb%c3%bcro&form_name=detail&lastFormName=search_nat&ci=D%c3%bcsseldorf&recFrom=151&hitno=17&kgs=05111000&zvo_ok=0&radius=5&orderby=name&ttforderby=rel&buc=184&verlNr=102&page=78&context=11"
"Ingenieurbüro Höber Engineering GmbH Ingenieurbüro für technische Gebäudeausrüstung  ","","Im Großen Winkel 25","Düsseldorf","Angermund","(02 03) 7 48 05 39","www.hoeber-engineering.de","","https://www.dasoertliche.de/?id=0184060807330329877721&recuid=TBYRWYC6UE4PMFX52ME7KT64TWVFRELF3GLOKYH7EOY2EAQ&action=58&pagePos=7&dar=1&kw=Ingenieurb%c3%bcro&form_name=detail&lastFormName=search_nat&ci=D%c3%bcsseldorf&recFrom=151&hitno=16&kgs=05111000&zvo_ok=0&radius=5&orderby=name&ttforderby=rel&buc=184&verlNr=102&page=78&context=11"
"Ingenieurbüro Günter Dipp Baukoordinierungsgesellschaft  ","","Rheinstahlstr. 4","Düsseldorf","Benrath","0171 4 11 91 71","","","https://www.dasoertliche.de/?id=0184059628740332454969&recuid=LLZHR6RIC25TJFJ7G3BU5DC7L5Y5MOVZKVKCVZSMZRWWAAQ&action=58&pagePos=7&dar=1&kw=Ingenieurb%c3%bcro&form_name=detail&lastFormName=search_nat&ci=D%c3%bcsseldorf&recFrom=151&hitno=15&kgs=05111000&zvo_ok=0&radius=5&orderby=name&ttforderby=rel&buc=184&verlNr=102&page=78&context=11"
"Ingenieurbüro - Grüterich GmbH  ","","Karl-Anton-Str. 16","Düsseldorf","Stadtmitte","(02 11) 1 73 48-0","www.grueterich.de","","https://www.dasoertliche.de/?id=0184032976433332974058&recuid=FFWNEZZYOYSUOC2M3WKY3YGBFSCP3N4A3MUKFK56XH3RGAQ&action=58&pagePos=7&dar=1&kw=Ingenieurb%c3%bcro&form_name=detail&lastFormName=search_nat&ci=D%c3%bcsseldorf&recFrom=151&hitno=14&kgs=05111000&zvo_ok=0&radius=5&orderby=name&ttforderby=rel&buc=184&verlNr=102&page=78&context=11"
"Ingenieurbüro Grassl GmbH  ","","Adlerstr. 34-40","Düsseldorf","Pempelfort","(02 11) 1 75 97-0","http://www.grassl-ing.de","","https://www.dasoertliche.de/?id=0184077690057392938153&recuid=UCWC6XBSFXS45S6FMVUSM7YBUUHEQ5YJDOQXQLI3HAIJUAQ&action=58&pagePos=7&dar=1&kw=Ingenieurb%c3%bcro&form_name=detail&lastFormName=search_nat&ci=D%c3%bcsseldorf&recFrom=151&hitno=13&kgs=05111000&zvo_ok=0&radius=5&orderby=name&ttforderby=rel&buc=184&verlNr=102&page=78&context=11"
"Ingenieurbüro für Fahrzeugtechnik Sturm u. Partner KFZ-Sachverständiger  ","","Thomas-Mann-Str. 12","Düsseldorf","Mörsenbroich","(02 11) 8 75 26 13","","","https://www.dasoertliche.de/?id=0184049449706389395069&recuid=T3J5UHNBLKNPBNH3HFVR2T36TM3GIEZ2PKIACSLHHFZ2IAQ&action=58&pagePos=7&dar=1&kw=Ingenieurb%c3%bcro&form_name=detail&lastFormName=search_nat&ci=D%c3%bcsseldorf&recFrom=151&hitno=12&kgs=05111000&zvo_ok=0&radius=5&orderby=name&ttforderby=rel&buc=184&verlNr=102&page=78&context=11"
"Ingenieurbüro Dipl-Ing. H. Vössing GmbH  ","","Brunnenstr. 30","Düsseldorf","Bilk","(02 11) 31 16 09-0","","","https://www.dasoertliche.de/?id=0184032983411329877721&recuid=OYIZXL2L6ZMBQ5QT4KCPBP54OOVYD6OXXB4MXKPZZGGEYAQ&action=58&pagePos=7&dar=1&kw=Ingenieurb%c3%bcro&form_name=detail&lastFormName=search_nat&ci=D%c3%bcsseldorf&recFrom=151&hitno=11&kgs=05111000&zvo_ok=0&radius=5&orderby=name&ttforderby=rel&buc=184&verlNr=102&page=78&context=11"
"Ingenieurbüro Dipl.-Ing. Detlef David GmbH Ingenieurbüro  ","","Liststr. 50","Düsseldorf","Düsseltal","(02 11) 9 64 73-0","www.davidgmbh.de","","https://www.dasoertliche.de/?id=0184087409000365549918&recuid=DENVFCU4DBJHO7D46P54B6VWDSQ6HEFTVQMLDYX2Z6CSGAQ&action=58&pagePos=7&dar=1&kw=Ingenieurb%c3%bcro&form_name=detail&lastFormName=search_nat&ci=D%c3%bcsseldorf&recFrom=151&hitno=10&kgs=05111000&zvo_ok=0&radius=5&orderby=name&ttforderby=rel&buc=184&verlNr=102&page=78&context=11"
"Ingenieurbüro Delta Umwelttechnik GmbH & Co. KG  ","","Niederrheinstr. 102","Düsseldorf","Lohausen","(02 11) 1 71 44 97-0","http://www.delta-umwelttechnik.de","","https://www.dasoertliche.de/?id=0184085709516334961844&recuid=OHCOWUWXQ2GR7IYUBD2DBE3JORHJ4BN2LD7ML6L6YN2N2IWTY4BA&action=58&pagePos=7&dar=1&kw=Ingenieurb%c3%bcro&form_name=detail&lastFormName=search_nat&ci=D%c3%bcsseldorf&recFrom=151&hitno=9&kgs=05111000&zvo_ok=0&radius=5&orderby=name&ttforderby=rel&buc=184&verlNr=102&page=78&context=11"
"Ingenieur Technischerdienst Umwelttechnik ITU  ","","Offenbacher Weg 32","Düsseldorf","Oberbilk","01805 00 62 24","","","https://www.dasoertliche.de/?id=0184032993725329877721&recuid=FDCVIW2FVWGENISNPDVSPYLIFVKZWNVGNUTHDOZMX5NBEAQ&action=58&pagePos=7&dar=1&kw=Ingenieurb%c3%bcro&form_name=detail&lastFormName=search_nat&ci=D%c3%bcsseldorf&recFrom=151&hitno=8&kgs=05111000&zvo_ok=0&radius=5&orderby=name&ttforderby=rel&buc=184&verlNr=102&page=78&context=11"
"Ing.Büro Takayanagi Hirohito  ","","Füllenbachstr. 11","Düsseldorf","Golzheim","","","","https://www.dasoertliche.de/?id=0184058222281329877721&recuid=KEUXLPEZQ5QD6TT74D6M7BEEKTQ2PFXTQBP3HQNE46EWWAQ&action=58&pagePos=7&dar=1&kw=Ingenieurb%c3%bcro&form_name=detail&lastFormName=search_nat&ci=D%c3%bcsseldorf&recFrom=151&hitno=7&kgs=05111000&zvo_ok=0&radius=5&orderby=name&ttforderby=rel&buc=184&verlNr=102&page=78&context=11"
"Ing.Büro Takayanagi Hirohito  ","","Füllenbachstr. 11","Düsseldorf","Golzheim","(02 11) 4 54 13 81","","","https://www.dasoertliche.de/?id=0184051025231329877721&recuid=EHLIVTDG66PU7MIPDGVXT433EQJ5O2MDP4XUNMK3S53BWAQ&action=58&pagePos=7&dar=1&kw=Ingenieurb%c3%bcro&form_name=detail&lastFormName=search_nat&ci=D%c3%bcsseldorf&recFrom=151&hitno=6&kgs=05111000&zvo_ok=0&radius=5&orderby=name&ttforderby=rel&buc=184&verlNr=102&page=78&context=11"
"Ing. Büro Möller & Meyer Dssd Ing.Ges.techn.Geb.Ausrüst.mbH  ","","Am Heidberg 12","Düsseldorf","Unterbach","(02 11) 51 87 88-0","www.moellerpartner.de","","https://www.dasoertliche.de/?id=0184081361275389395069&recuid=MBK3GNNKSEOA4MSOV2ZL7AHYMX65DMWC7RXP33VVQHFFUAQ&action=58&pagePos=7&dar=1&kw=Ingenieurb%c3%bcro&form_name=detail&lastFormName=search_nat&ci=D%c3%bcsseldorf&recFrom=151&hitno=5&kgs=05111000&zvo_ok=0&radius=5&orderby=name&ttforderby=rel&buc=184&verlNr=102&page=78&context=11"
"Ing.-Büro Dipl.-Ing. H. Vössing GmbH Ingenieurbüro  ","","Merowingerstr. 6","Düsseldorf","Bilk","(02 11) 9 34 49-0","www.voessing.de","","https://www.dasoertliche.de/?id=0184061672355395442917&recuid=ZJ55UDUTUQZKIHHE3A64GHOWZ7QUJ4LAZTF7CF6AB657AAQ&action=58&pagePos=7&dar=1&kw=Ingenieurb%c3%bcro&form_name=detail&lastFormName=search_nat&ci=D%c3%bcsseldorf&recFrom=151&hitno=4&kgs=05111000&zvo_ok=0&radius=5&orderby=name&ttforderby=rel&buc=184&verlNr=102&page=78&context=11"
"Ing.-Büro Dipl.-Ing. H. Vössing GmbH Ingenieurbüro  ","","Brunnenstr. 29-31","Düsseldorf","Bilk","(02 11) 90 54-5","http://www.voessing.de","","https://www.dasoertliche.de/?id=0184061672339389395069&recuid=XMM5R4JJC5INK7UVRJGKC3FUX2EGVVARBNM4EAG4PMRQE&action=58&pagePos=7&dar=1&kw=Ingenieurb%c3%bcro&form_name=detail&lastFormName=search_nat&ci=D%c3%bcsseldorf&recFrom=151&hitno=3&kgs=05111000&zvo_ok=0&radius=5&orderby=name&ttforderby=rel&buc=184&verlNr=102&page=78&context=11"
"Ing.-Büro Dipl.-Ing. H. Vössing GmbH Ingenieurbüro  ","","Merowingerstr. 6","Düsseldorf","Bilk","","www.voessing.de","","https://www.dasoertliche.de/?id=0184061672354395442917&recuid=QGVAWRKC57R67TNPBB3BEVQHQSNTI5Z2N5AZAAQ&action=58&pagePos=7&dar=1&kw=Ingenieurb%c3%bcro&form_name=detail&lastFormName=search_nat&ci=D%c3%bcsseldorf&recFrom=151&hitno=2&kgs=05111000&zvo_ok=0&radius=5&orderby=name&ttforderby=rel&buc=184&verlNr=102&page=78&context=11"
"Ing.-Büro Dipl.-Ing. H. Vössing GmbH Ingenieurbüro  ","","Brunnenstr. 29-31","Düsseldorf","Bilk","","http://www.voessing.de","","https://www.dasoertliche.de/?id=0184061672356389395069&recuid=5DPB7IXOISLYNOOGPIPWMP3T5XXVEASTDMUOIAQ&action=58&pagePos=7&dar=1&kw=Ingenieurb%c3%bcro&form_name=detail&lastFormName=search_nat&ci=D%c3%bcsseldorf&recFrom=151&hitno=1&kgs=05111000&zvo_ok=0&radius=5&orderby=name&ttforderby=rel&buc=184&verlNr=102&page=78&context=11"
"Iller Manfred Ing.Büro Anwendungstechnik  ","","Beverweg 41","Düsseldorf","Gerresheim","(02 11) 23 27 99","","","https://www.dasoertliche.de/?id=0184032968987329877721&recuid=EUKPG2B3U5OUS6CAR6T7L3FZECFYDS4MUMSJVZG3WSHR6AQ&action=58&pagePos=7&dar=1&kw=Ingenieurb%c3%bcro&form_name=detail&lastFormName=search_nat&ci=D%c3%bcsseldorf&recFrom=151&hitno=0&kgs=05111000&zvo_ok=0&radius=5&orderby=name&ttforderby=rel&buc=184&verlNr=102&page=78&context=11"
"Identa Verwaltungs GmbH  ","","Rolander Weg 54","Düsseldorf","Ludenberg","(02 11) 17 60 71 84","www.planungsbuero-identa.de","","https://www.dasoertliche.de/?id=0184081199581392938153&recuid=EGOKYVKIGPKUL6KPIHBHZQJREQGKWQXKACXJ3MLD5QYI26UDT4BA&action=58&pagePos=6&dar=1&kw=Ingenieurb%c3%bcro&form_name=detail&lastFormName=search_nat&ci=D%c3%bcsseldorf&recFrom=126&hitno=21&kgs=05111000&zvo_ok=0&radius=5&orderby=name&ttforderby=rel&buc=184&verlNr=102&page=78&context=11"
"Icomera Germany GmbH  ","","Niederkasseler Lohweg 18","Düsseldorf","Lörick","0174 8 98 88 87","","","https://www.dasoertliche.de/?id=0184088172826382654618&recuid=ZWXE72H4CHT25QNAGR7SIKIDZB4WENRZBHBVWQQLF5WPOAQ&action=58&pagePos=6&dar=1&kw=Ingenieurb%c3%bcro&form_name=detail&lastFormName=search_nat&ci=D%c3%bcsseldorf&recFrom=126&hitno=20&kgs=05111000&zvo_ok=0&radius=5&orderby=name&ttforderby=rel&buc=184&verlNr=102&page=78&context=11"
"IBW Ingenieurgesellschaft mbH  ","","Kasernenstr. 27","Düsseldorf","Carlstadt","(02 11) 20 96 46-0","","","https://www.dasoertliche.de/?id=0184068019460329877721&recuid=73ZHJQP7GS53ZJO6OZKE4JC77M7COWC7LPYF4YBUAMZMIAQ&action=58&pagePos=6&dar=1&kw=Ingenieurb%c3%bcro&form_name=detail&lastFormName=search_nat&ci=D%c3%bcsseldorf&recFrom=126&hitno=18&kgs=05111000&zvo_ok=0&radius=5&orderby=name&ttforderby=rel&buc=184&verlNr=102&page=78&context=11"
"IBFT Dr. Küffner & Lummertzheim GmbH  ","","Kaiser-Friedrich-Ring 11","Düsseldorf","Oberkassel","(02 11) 5 58 00 44","","","https://www.dasoertliche.de/?id=0184078198385353715988&recuid=X7E37IVO72AP3D7LHBZWAYDEXJCRMNQ5MCYQC6D5NIEIKAQ&action=58&pagePos=6&dar=1&kw=Ingenieurb%c3%bcro&form_name=detail&lastFormName=search_nat&ci=D%c3%bcsseldorf&recFrom=126&hitno=17&kgs=05111000&zvo_ok=0&radius=5&orderby=name&ttforderby=rel&buc=184&verlNr=102&page=78&context=11"
"IBB GmbH Ingenieurbüro Bernd Buchmann  ","","Am Mühlenacker 10 A","Düsseldorf","Wittlaer","(02 11) 5 00 80 23-0","www.i3b.de","","https://www.dasoertliche.de/?id=0184086823853392414252&recuid=VTRV25VLNKVO5IMMJYVVWT2OVECSK73XP4R6E2QGH5HAZWIC&action=58&pagePos=6&dar=1&kw=Ingenieurb%c3%bcro&form_name=detail&lastFormName=search_nat&ci=D%c3%bcsseldorf&recFrom=126&hitno=16&kgs=05111000&zvo_ok=0&radius=5&orderby=name&ttforderby=rel&buc=184&verlNr=102&page=78&context=11"
"HYDRO-INGENIEURE - Planungsgesellschaft für Siedlungswasserwirtschaft mbH  ","","Stockkampstr. 10","Düsseldorf","Pempelfort","(02 11) 4 49 91-0","http://www.hydro-ingenieure.de","","https://www.dasoertliche.de/?id=0184086217631353715988&recuid=ECAAGSOINPEHTRDSD6TRHQZNEU3OI3EJG4QWZP2USAWMMIRDAI&action=58&pagePos=6&dar=1&kw=Ingenieurb%c3%bcro&form_name=detail&lastFormName=search_nat&ci=D%c3%bcsseldorf&recFrom=126&hitno=15&kgs=05111000&zvo_ok=0&radius=5&orderby=name&ttforderby=rel&buc=184&verlNr=102&page=78&context=11"
"HW-Ingenieure GmbH Ingenieurbüro  ","","Holzstr. 2","Düsseldorf","Hafen","(02 11) 30 27 06-0","www.hw-ing.de","","https://www.dasoertliche.de/?id=0184066993601329877721&recuid=IHRACTYAISVBNTYIEONB7GCPIQLP4APAJNHRVJSHWYRHWAQ&action=58&pagePos=6&dar=1&kw=Ingenieurb%c3%bcro&form_name=detail&lastFormName=search_nat&ci=D%c3%bcsseldorf&recFrom=126&hitno=14&kgs=05111000&zvo_ok=0&radius=5&orderby=name&ttforderby=rel&buc=184&verlNr=102&page=78&context=11"
"Hüren Ingenieurbüro Haustechnik Consulting  ","","Werftstr. 11","Düsseldorf","Heerdt","(02 11) 48 20 38","","","https://www.dasoertliche.de/?id=0184078956492329877721&recuid=TKZNUI5H435GNQH7PZ2WKRI7T4CCKXBTAWNQ4KJ4EEX2AAQ&action=58&pagePos=6&dar=1&kw=Ingenieurb%c3%bcro&form_name=detail&lastFormName=search_nat&ci=D%c3%bcsseldorf&recFrom=126&hitno=13&kgs=05111000&zvo_ok=0&radius=5&orderby=name&ttforderby=rel&buc=184&verlNr=102&page=78&context=11"
"Huber Ingenieurtechnik GmbH  ","","Vogelsanger Weg 111","Düsseldorf","Mörsenbroich","0172 2 11 02 74","www.huber-ingenieur-technik.de","","https://www.dasoertliche.de/?id=0184065250711393370086&recuid=OIBIYBM6D5FAOYAXSXMZDK5PO7AJRLMVUV6OZX6EUKMEQAQ&action=58&pagePos=6&dar=1&kw=Ingenieurb%c3%bcro&form_name=detail&lastFormName=search_nat&ci=D%c3%bcsseldorf&recFrom=126&hitno=12&kgs=05111000&zvo_ok=0&radius=5&orderby=name&ttforderby=rel&buc=184&verlNr=102&page=78&context=11"
"HTW Hetzel, Tor-Westen + Partner Ingenieurgesellschaft KG Ingenieure  ","","Tersteegenstr. 28","Düsseldorf","Golzheim","(02 11) 4 78 88-0","www.htw-ingenieure.de","","https://www.dasoertliche.de/?id=0184065722684393278156&recuid=AFAFJGQYBEEFKFZB7SJ7BWHNASQKPLVI64AONQH7WHPDWAQ&action=58&pagePos=6&dar=1&kw=Ingenieurb%c3%bcro&form_name=detail&lastFormName=search_nat&ci=D%c3%bcsseldorf&recFrom=126&hitno=11&kgs=05111000&zvo_ok=0&radius=5&orderby=name&ttforderby=rel&buc=184&verlNr=102&page=78&context=11"
"HPK + p Heider, Pannen-Vulpi Architekt und Ingenieur Partnerschaft  ","","Citadellstr. 5","Düsseldorf","Carlstadt","(02 11) 1 68 22 95","www.hpk-p.de","","https://www.dasoertliche.de/?id=0184065893715329877721&recuid=YO5KXJE2T3ZJH4PDNEEQAGQXYZGXMK3CCPGUYJ37F55PSAQ&action=58&pagePos=6&dar=1&kw=Ingenieurb%c3%bcro&form_name=detail&lastFormName=search_nat&ci=D%c3%bcsseldorf&recFrom=126&hitno=10&kgs=05111000&zvo_ok=0&radius=5&orderby=name&ttforderby=rel&buc=184&verlNr=102&page=78&context=11"
"Holstein Kai  ","","Schulweg 14","Düsseldorf","Wittlaer","","","","https://www.dasoertliche.de/?id=0184082419018353715988&recuid=CVQA6S2ZYYUHUDDGVKH4X5GNCCEO7CFRZEN5BHXI477C6AQ&action=58&pagePos=6&dar=1&kw=Ingenieurb%c3%bcro&form_name=detail&lastFormName=search_nat&ci=D%c3%bcsseldorf&recFrom=126&hitno=9&kgs=05111000&zvo_ok=0&radius=5&orderby=name&ttforderby=rel&buc=184&verlNr=102&page=78&context=11"
"Hold-Trade-Engineering GmbH  ","","Grafenberger Allee 78-80","Düsseldorf","Düsseltal","(02 11) 6 99 02-10","","","https://www.dasoertliche.de/?id=0184032967428389044515&recuid=7X2FGR7ETC6JFGEZOAFRINCZ7B3E6IK6LXZXICJ6MVU4OAQ&action=58&pagePos=6&dar=1&kw=Ingenieurb%c3%bcro&form_name=detail&lastFormName=search_nat&ci=D%c3%bcsseldorf&recFrom=126&hitno=8&kgs=05111000&zvo_ok=0&radius=5&orderby=name&ttforderby=rel&buc=184&verlNr=102&page=78&context=11"
"Hoischen Hans Dr. Ingenieur  ","","Hortensienstr. 31","Düsseldorf","Stockum","(02 11) 43 36 43","","","https://www.dasoertliche.de/?id=0184032975977329877721&recuid=SDKUBCX2AOO77PHDHQUDIWLYSV7FKPRZMKITGSYPAZHKUAQ&action=58&pagePos=6&dar=1&kw=Ingenieurb%c3%bcro&form_name=detail&lastFormName=search_nat&ci=D%c3%bcsseldorf&recFrom=126&hitno=7&kgs=05111000&zvo_ok=0&radius=5&orderby=name&ttforderby=rel&buc=184&verlNr=102&page=78&context=11"
"Hogeweg H. Frank Dr.Ing.  ","","Gartenstr. 53-55","Düsseldorf","Pempelfort","(02 11) 98 94 48-0","","","https://www.dasoertliche.de/?id=0184067258277392938153&recuid=NRUX4V7USAQQGDQJZSB6JNWENG43736JYBRK3UVBZLCYVS3PAI&action=58&pagePos=6&dar=1&kw=Ingenieurb%c3%bcro&form_name=detail&lastFormName=search_nat&ci=D%c3%bcsseldorf&recFrom=126&hitno=6&kgs=05111000&zvo_ok=0&radius=5&orderby=name&ttforderby=rel&buc=184&verlNr=102&page=78&context=11"
"Höhne Eberhard Ing.Büro f. Heiz. u. san.Install.  ","","Christophstr. 12","Düsseldorf","Bilk","(02 11) 31 77 51","","","https://www.dasoertliche.de/?id=0184032980455329877721&recuid=MD657UOE2W2ZNFIODK5RZKKQMUFNWGOJJJQXHRB76NTFUAQ&action=58&pagePos=6&dar=1&kw=Ingenieurb%c3%bcro&form_name=detail&lastFormName=search_nat&ci=D%c3%bcsseldorf&recFrom=126&hitno=5&kgs=05111000&zvo_ok=0&radius=5&orderby=name&ttforderby=rel&buc=184&verlNr=102&page=78&context=11"
"Höber Engineering GmbH Ingenieurbüro für technische Gebäudeausrüstung  ","","Im Großen Winkel 25","Düsseldorf","Angermund","(02 03) 7 48 05 28","www.hoeber-engineering.de","","https://www.dasoertliche.de/?id=0184060802162329877721&recuid=OPRWPGSDNSVYLAIWCGNWBJCOOYZ3GA4OJN6VXBTNZARUSAQ&action=58&pagePos=6&dar=1&kw=Ingenieurb%c3%bcro&form_name=detail&lastFormName=search_nat&ci=D%c3%bcsseldorf&recFrom=126&hitno=4&kgs=05111000&zvo_ok=0&radius=5&orderby=name&ttforderby=rel&buc=184&verlNr=102&page=78&context=11"
"Hebmüller Frank Dr. Ingeneurbüros  ","","Paul-von-Hase-Str. 2","Düsseldorf","Golzheim","(02 11) 4 16 18 75","http://www.ib-hebmueller.de","","https://www.dasoertliche.de/?id=0184057831118329877721&recuid=MBOMGYCPOYKAKPQNSLOZFNPRMWHYD5GC6VXN3TFY7COFUAQ&action=58&pagePos=6&dar=1&kw=Ingenieurb%c3%bcro&form_name=detail&lastFormName=search_nat&ci=D%c3%bcsseldorf&recFrom=126&hitno=3&kgs=05111000&zvo_ok=0&radius=5&orderby=name&ttforderby=rel&buc=184&verlNr=102&page=78&context=11"
"Hebmüller Frank Dr. Ingeneurbüros  ","","Paul-von-Hase-Str. 2","Düsseldorf","Golzheim","","http://www.ib-hebmueller.de","","https://www.dasoertliche.de/?id=0184057831163329877721&recuid=ZI22VSRG3R626V5HZZ37WH4YZ7TSXHLITTCKYZWRKL27AAQ&action=58&pagePos=6&dar=1&kw=Ingenieurb%c3%bcro&form_name=detail&lastFormName=search_nat&ci=D%c3%bcsseldorf&recFrom=126&hitno=2&kgs=05111000&zvo_ok=0&radius=5&orderby=name&ttforderby=rel&buc=184&verlNr=102&page=78&context=11"
"Hans G. Hasenkox GmbH  ","","Harffstr. 40","Düsseldorf","Oberbilk","(02 11) 7 79 20 63-0","www.hasenkox.eu","","https://www.dasoertliche.de/?id=0184063541668389395069&recuid=2NI7C7HBBUM3EP5A6VIPUC7422TXX3R3ZVOFAMG7POCBG2YC&action=58&pagePos=6&dar=1&kw=Ingenieurb%c3%bcro&form_name=detail&lastFormName=search_nat&ci=D%c3%bcsseldorf&recFrom=126&hitno=1&kgs=05111000&zvo_ok=0&radius=5&orderby=name&ttforderby=rel&buc=184&verlNr=102&page=78&context=11"
"Hamma . Vom Berg Architekten . Ingenieure  ","","Edmund-Bertrams-Str. 55","Düsseldorf","Kalkum","","","","https://www.dasoertliche.de/?id=0184081637705332974058&recuid=F4ASQCNKDBEU43CCZDW7VT5MFKYMZEXYTWQABNVFZOUO6OYC&action=58&pagePos=6&dar=1&kw=Ingenieurb%c3%bcro&form_name=detail&lastFormName=search_nat&ci=D%c3%bcsseldorf&recFrom=126&hitno=0&kgs=05111000&zvo_ok=0&radius=5&orderby=name&ttforderby=rel&buc=184&verlNr=102&page=78&context=11"
"Grüning Consulting GmbH  ","","Höhenstr. 23-25","Düsseldorf","Oberbilk","0172 2 72 67 82","www.gruening-consulting.com","","https://www.dasoertliche.de/?id=0184058216363332974058&recuid=TM2S6MMOJ5ZOTSPVTZSNATUYT3FSDYD4SKK7OUPUJKX2CAQ&action=58&pagePos=5&dar=1&kw=Ingenieurb%c3%bcro&form_name=detail&lastFormName=search_nat&ci=D%c3%bcsseldorf&recFrom=101&hitno=21&kgs=05111000&zvo_ok=0&radius=5&orderby=name&ttforderby=rel&buc=184&verlNr=102&page=78&context=11"
"Grüning Consulting GmbH  ","","Höhenstr. 23-25","Düsseldorf","Oberbilk","01525 2 80 29 70","www.gruening-consulting.com","","https://www.dasoertliche.de/?id=0184088126036381533935&recuid=4TBNQTTZGCCZMPUKCYQEKADP4FMA6VB3IRV4GFZQJ4RSN6AC&action=58&pagePos=5&dar=1&kw=Ingenieurb%c3%bcro&form_name=detail&lastFormName=search_nat&ci=D%c3%bcsseldorf&recFrom=101&hitno=20&kgs=05111000&zvo_ok=0&radius=5&orderby=name&ttforderby=rel&buc=184&verlNr=102&page=78&context=11"
"Grüning Consulting GmbH  ","","Höhenstr. 23-25","Düsseldorf","Oberbilk","01525 2 80 29 33","www.gruening-consulting.com","","https://www.dasoertliche.de/?id=0184088126037381533935&recuid=LPXPJ4KVR6USSERVHOPWTP2DLYN3C6EENDKO7OI46AHZTVAC&action=58&pagePos=5&dar=1&kw=Ingenieurb%c3%bcro&form_name=detail&lastFormName=search_nat&ci=D%c3%bcsseldorf&recFrom=101&hitno=19&kgs=05111000&zvo_ok=0&radius=5&orderby=name&ttforderby=rel&buc=184&verlNr=102&page=78&context=11"
"Grube Friedrich A. L.  ","","Hansaallee 321","Düsseldorf","Heerdt","(02 11) 53 67 44 66","","","https://www.dasoertliche.de/?id=0184088299013392938153&recuid=WRIZZWK7TQLMMJGW2Q4MGUH4WGZQ3JTIZU5VA5WMIOGHM2YC&action=58&pagePos=5&dar=1&kw=Ingenieurb%c3%bcro&form_name=detail&lastFormName=search_nat&ci=D%c3%bcsseldorf&recFrom=101&hitno=18&kgs=05111000&zvo_ok=0&radius=5&orderby=name&ttforderby=rel&buc=184&verlNr=102&page=78&context=11"
"Gonsior Alfred-Thomas Ingenieurbüro  ","","Urdenbacher Acker 11 A","Düsseldorf","Urdenbach","0172 2 57 83 24","","","https://www.dasoertliche.de/?id=0184032980757389649502&recuid=VCUFVKTEQXX4PRW3HV3ESYIFVU6BWZCPB6TBQ5ALLU2JEAQ&action=58&pagePos=5&dar=1&kw=Ingenieurb%c3%bcro&form_name=detail&lastFormName=search_nat&ci=D%c3%bcsseldorf&recFrom=101&hitno=17&kgs=05111000&zvo_ok=0&radius=5&orderby=name&ttforderby=rel&buc=184&verlNr=102&page=78&context=11"
"Goetz Energineering Industrie-Anlagenplanung GmbH Ingenieurbüro für Maschinenbau  ","","Lindemannstr. 13","Düsseldorf","Düsseltal","(02 11) 4 93 25 30","goetz@g-o-engineering.eu","","https://www.dasoertliche.de/?id=0184083639797389395069&recuid=XSSQ5NN4A7RNHQGIKBTVAXIIXELVU4Q6BSZCSFBZCMEVUB57AI&action=58&pagePos=5&dar=1&kw=Ingenieurb%c3%bcro&form_name=detail&lastFormName=search_nat&ci=D%c3%bcsseldorf&recFrom=101&hitno=16&kgs=05111000&zvo_ok=0&radius=5&orderby=name&ttforderby=rel&buc=184&verlNr=102&page=78&context=11"
"Görz Marcel Ingenieurbüro für Baustatik  ","","Derendorfer Str. 93","Düsseldorf","Pempelfort","(02 11) 36 02 68","www.statik-goerz.de","","https://www.dasoertliche.de/?id=0184048326876389395069&recuid=T4ZKZFFUTF2WSQHF5YXLQTU7TK7BPVJWQWPMICMSAWJKKAQ&action=58&pagePos=5&dar=1&kw=Ingenieurb%c3%bcro&form_name=detail&lastFormName=search_nat&ci=D%c3%bcsseldorf&recFrom=101&hitno=15&kgs=05111000&zvo_ok=0&radius=5&orderby=name&ttforderby=rel&buc=184&verlNr=102&page=78&context=11"
"Görz Marcel Ingenieurbüro für Baustatik  ","","Derendorfer Str. 93","Düsseldorf","Pempelfort","","www.statik-goerz.de","","https://www.dasoertliche.de/?id=0184058223373389395069&recuid=22NQLXI52DOCB2NMCZQH2AZW2OVGQ3YOAF3KCAQ&action=58&pagePos=5&dar=1&kw=Ingenieurb%c3%bcro&form_name=detail&lastFormName=search_nat&ci=D%c3%bcsseldorf&recFrom=101&hitno=14&kgs=05111000&zvo_ok=0&radius=5&orderby=name&ttforderby=rel&buc=184&verlNr=102&page=78&context=11"
"Gierschner Heinz Ingenieur  ","","Emil-Barth-Str. 65","Düsseldorf","Garath","(02 11) 70 14 57","","","https://www.dasoertliche.de/?id=0184032978434329877721&recuid=A2H432JABLEG72TUBXFG5TZCANPPO5FPHADSD2LYTUKDYAQ&action=58&pagePos=5&dar=1&kw=Ingenieurb%c3%bcro&form_name=detail&lastFormName=search_nat&ci=D%c3%bcsseldorf&recFrom=101&hitno=13&kgs=05111000&zvo_ok=0&radius=5&orderby=name&ttforderby=rel&buc=184&verlNr=102&page=78&context=11"
"GfI Gesellschaft für Ingenieurdienste mbH  ","","Mauerstr. 15","Düsseldorf","Pempelfort","(02 11) 94 47 97-0","www.gfi-ipm.de","","https://www.dasoertliche.de/?id=0184032984915383951217&recuid=FWSD47IU5XRUX3INO7JULZAJFADJ4T4JBURVRHBU3I4BOAQ&action=58&pagePos=5&dar=1&kw=Ingenieurb%c3%bcro&form_name=detail&lastFormName=search_nat&ci=D%c3%bcsseldorf&recFrom=101&hitno=12&kgs=05111000&zvo_ok=0&radius=5&orderby=name&ttforderby=rel&buc=184&verlNr=102&page=78&context=11"
"GfI Gesellschaft für Ingenieurdienste mbH  ","","Mauerstr. 15","Düsseldorf","Pempelfort","0174 2 12 28 23","www.gfi-ipm.de","","https://www.dasoertliche.de/?id=0184069013036383951217&recuid=JKKQ6GRFRLJCZXDKHG3G3EBYJ5JOYYF2GJCD7STOYBKHAAQ&action=58&pagePos=5&dar=1&kw=Ingenieurb%c3%bcro&form_name=detail&lastFormName=search_nat&ci=D%c3%bcsseldorf&recFrom=101&hitno=11&kgs=05111000&zvo_ok=0&radius=5&orderby=name&ttforderby=rel&buc=184&verlNr=102&page=78&context=11"
"GfI Gesellschaft für Ingenieurdienste mbH  ","","Mauerstr. 15","Düsseldorf","Pempelfort","0172 5 82 87 93","www.gfi-ipm.de","","https://www.dasoertliche.de/?id=0184073215467383951217&recuid=2EQ3XAMRCFTLO2HRZJVNQDMM2SMDJMZYQ3P2YDEXPTQOWAQ&action=58&pagePos=5&dar=1&kw=Ingenieurb%c3%bcro&form_name=detail&lastFormName=search_nat&ci=D%c3%bcsseldorf&recFrom=101&hitno=10&kgs=05111000&zvo_ok=0&radius=5&orderby=name&ttforderby=rel&buc=184&verlNr=102&page=78&context=11"
"GETAC Gesellschaft für Engineering, Trade und Consulting mbH  ","","Grunerstr. 76 a","Düsseldorf","40239 Düsseldorf","(02 11) 61 13 76","http://www.getac-solutions.de","","https://www.dasoertliche.de/?id=0184082751886329877721&recuid=UIAYZZ6KFZDOOVPDR5Q34Q5MU7YRH5YLW2R2CSOWBSWUJI5BAI&action=58&pagePos=5&dar=1&kw=Ingenieurb%c3%bcro&form_name=detail&lastFormName=search_nat&ci=D%c3%bcsseldorf&recFrom=101&hitno=9&kgs=05111000&zvo_ok=0&radius=5&orderby=name&ttforderby=rel&buc=184&verlNr=102&page=78&context=11"
"Gesellschaft für Ingenieurdienste GmbH  ","","Mauerstr. 15","Düsseldorf","Pempelfort","","","","https://www.dasoertliche.de/?id=0184035102513329877721&recuid=N4AXAXF67NDAU4QKWDY6FJNMNLPLN36GWZXKLIPF5KKKBI3MAI&action=58&pagePos=5&dar=1&kw=Ingenieurb%c3%bcro&form_name=detail&lastFormName=search_nat&ci=D%c3%bcsseldorf&recFrom=101&hitno=8&kgs=05111000&zvo_ok=0&radius=5&orderby=name&ttforderby=rel&buc=184&verlNr=102&page=78&context=11"
"Gerhard Kultscher Industrie-Elektronik GmbH  ","","Heiligenhauser Str. 41 a","Düsseldorf","Hassels","(02 11) 7 48 73 96","","","https://www.dasoertliche.de/?id=0184085047209329877721&recuid=7LBYPNEUSWCJ7MMSNI2QQGDO75TSIMCZNL2FO6R2KVXRYYPZAI&action=58&pagePos=5&dar=1&kw=Ingenieurb%c3%bcro&form_name=detail&lastFormName=search_nat&ci=D%c3%bcsseldorf&recFrom=101&hitno=7&kgs=05111000&zvo_ok=0&radius=5&orderby=name&ttforderby=rel&buc=184&verlNr=102&page=78&context=11"
"Gehlen Partnerschaft Beratende Ingenieure Ingenieurbüro für Tragwerksplanung  ","","Friedrich-Ebert-Str. 54","Düsseldorf","Stadtmitte","(02 11) 1 68 01-0","http://www.gehlen-ing.de","","https://www.dasoertliche.de/?id=0184088715122393624946&recuid=2GE2ZGG3EPHLJYN5PNXSENJE2QBXWUTYH3IECXJ3IELOWAQ&action=58&pagePos=5&dar=1&kw=Ingenieurb%c3%bcro&form_name=detail&lastFormName=search_nat&ci=D%c3%bcsseldorf&recFrom=101&hitno=6&kgs=05111000&zvo_ok=0&radius=5&orderby=name&ttforderby=rel&buc=184&verlNr=102&page=78&context=11"
"Gardeweg Heryberth Ingenieur  ","","Beedstr. 44","Düsseldorf","Unterrath","(02 11) 42 87 31","","","https://www.dasoertliche.de/?id=0184032976192329877721&recuid=45L2XI4RZMIIMJMDS5O3MLX24KWHTPCO4DTNKIM7OHGN2AQ&action=58&pagePos=5&dar=1&kw=Ingenieurb%c3%bcro&form_name=detail&lastFormName=search_nat&ci=D%c3%bcsseldorf&recFrom=101&hitno=5&kgs=05111000&zvo_ok=0&radius=5&orderby=name&ttforderby=rel&buc=184&verlNr=102&page=78&context=11"
"Garant Engineering & Purchasing GmbH & Co. KG  ","","Grafenberger Allee 82","Düsseldorf","Düsseltal","(02 11) 9 68 22 36","www.garant-ep.de/Impressum","","https://www.dasoertliche.de/?id=0184083853192388616859&recuid=J3WOWSRZG6VS7HRPMSIW5LCBJNIJOFPKIVAEZUCH4FAKQTSNAI&action=58&pagePos=5&dar=1&kw=Ingenieurb%c3%bcro&form_name=detail&lastFormName=search_nat&ci=D%c3%bcsseldorf&recFrom=101&hitno=4&kgs=05111000&zvo_ok=0&radius=5&orderby=name&ttforderby=rel&buc=184&verlNr=102&page=78&context=11"
"G + N Consult Baumanagement GmbH  ","","Liesegangstr. 1 A","Düsseldorf","Stadtmitte","(02 11) 67 60 70","www.gn-consult.com","","https://www.dasoertliche.de/?id=0184083583203329877721&recuid=EO7SEQTS3D4AHFADLSBE3QQSEYMYQRMKBARG3T37W4RBSAQ&action=58&pagePos=5&dar=1&kw=Ingenieurb%c3%bcro&form_name=detail&lastFormName=search_nat&ci=D%c3%bcsseldorf&recFrom=101&hitno=3&kgs=05111000&zvo_ok=0&radius=5&orderby=name&ttforderby=rel&buc=184&verlNr=102&page=78&context=11"
"Funck Paul Dr. Ingenieur  ","","Im Diepental 20","Düsseldorf","Benrath","(02 11) 71 96 81","","","https://www.dasoertliche.de/?id=0184032978785393278156&recuid=GK7BSKOBPD4EPUCRL76F76YTG473EQ43BEZRRQKQVYSQQAQ&action=58&pagePos=5&dar=1&kw=Ingenieurb%c3%bcro&form_name=detail&lastFormName=search_nat&ci=D%c3%bcsseldorf&recFrom=101&hitno=2&kgs=05111000&zvo_ok=0&radius=5&orderby=name&ttforderby=rel&buc=184&verlNr=102&page=78&context=11"
"Franz Fischer Ingenieurbüro GmbH  ","","Siegburger Str. 3","Düsseldorf","Oberbilk","(02 11) 98 47 62-0","http://www.fischer-teamplan.de","","https://www.dasoertliche.de/?id=0184072458590330646811&recuid=V2SP5AYHS7RNZROAPIGG64QJVNQEWJYLBWQAEALGG5SZIAQ&action=58&pagePos=5&dar=1&kw=Ingenieurb%c3%bcro&form_name=detail&lastFormName=search_nat&ci=D%c3%bcsseldorf&recFrom=101&hitno=0&kgs=05111000&zvo_ok=0&radius=5&orderby=name&ttforderby=rel&buc=184&verlNr=102&page=78&context=11"
"Friedrich & Lucas GmbH  ","","In der Steele 35","Düsseldorf","Hassels","(02 11) 99 88 00","www.flprojekt.de","","https://www.dasoertliche.de/?id=0184086243795353715988&recuid=SHLFAKNH42IOHP7UAVBEE4T3SQDBKWB3MGIEURAAEF5HO5ESAI&action=58&pagePos=5&dar=1&kw=Ingenieurb%c3%bcro&form_name=detail&lastFormName=search_nat&ci=D%c3%bcsseldorf&recFrom=101&hitno=1&kgs=05111000&zvo_ok=0&radius=5&orderby=name&ttforderby=rel&buc=184&verlNr=102&page=78&context=11"
"FERCHAU Engineering GmbH Niederlassung Düsseldorf Ingenieurbüro  ","","Franz-Rennefeld-Weg 5","Düsseldorf","Lichtenbroich","(02 11) 55 02 87-0","www.ferchau.de","","https://www.dasoertliche.de/?id=0184082310921332454969&recuid=HSTFB4SKOPQHT5D7F7ZAFXILHEYPEXE6B4ZBJSLMWRSAMAQ&action=58&pagePos=4&dar=1&kw=Ingenieurb%c3%bcro&form_name=detail&lastFormName=search_nat&ci=D%c3%bcsseldorf&recFrom=76&hitno=22&kgs=05111000&zvo_ok=0&radius=5&orderby=name&ttforderby=rel&buc=184&verlNr=102&page=78&context=11"
"Feies Joachim Ingenieurbüro  ","","Hymgasse 37","Düsseldorf","Heerdt","(02 11) 50 65 98-0","ib-feies.de","","https://www.dasoertliche.de/?id=0184046859502329877721&recuid=NOGY4TL7YPFQ5ZAOMOBD3OZANZYZGUWJERSS7WDO4MWVCAQ&action=58&pagePos=4&dar=1&kw=Ingenieurb%c3%bcro&form_name=detail&lastFormName=search_nat&ci=D%c3%bcsseldorf&recFrom=76&hitno=21&kgs=05111000&zvo_ok=0&radius=5&orderby=name&ttforderby=rel&buc=184&verlNr=102&page=78&context=11"
"fabry + partner Ingenieurgesellschaft mbH  ","","Kölner Str. 295","Düsseldorf","Oberbilk","(02 11) 72 40 22","www.fabry-partner.de","","https://www.dasoertliche.de/?id=0184032977978389044515&recuid=RIZRKFLOTVK6WUPYRFBNEQ46R7CSXTRDQSFZ2M7OFCXLAAQ&action=58&pagePos=4&dar=1&kw=Ingenieurb%c3%bcro&form_name=detail&lastFormName=search_nat&ci=D%c3%bcsseldorf&recFrom=76&hitno=20&kgs=05111000&zvo_ok=0&radius=5&orderby=name&ttforderby=rel&buc=184&verlNr=102&page=78&context=11"
"fabry + partner Ingenieur GmbH  ","","Kölner Str. 295","Düsseldorf","Oberbilk","","www.fabry-partner.de","","https://www.dasoertliche.de/?id=0184058218563389044515&recuid=GS4BEKI3EHPFLWSGPOSF5YIVGGEYYAPJDKUYEAQ&action=58&pagePos=4&dar=1&kw=Ingenieurb%c3%bcro&form_name=detail&lastFormName=search_nat&ci=D%c3%bcsseldorf&recFrom=76&hitno=19&kgs=05111000&zvo_ok=0&radius=5&orderby=name&ttforderby=rel&buc=184&verlNr=102&page=78&context=11"
"Ernst Güldner GmbH  ","","Hülchrather Str. 28","Düsseldorf","Bilk","(02 11) 15 47 11","","","https://www.dasoertliche.de/?id=0184086191212353715988&recuid=VLXEVPN4VSV5RAGZAIJH6SKDV54WQNADLGVT42B7DJBEYTFJAI&action=58&pagePos=4&dar=1&kw=Ingenieurb%c3%bcro&form_name=detail&lastFormName=search_nat&ci=D%c3%bcsseldorf&recFrom=76&hitno=18&kgs=05111000&zvo_ok=0&radius=5&orderby=name&ttforderby=rel&buc=184&verlNr=102&page=78&context=11"
"Enius AG Ingenieur- u. Laborleitungen  ","","Wiesenstr. 70 A","Düsseldorf","Heerdt","(02 11) 56 34 90-0","www.enius.de","","https://www.dasoertliche.de/?id=0184032991023389395069&recuid=SOUND4QHAXW73QPGA46UUWQFSZ6EMKRQAGOV4CBMHM32SAQ&action=58&pagePos=4&dar=1&kw=Ingenieurb%c3%bcro&form_name=detail&lastFormName=search_nat&ci=D%c3%bcsseldorf&recFrom=76&hitno=16&kgs=05111000&zvo_ok=0&radius=5&orderby=name&ttforderby=rel&buc=184&verlNr=102&page=78&context=11"
"Engelmayer G. Ing.-grad. Konstruktionsbüro für Maschinenbau  ","","Bielefelder Str. 73","Düsseldorf","Unterrath","(02 11) 42 46 66","engelmayer.de","","https://www.dasoertliche.de/?id=0184032989501389395069&recuid=5MW7PRCZTNUIKSUOSBE46IUA523RJR2CTLVOC7N6NKZNCAQ&action=58&pagePos=4&dar=1&kw=Ingenieurb%c3%bcro&form_name=detail&lastFormName=search_nat&ci=D%c3%bcsseldorf&recFrom=76&hitno=15&kgs=05111000&zvo_ok=0&radius=5&orderby=name&ttforderby=rel&buc=184&verlNr=102&page=78&context=11"
"Engbrocks Artur  ","","Zur Bockumer Linde 33","Düsseldorf","Wittlaer","","","","https://www.dasoertliche.de/?id=0184082419014353715988&recuid=ASE2KFWAODGGV3TGJ6PCFZJEAEY2GP5GEAFEH4IZZMKD4AQ&action=58&pagePos=4&dar=1&kw=Ingenieurb%c3%bcro&form_name=detail&lastFormName=search_nat&ci=D%c3%bcsseldorf&recFrom=76&hitno=14&kgs=05111000&zvo_ok=0&radius=5&orderby=name&ttforderby=rel&buc=184&verlNr=102&page=78&context=11"
"Enius AG Ingenieur- u. Laborleitungen  ","","Wiesenstr. 70 A","Düsseldorf","Heerdt","(02 11) 56 34 90-50","www.enius.de","","https://www.dasoertliche.de/?id=0184032990925389395069&recuid=JOMOCKRX3XOSL4J6KXTHVARVJZRJGAUVATCJTPLWZAYNJIQC&action=58&pagePos=4&dar=1&kw=Ingenieurb%c3%bcro&form_name=detail&lastFormName=search_nat&ci=D%c3%bcsseldorf&recFrom=76&hitno=17&kgs=05111000&zvo_ok=0&radius=5&orderby=name&ttforderby=rel&buc=184&verlNr=102&page=78&context=11"
"ENC2 GmbH  ","","Werftstr. 23","Düsseldorf","Heerdt","(02 11) 50 08 01 90","www.enc2-gmbh.de","","https://www.dasoertliche.de/?id=0184074290116389649502&recuid=5L3TK5ONLGZKJNGYGNWUYN2255EWG2ZRNNS7MTKLJVDCXTIC&action=58&pagePos=4&dar=1&kw=Ingenieurb%c3%bcro&form_name=detail&lastFormName=search_nat&ci=D%c3%bcsseldorf&recFrom=76&hitno=13&kgs=05111000&zvo_ok=0&radius=5&orderby=name&ttforderby=rel&buc=184&verlNr=102&page=78&context=11"
"ELIN GmbH & Co KG  ","","Kölner Landstr. 40","Düsseldorf","Wersten","(02 11) 73 77 34-0","","","https://www.dasoertliche.de/?id=0184084348618329877721&recuid=C6DXRKWLSPBFXTSZJXVCP5JKCI5ZK2VUFYMWRRCSX5CS2AQ&action=58&pagePos=4&dar=1&kw=Ingenieurb%c3%bcro&form_name=detail&lastFormName=search_nat&ci=D%c3%bcsseldorf&recFrom=76&hitno=12&kgs=05111000&zvo_ok=0&radius=5&orderby=name&ttforderby=rel&buc=184&verlNr=102&page=78&context=11"
"El-Fahmi Radi Ingenieurbüro  ","","Kirchstr. 19","Düsseldorf","Oberbilk","(02 11) 6 88 70 74","http://www.el-fahmi.de/5.html","","https://www.dasoertliche.de/?id=0184085501646331331199&recuid=OGLDLQEZTHJR3OZXLDOHDEZ3OQ2P2WOSH57W52AEYE5JONDSAI&action=58&pagePos=4&dar=1&kw=Ingenieurb%c3%bcro&form_name=detail&lastFormName=search_nat&ci=D%c3%bcsseldorf&recFrom=76&hitno=11&kgs=05111000&zvo_ok=0&radius=5&orderby=name&ttforderby=rel&buc=184&verlNr=102&page=78&context=11"
"EC Harris GmbH Ingenieurbüro  ","","Kaistr. 11","Düsseldorf","Hafen","(02 11) 31 12 96-0","www.echarris.com","","https://www.dasoertliche.de/?id=0184032968971393370086&recuid=XVJYRJGVMMLP447V3A73E5H6XDJWFOY47KZ7SX5NHXGIOAQ&action=58&pagePos=4&dar=1&kw=Ingenieurb%c3%bcro&form_name=detail&lastFormName=search_nat&ci=D%c3%bcsseldorf&recFrom=76&hitno=10&kgs=05111000&zvo_ok=0&radius=5&orderby=name&ttforderby=rel&buc=184&verlNr=102&page=78&context=11"
"Ebert-Ingenieure Düsseldorf GmbH  ","","Grafenberger Allee 56","Düsseldorf","Düsseltal","(02 11) 68 78 57-0","www.ebert-ingenieure.de","","https://www.dasoertliche.de/?id=0184032977115329877721&recuid=3VVPHTGLPAX36D5PWEOIWFGH3CABJJD6YPJZUM6JP336OAQ&action=58&pagePos=4&dar=1&kw=Ingenieurb%c3%bcro&form_name=detail&lastFormName=search_nat&ci=D%c3%bcsseldorf&recFrom=76&hitno=9&kgs=05111000&zvo_ok=0&radius=5&orderby=name&ttforderby=rel&buc=184&verlNr=102&page=78&context=11"
"domusplus , Vohwinkel Claudia ","","Füllenbachstr. 4","Düsseldorf","Golzheim","(02 11) 9 33 74 83","www.domusplus.de","","https://www.dasoertliche.de/?id=0184076882408329877721&recuid=XGWHULYGHXENNQOMIQNHKZYBXQTW2SA5AW3RCIKTHBWIGAQ&action=58&pagePos=4&dar=1&kw=Ingenieurb%c3%bcro&form_name=detail&lastFormName=search_nat&ci=D%c3%bcsseldorf&recFrom=76&hitno=7&kgs=05111000&zvo_ok=0&radius=5&orderby=name&ttforderby=rel&buc=184&verlNr=102&page=78&context=11"
"Domotec-Ingenieure GmbH  ","","Tersteegenstr. 28","Düsseldorf","Golzheim","(02 11) 51 60 18-0","www.domotec-ingenieure.de","","https://www.dasoertliche.de/?id=0184032986490393278156&recuid=55WEVGSOFEUIAAMASZSY4JWB5KMDPCKNYXQ6IKNMHHZNKAQ&action=58&pagePos=4&dar=1&kw=Ingenieurb%c3%bcro&form_name=detail&lastFormName=search_nat&ci=D%c3%bcsseldorf&recFrom=76&hitno=6&kgs=05111000&zvo_ok=0&radius=5&orderby=name&ttforderby=rel&buc=184&verlNr=102&page=78&context=11"
"DM simply softwae engineering  ","","Am Trippelsberg 92","Düsseldorf","Holthausen","(02 11) 98 59 26 70","http://www.dm-simply.de","","https://www.dasoertliche.de/?id=0184078610489329877721&recuid=3PYT36GHES2ZNUNIJA5TGBC43ZXV4XBJNVKPAJB2KMWRVSYC&action=58&pagePos=4&dar=1&kw=Ingenieurb%c3%bcro&form_name=detail&lastFormName=search_nat&ci=D%c3%bcsseldorf&recFrom=76&hitno=5&kgs=05111000&zvo_ok=0&radius=5&orderby=name&ttforderby=rel&buc=184&verlNr=102&page=78&context=11"
"Dehmann Joachim Tontechn. Ing-Büro  ","","Mintropstr. 14","Düsseldorf","Friedrichstadt","(02 11) 38 27 35","","","https://www.dasoertliche.de/?id=0184068532042389395069&recuid=RMARBFP3PFC642PGZNC5UUNMR3HDZ2JCW2FIAGGYBXALCAQ&action=58&pagePos=4&dar=1&kw=Ingenieurb%c3%bcro&form_name=detail&lastFormName=search_nat&ci=D%c3%bcsseldorf&recFrom=76&hitno=1&kgs=05111000&zvo_ok=0&radius=5&orderby=name&ttforderby=rel&buc=184&verlNr=102&page=78&context=11"
"Dienstleistungsgesellschaft für Architekten und Ingenieure mbH  ","","Kaistr. 13","Düsseldorf","Hafen","(02 11) 4 93 65 25","www.vfa-architekten.de","","https://www.dasoertliche.de/?id=0184060807297393370086&recuid=NN6EDZ54N44AEGIF7X5PRPGRN2Y65JGJ2VSZ77EL6S6FCAQ&action=58&pagePos=4&dar=1&kw=Ingenieurb%c3%bcro&form_name=detail&lastFormName=search_nat&ci=D%c3%bcsseldorf&recFrom=76&hitno=2&kgs=05111000&zvo_ok=0&radius=5&orderby=name&ttforderby=rel&buc=184&verlNr=102&page=78&context=11"
"Dausinger Thomas Bauingenieur , Lucia ","","Lohengrinstr. 10","Düsseldorf","Oberkassel","(02 11) 5 59 13 78","","","https://www.dasoertliche.de/?id=0184073329067332454969&recuid=FLFLXJNX3KHEXP2ZMGMUV53HF4MKWSUJMMSFJ7SKQNVBAAQ&action=58&pagePos=4&dar=1&kw=Ingenieurb%c3%bcro&form_name=detail&lastFormName=search_nat&ci=D%c3%bcsseldorf&recFrom=76&hitno=0&kgs=05111000&zvo_ok=0&radius=5&orderby=name&ttforderby=rel&buc=184&verlNr=102&page=78&context=11"
"Cremerius Elektronikentwicklung Ingenieurbüro  ","","Fischerstr. 77","Düsseldorf","Pempelfort","(02 11) 4 08 05 36","","","https://www.dasoertliche.de/?id=0184032972578331763719&recuid=XTRAZIKQUCQ45B6RIARAG5KPXFYH2CYVKW6TYC2WBJ6YMAQ&action=58&pagePos=3&dar=1&kw=Ingenieurb%c3%bcro&form_name=detail&lastFormName=search_nat&ci=D%c3%bcsseldorf&recFrom=51&hitno=20&kgs=05111000&zvo_ok=0&radius=5&orderby=name&ttforderby=rel&buc=184&verlNr=102&page=78&context=11"
"CPG Engineering and CommercialServices GmbH  ","","Eduard-Schloemann-Str. 43","Düsseldorf","Düsseltal","(02 11) 68 77 09-0","http://www.cpg-gmbh.de","","https://www.dasoertliche.de/?id=0184074981574332974058&recuid=7HEN7CD2MKF2TD6ZBZMC2JDF7RVEOBS2MH3USVSCGUEMGAQ&action=58&pagePos=3&dar=1&kw=Ingenieurb%c3%bcro&form_name=detail&lastFormName=search_nat&ci=D%c3%bcsseldorf&recFrom=51&hitno=19&kgs=05111000&zvo_ok=0&radius=5&orderby=name&ttforderby=rel&buc=184&verlNr=102&page=78&context=11"
"cpcon Vertriebs Engineering Caroline Porsiel Vertriebsberatung  ","","Benrodestr. 97","Düsseldorf","Benrath","(02 11) 87 52 58 35","www.salesengineering.de","","https://www.dasoertliche.de/?id=0184060085908329877721&recuid=MIDGWDJ3BNSREZINSLX55NFLM7G2XD4PTLWQP47EVSZ2EPAC&action=58&pagePos=3&dar=1&kw=Ingenieurb%c3%bcro&form_name=detail&lastFormName=search_nat&ci=D%c3%bcsseldorf&recFrom=51&hitno=18&kgs=05111000&zvo_ok=0&radius=5&orderby=name&ttforderby=rel&buc=184&verlNr=102&page=78&context=11"
"CERMET Vertriebs-OHG Frithjof Kilp - Sylvia Gormanns  ","","Binterimstr. 9","Düsseldorf","Bilk","(02 11) 34 40 13","","","https://www.dasoertliche.de/?id=0184081800869329877721&recuid=GBX5HIUL5MWHKPL5ZKG6VUOCGXRLTCMZ3AY7XZ75WLZAUAQ&action=58&pagePos=3&dar=1&kw=Ingenieurb%c3%bcro&form_name=detail&lastFormName=search_nat&ci=D%c3%bcsseldorf&recFrom=51&hitno=17&kgs=05111000&zvo_ok=0&radius=5&orderby=name&ttforderby=rel&buc=184&verlNr=102&page=78&context=11"
"CERMET Vertriebs-OHG Frithjof Kilp -Sylvia Gormanns  ","","Binterimstr. 9","Düsseldorf","Bilk","","","","https://www.dasoertliche.de/?id=0184081800850331244808&recuid=EFLOVM5S7IKWIBDMYSONHQH3ETTKBMEI4EQLFZH3UTFRWAQ&action=58&pagePos=3&dar=1&kw=Ingenieurb%c3%bcro&form_name=detail&lastFormName=search_nat&ci=D%c3%bcsseldorf&recFrom=51&hitno=16&kgs=05111000&zvo_ok=0&radius=5&orderby=name&ttforderby=rel&buc=184&verlNr=102&page=78&context=11"
"CERMET Vertriebs-OHG Frithjof Kilp-Sylvia Gormanns  ","","Binterimstr. 9","Düsseldorf","Bilk","(02 11) 33 12 55","","","https://www.dasoertliche.de/?id=0184081800870331244808&recuid=TCXBECSKIPW537GVBASSW6IDTUMT2SZRDGMQYTTAAYHKEAQ&action=58&pagePos=3&dar=1&kw=Ingenieurb%c3%bcro&form_name=detail&lastFormName=search_nat&ci=D%c3%bcsseldorf&recFrom=51&hitno=15&kgs=05111000&zvo_ok=0&radius=5&orderby=name&ttforderby=rel&buc=184&verlNr=102&page=78&context=11"
"CDM Smith Consult GmbH  ","","Münsterstr. 304","Düsseldorf","Mörsenbroich","(02 11) 9 34 45-0","http://cdmsmith.com","","https://www.dasoertliche.de/?id=0184083830572329877721&recuid=NQFTL2TF2NECQRSMU7BIVDVGNH46DAOGXRW27NVBYOTYVKLPAI&action=58&pagePos=3&dar=1&kw=Ingenieurb%c3%bcro&form_name=detail&lastFormName=search_nat&ci=D%c3%bcsseldorf&recFrom=51&hitno=14&kgs=05111000&zvo_ok=0&radius=5&orderby=name&ttforderby=rel&buc=184&verlNr=102&page=78&context=11"
"Cartechnology GmbH  ","","Heiderweg 12 A","Düsseldorf","Angermund","(02 03) 9 35 73 86","","","https://www.dasoertliche.de/?id=0184083629859332454969&recuid=W5Q77F74E4RNME6DYI4ZIVWMWKVTBMSJZG43MQMRPGQY2AQ&action=58&pagePos=3&dar=1&kw=Ingenieurb%c3%bcro&form_name=detail&lastFormName=search_nat&ci=D%c3%bcsseldorf&recFrom=51&hitno=13&kgs=05111000&zvo_ok=0&radius=5&orderby=name&ttforderby=rel&buc=184&verlNr=102&page=78&context=11"
"Cadac Cad Engineering GmbH  ","","Prinzenallee 9","Düsseldorf","Heerdt","(02 11) 53 74 74-74","www.cadac.com","","https://www.dasoertliche.de/?id=0184032970917389309238&recuid=B6KRGBO2A3LG54LOGCPHJRRYBID7W3WTBGAJJLI52ZQJHLYC&action=58&pagePos=3&dar=1&kw=Ingenieurb%c3%bcro&form_name=detail&lastFormName=search_nat&ci=D%c3%bcsseldorf&recFrom=51&hitno=12&kgs=05111000&zvo_ok=0&radius=5&orderby=name&ttforderby=rel&buc=184&verlNr=102&page=78&context=11"
"C.A. Brachtendorf GmbH & Co. KG  ","","Weiherstr. 10","Düsseldorf","Unterbilk","","","","https://www.dasoertliche.de/?id=0184086038962353715988&recuid=EMXXYKE6B5WA23QNTWYKPQECE3AI7UEBQYW4HKMH2SYRSAQ&action=58&pagePos=3&dar=1&kw=Ingenieurb%c3%bcro&form_name=detail&lastFormName=search_nat&ci=D%c3%bcsseldorf&recFrom=51&hitno=11&kgs=05111000&zvo_ok=0&radius=5&orderby=name&ttforderby=rel&buc=184&verlNr=102&page=78&context=11"
"Burmeister D. Ingenieurbüro  ","","Auf der Krone 2","Düsseldorf","Angermund","(02 03) 74 75 71","","","https://www.dasoertliche.de/?id=0184081183366332974058&recuid=PGRI4AG2RTQAZUAUESOH3GIPPRI4YNG7CV4FZJJDRE4EGAQ&action=58&pagePos=3&dar=1&kw=Ingenieurb%c3%bcro&form_name=detail&lastFormName=search_nat&ci=D%c3%bcsseldorf&recFrom=51&hitno=10&kgs=05111000&zvo_ok=0&radius=5&orderby=name&ttforderby=rel&buc=184&verlNr=102&page=78&context=11"
"Burgess-Manning GmbH  ","","Goethestr. 8","Düsseldorf","Düsseltal","(02 11) 69 07 23-0","www.burgess-manning.de","","https://www.dasoertliche.de/?id=0184085816206381533935&recuid=VB6CSRCIVM7N2DWP6JXYMSWRVWRADLAL2WTJIMGHDDIE5XVLAI&action=58&pagePos=3&dar=1&kw=Ingenieurb%c3%bcro&form_name=detail&lastFormName=search_nat&ci=D%c3%bcsseldorf&recFrom=51&hitno=9&kgs=05111000&zvo_ok=0&radius=5&orderby=name&ttforderby=rel&buc=184&verlNr=102&page=78&context=11"
"Bunte Franz Josef Ingenieur  ","","Wilhelm-Schmidtbonn-Str. 45","Düsseldorf","Garath","(02 11) 70 94 06","","","https://www.dasoertliche.de/?id=0184081521934336776834&recuid=2A6WMTLXKZ72KU5EWNVMSMEQ2XRX7QLZRLI76F4UJSTOUAQ&action=58&pagePos=3&dar=1&kw=Ingenieurb%c3%bcro&form_name=detail&lastFormName=search_nat&ci=D%c3%bcsseldorf&recFrom=51&hitno=8&kgs=05111000&zvo_ok=0&radius=5&orderby=name&ttforderby=rel&buc=184&verlNr=102&page=78&context=11"
"Brunkhorst Dipl.-Ingenieur  ","","Peter-Rosegger-Str. 33","Erkrath","Unterfeldhaus","","","","https://www.dasoertliche.de/?id=0184088669374392846134&recuid=EB4NLRZPDA5FEDKOY345BRGVEX4LVFX74SXXTGE4U34ITN4CPMBA&action=58&pagePos=3&dar=2&kw=Ingenieurb%c3%bcro&form_name=detail&lastFormName=search_nat&ci=D%c3%bcsseldorf&recFrom=51&hitno=7&kgs=05111000&zvo_ok=0&radius=5&orderby=name&ttforderby=rel&buc=184&verlNr=102&page=78&context=11"
"Brunkhorst Dipl.-Ingenieur  ","","Peter-Rosegger-Str. 33","Erkrath","Unterfeldhaus","","","","https://www.dasoertliche.de/?id=0184088669373392846134&recuid=CAOLD52LFBPGE2L6UHE3J5FRCWOIV4WPQCPR3RH7S2OLTU5SD4BA&action=58&pagePos=3&dar=2&kw=Ingenieurb%c3%bcro&form_name=detail&lastFormName=search_nat&ci=D%c3%bcsseldorf&recFrom=51&hitno=6&kgs=05111000&zvo_ok=0&radius=5&orderby=name&ttforderby=rel&buc=184&verlNr=102&page=78&context=11"
"BRÜGGEMANN Schallschutz u. Raumakustik GmbH Düsseldorf  ","","Jahnstr. 10","Düsseldorf","Friedrichstadt","(02 11) 37 60 36","http://www.brueggemann-duesseldorf.de","","https://www.dasoertliche.de/?id=0184070587827392938153&recuid=QVHCCYJX5EGNPEWC7UHJOXXDQDVANJRM7GCKUX7MD7RGH3EGAI&action=58&pagePos=3&dar=1&kw=Ingenieurb%c3%bcro&form_name=detail&lastFormName=search_nat&ci=D%c3%bcsseldorf&recFrom=51&hitno=5&kgs=05111000&zvo_ok=0&radius=5&orderby=name&ttforderby=rel&buc=184&verlNr=102&page=78&context=11"
"Bremer Projektabwicklungsges. mbH  ","","Luegallee 21","Düsseldorf","40545 Düsseldorf","(02 11) 9 54 23 95","","","https://www.dasoertliche.de/?id=0184083680365329877721&recuid=4VYFG6R2OQZJOFMITV6YQBG54CFXDAKB3HVYIWXPJLOAHUXGAI&action=58&pagePos=3&dar=1&kw=Ingenieurb%c3%bcro&form_name=detail&lastFormName=search_nat&ci=D%c3%bcsseldorf&recFrom=51&hitno=4&kgs=05111000&zvo_ok=0&radius=5&orderby=name&ttforderby=rel&buc=184&verlNr=102&page=78&context=11"
"Boss Walter Bauingenieur  ","","Pfeifferstr. 28","Düsseldorf","Gerresheim","(02 11) 28 33 60","","","https://www.dasoertliche.de/?id=0184032980351329877721&recuid=IYLBL2ULKZKCSZJV5GOPPD53IO3OT5HPUFD4JWO32SGXYAQ&action=58&pagePos=3&dar=1&kw=Ingenieurb%c3%bcro&form_name=detail&lastFormName=search_nat&ci=D%c3%bcsseldorf&recFrom=51&hitno=3&kgs=05111000&zvo_ok=0&radius=5&orderby=name&ttforderby=rel&buc=184&verlNr=102&page=78&context=11"
"Boskovski Miso Dipl. Ing. B&B Ingenieurbüro u. Boskovski Mario Dipl. Wirt.-Ing. ","","Heyestr. 84 a","Düsseldorf","Gerresheim","0177 8 88 84 53","www.gutachter-kfz.expert","","https://www.dasoertliche.de/?id=0184084116998392938153&recuid=NJKPZGWERALAKJYB2KDMNCHZN7I4Z3PI7RSKZPOFYX4IZ5TJAI&action=58&pagePos=3&dar=1&kw=Ingenieurb%c3%bcro&form_name=detail&lastFormName=search_nat&ci=D%c3%bcsseldorf&recFrom=51&hitno=2&kgs=05111000&zvo_ok=0&radius=5&orderby=name&ttforderby=rel&buc=184&verlNr=102&page=78&context=11"
"Bloom Engineering Europa GmbH  ","","Büttgenbachstr. 14","Düsseldorf","Heerdt","(02 11) 5 00 91-0","www.bloomeng.de","","https://www.dasoertliche.de/?id=0184065722916392938153&recuid=CVTEDU3RNQSHSCL2YKA5NTGLCCEMPCN42EKNZ2X33XDC6AQ&action=58&pagePos=3&dar=1&kw=Ingenieurb%c3%bcro&form_name=detail&lastFormName=search_nat&ci=D%c3%bcsseldorf&recFrom=51&hitno=1&kgs=05111000&zvo_ok=0&radius=5&orderby=name&ttforderby=rel&buc=184&verlNr=102&page=78&context=11"
"Bertrandt AG  ","","Prinzenallee 5","Düsseldorf","Heerdt","(02 11) 5 20 65 77-0","www.bertrandt-services.com","","https://www.dasoertliche.de/?id=0184085921996353715988&recuid=A5RUA7SJOMQWEELTV6DOFZGOAKE2N5W376EGFB5ATOQMKWIC&action=58&pagePos=2&dar=1&kw=Ingenieurb%c3%bcro&form_name=detail&lastFormName=search_nat&ci=D%c3%bcsseldorf&recFrom=26&hitno=21&kgs=05111000&zvo_ok=0&radius=5&orderby=name&ttforderby=rel&buc=184&verlNr=102&page=78&context=11"
"Baugutachterbüro Waaser & Partner Beratende Ingenieure  ","","Am Handelshafen 30","Düsseldorf","Hafen","(02 11) 6 39 72 23","","","https://www.dasoertliche.de/?id=0184071728918329877721&recuid=JJYWZL2U7UZSWBBN46KO7FW4J7LNHQHJ3BCOPA5SVHWHAAQ&action=58&pagePos=2&dar=1&kw=Ingenieurb%c3%bcro&form_name=detail&lastFormName=search_nat&ci=D%c3%bcsseldorf&recFrom=26&hitno=20&kgs=05111000&zvo_ok=0&radius=5&orderby=name&ttforderby=rel&buc=184&verlNr=102&page=78&context=11"
"Autotec Ingenierbüro GmbH  ","","Bilker Allee 217","Düsseldorf","Friedrichstadt","(02 11) 93 67 62 50","","","https://www.dasoertliche.de/?id=0184085713853392938153&recuid=B3I4LJRSEKIHXJLBNSUSL3D4BMF7KUP6JWA5BQSJXVQ2EN5M2IBA&action=58&pagePos=2&dar=1&kw=Ingenieurb%c3%bcro&form_name=detail&lastFormName=search_nat&ci=D%c3%bcsseldorf&recFrom=26&hitno=18&kgs=05111000&zvo_ok=0&radius=5&orderby=name&ttforderby=rel&buc=184&verlNr=102&page=78&context=11"
"Auto-Experts Tassone GmbH  ","","Kölner Str. 38-40a","Düsseldorf","Stadtmitte","(02 11) 92 11 20","https://www.auto-experts.de","","https://www.dasoertliche.de/?id=0184078356377393019036&recuid=PNWSDJPU6AWA4GIU6TSN5JGAP2G55ZGR3J5PDC5O2DAZ3T3YAI&action=58&pagePos=2&dar=1&kw=Ingenieurb%c3%bcro&form_name=detail&lastFormName=search_nat&ci=D%c3%bcsseldorf&recFrom=26&hitno=17&kgs=05111000&zvo_ok=0&radius=5&orderby=name&ttforderby=rel&buc=184&verlNr=102&page=78&context=11"
"Auto Experts Tassone GmbH  ","","Kölner Str. 38 A-40","Düsseldorf","40211 Düsseldorf","(02 11) 54 21 73 25","https://www.auto-experts.de","","https://www.dasoertliche.de/?id=0184076477933393019036&recuid=THOYGMAMF6OOZKPWGBJB2R3QTQYFGRKEIELNYHJAO53TKOZ33YBA&action=58&pagePos=2&dar=1&kw=Ingenieurb%c3%bcro&form_name=detail&lastFormName=search_nat&ci=D%c3%bcsseldorf&recFrom=26&hitno=16&kgs=05111000&zvo_ok=0&radius=5&orderby=name&ttforderby=rel&buc=184&verlNr=102&page=78&context=11"
"Auto Experts Risk Engineering Services GmbH  ","","Kölner Str. 38 A-40","Düsseldorf","40211 Düsseldorf","","https://www.auto-experts.de","","https://www.dasoertliche.de/?id=0184058220275393019036&recuid=FDEGB3AFMCEV3PCHHO2S57LFFX43MNMMKS37EAQ&action=58&pagePos=2&dar=1&kw=Ingenieurb%c3%bcro&form_name=detail&lastFormName=search_nat&ci=D%c3%bcsseldorf&recFrom=26&hitno=15&kgs=05111000&zvo_ok=0&radius=5&orderby=name&ttforderby=rel&buc=184&verlNr=102&page=78&context=11"
"Auto-Experts GmbH  ","","Kölner Str. 38 A-40","Düsseldorf","40211 Düsseldorf","(02 11) 9 73 09-0","https://www.auto-experts.de","","https://www.dasoertliche.de/?id=0184069710431393624946&recuid=4PCLZKMRKSCZNMEMDMTWOODJ4YTFQSCJOPRGUFCTNRN5SAQ&action=58&pagePos=2&dar=1&kw=Ingenieurb%c3%bcro&form_name=detail&lastFormName=search_nat&ci=D%c3%bcsseldorf&recFrom=26&hitno=14&kgs=05111000&zvo_ok=0&radius=5&orderby=name&ttforderby=rel&buc=184&verlNr=102&page=78&context=11"
"AUREA Projektmanagement GmbH  ","","Speditionstr. 1","Düsseldorf","40221 Düsseldorf","(02 11) 54 21 32-0","www.aurea-pm.de","","https://www.dasoertliche.de/?id=0184083275163392938153&recuid=QSRHMEQNHPR5D4GBHE7X2ZIPQEVFKVZGBOFFM5RMFMHGEAEHAI&action=58&pagePos=2&dar=1&kw=Ingenieurb%c3%bcro&form_name=detail&lastFormName=search_nat&ci=D%c3%bcsseldorf&recFrom=26&hitno=13&kgs=05111000&zvo_ok=0&radius=5&orderby=name&ttforderby=rel&buc=184&verlNr=102&page=78&context=11"
"aTmos Industrielle Lüftungstechnik GmbH  ","","Erkrather Str. 216 A","Düsseldorf","Flingern Süd","0800 0 00 52 19","http://www.atmos.de","","https://www.dasoertliche.de/?id=0184085939634392938153&recuid=X5E3VWV3TIUOWJGQ7M2MWXHEXKVC7PJH62Y4Q2UIPSFYKAQ&action=58&pagePos=2&dar=1&kw=Ingenieurb%c3%bcro&form_name=detail&lastFormName=search_nat&ci=D%c3%bcsseldorf&recFrom=26&hitno=12&kgs=05111000&zvo_ok=0&radius=5&orderby=name&ttforderby=rel&buc=184&verlNr=102&page=78&context=11"
"ATG Engineering Ingenieurbüro für Antriebstechnik  ","","Lütticher Str. 10","Düsseldorf","Oberkassel","","","","https://www.dasoertliche.de/?id=0184058220614329877721&recuid=R6WWTLDCE7WNX2VPNMXUWWQARIGHQWJGDKHFWOALGMZLKAQ&action=58&pagePos=2&dar=1&kw=Ingenieurb%c3%bcro&form_name=detail&lastFormName=search_nat&ci=D%c3%bcsseldorf&recFrom=26&hitno=11&kgs=05111000&zvo_ok=0&radius=5&orderby=name&ttforderby=rel&buc=184&verlNr=102&page=78&context=11"
"ATG Engineering Ingenieurbüro für Antriebstechnik  ","","Lütticher Str. 10","Düsseldorf","Oberkassel","(02 11) 58 74 83","","","https://www.dasoertliche.de/?id=0184032988191329877721&recuid=RWMV3LSWEXMNTXVNAYKXWRBURABHU3JEF2GF2CR3GEDLOAQ&action=58&pagePos=2&dar=1&kw=Ingenieurb%c3%bcro&form_name=detail&lastFormName=search_nat&ci=D%c3%bcsseldorf&recFrom=26&hitno=10&kgs=05111000&zvo_ok=0&radius=5&orderby=name&ttforderby=rel&buc=184&verlNr=102&page=78&context=11"
"ATG Engineering Ingenieurbüro für Antriebstechnik  ","","Lütticher Str. 10","Düsseldorf","Oberkassel","(02 11) 57 84 86","","","https://www.dasoertliche.de/?id=0184032988193329877721&recuid=DCSWCO3KWDSEZYRYASAEPUIIDVJ2QUNRCIMQH5AFUQ5CEAQ&action=58&pagePos=2&dar=1&kw=Ingenieurb%c3%bcro&form_name=detail&lastFormName=search_nat&ci=D%c3%bcsseldorf&recFrom=26&hitno=9&kgs=05111000&zvo_ok=0&radius=5&orderby=name&ttforderby=rel&buc=184&verlNr=102&page=78&context=11"
"Atelier DSG Architekten, Ingenieure Inh. Guimaráes Luis Architekten, Designer, Ingenieure  ","","Hüttenstr. 34","Düsseldorf","Friedrichstadt","(02 11) 69 12 00 70","","","https://www.dasoertliche.de/?id=0184050927329329877721&recuid=DTGDESRMIGGWRKLQFWIWLTTBDEFIU2XYKCJ43PR47B4LZ5QC&action=58&pagePos=2&dar=1&kw=Ingenieurb%c3%bcro&form_name=detail&lastFormName=search_nat&ci=D%c3%bcsseldorf&recFrom=26&hitno=8&kgs=05111000&zvo_ok=0&radius=5&orderby=name&ttforderby=rel&buc=184&verlNr=102&page=78&context=11"
"Arup Deutschland GmbH Ingenieurbüro  ","","Speditionstr. 9","Düsseldorf","Hafen","(02 11) 17 29 00-0","www.arup.com","","https://www.dasoertliche.de/?id=0184080545790332974058&recuid=W33FQZ5O2234JA6GBBMU4VS3WMPBIYQXL64CUL2EDVNFAVFVAI&action=58&pagePos=2&dar=1&kw=Ingenieurb%c3%bcro&form_name=detail&lastFormName=search_nat&ci=D%c3%bcsseldorf&recFrom=26&hitno=7&kgs=05111000&zvo_ok=0&radius=5&orderby=name&ttforderby=rel&buc=184&verlNr=102&page=78&context=11"
"Arcadis  ","","Hammer Str. 17","Düsseldorf","Hafen","(02 11) 91 37 65 00","https://www.arcadis.com/de/germany/","duesseldorf@arcadis.de","https://www.dasoertliche.de/?id=0184670183078393278156&recuid=5FX6HLNXEEXJWDEIZFKKEEGA5SNSLGYH6NTG4T4SAGMHZI2LNQBA&action=58&pagePos=2&dar=1&kw=Ingenieurb%c3%bcro&form_name=detail&lastFormName=search_nat&ci=D%c3%bcsseldorf&recFrom=26&hitno=6&kgs=05111000&zvo_ok=0&radius=5&orderby=name&ttforderby=rel&buc=184&verlNr=102&page=78&context=11"
"Aquacone Max Kellermeyer  ","","Höherweg 248","Düsseldorf","Lierenfeld","(02 11) 97 64 73 45","http://www.aquacone.de/","","https://www.dasoertliche.de/?id=0184084348624385075090&recuid=ZSQUQXNDNXQL3VFNOEYQCLQMZFIGOUR5HVB2A4SPOQEA5GYC&action=58&pagePos=2&dar=1&kw=Ingenieurb%c3%bcro&form_name=detail&lastFormName=search_nat&ci=D%c3%bcsseldorf&recFrom=26&hitno=5&kgs=05111000&zvo_ok=0&radius=5&orderby=name&ttforderby=rel&buc=184&verlNr=102&page=78&context=11"
"APPOLDT GMBH Ingenieurbüro für Elektrotechnik  ","","Am Schurfwinkel 2 A","Düsseldorf","Lierenfeld","(02 11) 2 10 80 34","www.appoldt.com","","https://www.dasoertliche.de/?id=0184083290423329877721&recuid=DXAQ2YJZX6AE3EKSO2XSD7DMDBB2S2V4NAJQX7ZLRVNCOAQ&action=58&pagePos=2&dar=1&kw=Ingenieurb%c3%bcro&form_name=detail&lastFormName=search_nat&ci=D%c3%bcsseldorf&recFrom=26&hitno=4&kgs=05111000&zvo_ok=0&radius=5&orderby=name&ttforderby=rel&buc=184&verlNr=102&page=78&context=11"
"AkuThermConsult GmbH  ","","Lerchenstr. 14","Düsseldorf","Oberkassel","(02 11) 5 77 74-0","www.akuthermconsult.de","","https://www.dasoertliche.de/?id=0184056693776392938153&recuid=DFPA3QR24QPXEK2NZ2I5PTHTDTJLFKVQ5EMO3QPY67QSGAQ&action=58&pagePos=2&dar=1&kw=Ingenieurb%c3%bcro&form_name=detail&lastFormName=search_nat&ci=D%c3%bcsseldorf&recFrom=26&hitno=3&kgs=05111000&zvo_ok=0&radius=5&orderby=name&ttforderby=rel&buc=184&verlNr=102&page=78&context=11"
"AIP Consulting GmbH Architekten & Ingenieure für Projektplanung  ","","Königsallee 60 C","Düsseldorf","Stadtmitte","(02 11) 8 82 72 50","www.aip-consulting.de","","https://www.dasoertliche.de/?id=0184032995467332454969&recuid=SIU2ROQRLZUNW6NSUJB4WW4ES7NVH3BWQCOP2COGCG3KQAQ&action=58&pagePos=2&dar=1&kw=Ingenieurb%c3%bcro&form_name=detail&lastFormName=search_nat&ci=D%c3%bcsseldorf&recFrom=26&hitno=2&kgs=05111000&zvo_ok=0&radius=5&orderby=name&ttforderby=rel&buc=184&verlNr=102&page=78&context=11"
"aig + Architekten und Ingenieurgesellschaft mbH  ","","Schiessstr. 55","Düsseldorf","Heerdt","(02 11) 51 34 22-0","http://www.aigplus.de","","https://www.dasoertliche.de/?id=0184086238839393278156&recuid=SDJWBET5O2ZPTNFQEQ6EO436SVPR4NZSPKPBOWRCARHKUAQ&action=58&pagePos=2&dar=1&kw=Ingenieurb%c3%bcro&form_name=detail&lastFormName=search_nat&ci=D%c3%bcsseldorf&recFrom=26&hitno=1&kgs=05111000&zvo_ok=0&radius=5&orderby=name&ttforderby=rel&buc=184&verlNr=102&page=78&context=11"
"AGE Aumann & Goertz Engineering GmbH  ","","Hildebrandtstr. 24 C","Düsseldorf","40215 Düsseldorf","(02 11) 55 02 08 90","","","https://www.dasoertliche.de/?id=0184082670925329877721&recuid=6LHNFIM5E6H3LC6SAM4HIE3D64KCEBZPKJ646KTCHBQF4KCQZUBA&action=58&pagePos=2&dar=1&kw=Ingenieurb%c3%bcro&form_name=detail&lastFormName=search_nat&ci=D%c3%bcsseldorf&recFrom=26&hitno=0&kgs=05111000&zvo_ok=0&radius=5&orderby=name&ttforderby=rel&buc=184&verlNr=102&page=78&context=11"
"A + U GmbH Dr. Scheffold  ","","Klosekamp 17","Düsseldorf","Kaiserswerth","","","","https://www.dasoertliche.de/?id=0184058216873329877721&recuid=M3UNGLAAWWUUNQ2GIHSQ5M2FMNKKAAOPL5TVV3AK6NZVYAQ&action=58&pagePos=1&dar=1&kw=Ingenieurb%c3%bcro&form_name=detail&lastFormName=search_nat&ci=D%c3%bcsseldorf&recFrom=1&hitno=21&kgs=05111000&zvo_ok=0&orderby=name&ttforderby=rel&buc=184&verlNr=102&page=78&context=11"
"A.R.Bayer DSP-Systeme GmbH  ","","Vohwinkelallee 8","Düsseldorf","Eller","(02 11) 2 10 81 20","www.dsp-sys.de","","https://www.dasoertliche.de/?id=0184075845926329877721&recuid=47UZOGHQDCUMTO6JJ5SXGOKE4IYVGQSGIDUQQKR2LEUN2AQ&action=58&pagePos=1&dar=1&kw=Ingenieurb%c3%bcro&form_name=detail&lastFormName=search_nat&ci=D%c3%bcsseldorf&recFrom=1&hitno=20&kgs=05111000&zvo_ok=0&orderby=name&ttforderby=rel&buc=184&verlNr=102&page=78&context=11"
"A.P-Plan Ingenieurgesellschaft  ","","Vogelsanger Weg 38","Düsseldorf","Mörsenbroich","(02 11) 9 08 91-0","http://www.mon.de/dus/a-p-plan","","https://www.dasoertliche.de/?id=0184084141504389395069&recuid=Y2P7CTLNY3PORT7LL5WQWJBSYMYQAF3MFDDQ2UJ2MBO7YAQ&action=58&pagePos=1&dar=1&kw=Ingenieurb%c3%bcro&form_name=detail&lastFormName=search_nat&ci=D%c3%bcsseldorf&recFrom=1&hitno=19&kgs=05111000&zvo_ok=0&orderby=name&ttforderby=rel&buc=184&verlNr=102&page=78&context=11"
"A.D.A.M. Stadtentwicklung GmbH  ","","Schwerinstr. 66","Düsseldorf","Golzheim","(02 11) 4 98 59 59","http://www.adamstadt.de","","https://www.dasoertliche.de/?id=0184032985582329877721&recuid=L5UYC5ZW2MUHCLLRQ7OIXFWELKHNRMX5YBI77SFX6L2GKAQ&action=58&pagePos=1&dar=1&kw=Ingenieurb%c3%bcro&form_name=detail&lastFormName=search_nat&ci=D%c3%bcsseldorf&recFrom=1&hitno=18&kgs=05111000&zvo_ok=0&orderby=name&ttforderby=rel&buc=184&verlNr=102&page=78&context=11"
"ASP & Partner Sachverständigen- und Ingenieurbüro  ","","Bonner Str. 41","Düsseldorf","Holthausen","(02 11) 93 07 84 50","http://www.asp-duesseldorf.de","n.tachrifet@asp-duesseldor...","https://www.dasoertliche.de/?id=0184088772005394838848&recuid=G3NDHRMKD2NWLCQWP7GXJUTXGNUIWBWZI245XQSCZ5PJ6FMU3EBA&action=58&pagePos=1&dar=1&kw=Ingenieurb%c3%bcro&form_name=detail&lastFormName=search_nat&ci=D%c3%bcsseldorf&recFrom=1&hitno=17&kgs=05111000&zvo_ok=0&orderby=name&ttforderby=rel&buc=184&verlNr=102&page=78&context=11"
"Grube  ","","Hansaallee 321","Düsseldorf","Heerdt","(02 11) 53 67 44 66","","","https://www.dasoertliche.de/?id=0184088714563393624946&recuid=NNSYOMMDJYRBSEAJU3I45D6IN2D5FEVX7HSGJR5J6HT4FKWJMYBA&action=58&pagePos=1&dar=2&kw=Ingenieurb%c3%bcro&form_name=detail&lastFormName=search_nat&ci=D%c3%bcsseldorf&recFrom=1&hitno=16&kgs=05111000&zvo_ok=0&orderby=name&ttforderby=rel&buc=184&verlNr=102&page=78&context=11"
"Ingenieurbüro - Bauwesen Hartmann Mädler GbR  ","","Macherscheider Str. 124 A","Neuss","Uedesheim","(0 21 31) 5 12 59 30","http://www.ib-ht.de","","https://www.dasoertliche.de/?id=0184088680956395184493&recuid=3OH6EFYVZLDLL2F6ONUCMPZC3YSQ46TSCJKI4KZTCYHXEQDZRQBA&action=58&pagePos=1&dar=2&kw=Ingenieurb%c3%bcro&form_name=detail&lastFormName=search_nat&ci=D%c3%bcsseldorf&recFrom=1&hitno=15&kgs=05111000&zvo_ok=0&orderby=name&ttforderby=rel&buc=184&verlNr=102&page=78&context=11"
"AS: plan Ingenieurbüro für Gebäudetechnik Andreas Schleifer Dipl.-Ing. (FH)  ","","Suppenheider Str. 2","Solingen","Aufderhöhe","(02 12) 2 30 99 64","http://www.as-plan-gebaeudetechnik.de","","https://www.dasoertliche.de/?id=0184088670994392846134&recuid=PGDOC7X3Q7DSVPCZCSPS5HJLPRFPGHG7F53Q5LYW7EX3MJD2AI&action=58&pagePos=1&dar=2&kw=Ingenieurb%c3%bcro&form_name=detail&lastFormName=search_nat&ci=D%c3%bcsseldorf&recFrom=1&hitno=14&kgs=05111000&zvo_ok=0&orderby=name&ttforderby=rel&buc=184&verlNr=102&page=78&context=11"
"Hogeweg H. Frank  ","","Gartenstr. 53-55","Düsseldorf","Pempelfort","(02 11) 98 94 48-0","http://www.ibschmitt.de","info@ibschmitt.de","https://www.dasoertliche.de/?id=0184087766116392846134&recuid=DTYK575UHK4HHF3ZCTKAD725DEQM65VZLEJGBQQNZBMNGUQ7AI&action=58&pagePos=1&dar=2&kw=Ingenieurb%c3%bcro&form_name=detail&lastFormName=search_nat&ci=D%c3%bcsseldorf&recFrom=1&hitno=13&kgs=05111000&zvo_ok=0&orderby=name&ttforderby=rel&buc=184&verlNr=102&page=78&context=11"
"Schmitt Ingenieurbüro  ","","Gartenstr. 53-55","Düsseldorf","Pempelfort","(02 11) 98 94 48-0","http://www.ibschmitt.de","info@ibschmitt.de","https://www.dasoertliche.de/?id=0184088670476392846134&recuid=RBK2LDDAKMDOWPPF3FVP23HYRWCVXUZN7SDOKSOYBD6EP54LAI&action=58&pagePos=1&dar=2&kw=Ingenieurb%c3%bcro&form_name=detail&lastFormName=search_nat&ci=D%c3%bcsseldorf&recFrom=1&hitno=12&kgs=05111000&zvo_ok=0&orderby=name&ttforderby=rel&buc=184&verlNr=102&page=78&context=11"
"BKI Ingenieurbüro  ","","Klever Str. 71","Düsseldorf","Pempelfort","(02 11) 9 53 58 00","http://www.kfz-gutachten-buero.de","info@kfz-gutachten-buero.d...","https://www.dasoertliche.de/?id=0184088714560393624946&recuid=I54GFG4VPI5AYMLHXD65HI6VILAKNCHD2FE7RDPCYXIYRWSEAI&action=58&pagePos=1&dar=2&kw=Ingenieurb%c3%bcro&form_name=detail&lastFormName=search_nat&ci=D%c3%bcsseldorf&recFrom=1&hitno=10&kgs=05111000&zvo_ok=0&orderby=name&ttforderby=rel&buc=184&verlNr=102&page=78&context=11"
"Stengler Ingenieur- und Planungsbüro  ","","Kanzlerstr. 8 A","Düsseldorf","Rath","(02 11) 65 60 68","http://www.statik-stengler.de","stengler@buero-stengler.de","https://www.dasoertliche.de/?id=0184088555086392846134&recuid=IJPEKQN7JAGTMOZMSCPP7JXTI7NM3J7L5FB2NXUTXD3I37CBAI&action=58&pagePos=1&dar=2&kw=Ingenieurb%c3%bcro&form_name=detail&lastFormName=search_nat&ci=D%c3%bcsseldorf&recFrom=1&hitno=9&kgs=05111000&zvo_ok=0&orderby=name&ttforderby=rel&buc=184&verlNr=102&page=78&context=11"
"Ingenieurbüro Grassl GmbH  ","","Adlerstr. 34-40","Düsseldorf","Pempelfort","(02 11) 1 75 97-0","http://www.grassl-ing.de","duesseldorf@grassl-ing.de","https://www.dasoertliche.de/?id=0184088670502392846134&recuid=G5GM7S6SXICVSK2S5LK6JU7BGLXN7F467M3JJYWBW7S7R3RUAI&action=58&pagePos=1&dar=2&kw=Ingenieurb%c3%bcro&form_name=detail&lastFormName=search_nat&ci=D%c3%bcsseldorf&recFrom=1&hitno=6&kgs=05111000&zvo_ok=0&orderby=name&ttforderby=rel&buc=184&verlNr=102&page=78&context=11"
"Blinken Dr.-Ing. Robert  ","","Himmelgeister Str. 37","Düsseldorf","Bilk","(02 11) 30 27 16-0","http://www.blinken-toepfer.de","info@blinken-toepfer.de","https://www.dasoertliche.de/?id=0184088680973393019036&recuid=IDZZI4WIGWYSZGROP32FVJC6IUVYAEHBLJHGPCR6YBNI6UKDAI&action=58&pagePos=1&dar=2&kw=Ingenieurb%c3%bcro&form_name=detail&lastFormName=search_nat&ci=D%c3%bcsseldorf&recFrom=1&hitno=5&kgs=05111000&zvo_ok=0&orderby=name&ttforderby=rel&buc=184&verlNr=102&page=78&context=11"
"Gehlen  ","","Friedrich-Ebert-Str. 54","Düsseldorf","Stadtmitte","(02 11) 1 68 01-0","http://www.gehlen-ing.de","dus@gehlen-ing.de","https://www.dasoertliche.de/?id=0184088669117393624946&recuid=VMQEP7B3YNT44SGHTV6IQT4NV2VAD6YCS6VPIMFFFOEWJAVIAI&action=58&pagePos=1&dar=2&kw=Ingenieurb%c3%bcro&form_name=detail&lastFormName=search_nat&ci=D%c3%bcsseldorf&recFrom=1&hitno=3&kgs=05111000&zvo_ok=0&orderby=name&ttforderby=rel&buc=184&verlNr=102&page=78&context=11"
"Töpfer Dipl. Ing. Rolf  ","","Himmelgeister Str. 37","Düsseldorf","Bilk","(02 11) 30 27 16-0","http://www.blinken-toepfer.de","info@blinken-toepfer.de","https://www.dasoertliche.de/?id=0184088680975397598163&recuid=ZVSAPWIW3AYDWFFL5N442KOJZC6A3B3MZXB3QBVJJXGQFRWOAI&action=58&pagePos=1&dar=2&kw=Ingenieurb%c3%bcro&form_name=detail&lastFormName=search_nat&ci=D%c3%bcsseldorf&recFrom=1&hitno=4&kgs=05111000&zvo_ok=0&orderby=name&ttforderby=rel&buc=184&verlNr=102&page=78&context=11"
"Ingenieurbüro Schmitt  ","","Gartenstr. 53-55","Düsseldorf","Pempelfort","(02 11) 98 94 48-0","http://www.ibschmitt.de","info@ibschmitt.de","https://www.dasoertliche.de/?id=0184088670477392846134&recuid=7RFA6LZDTEBZELMZY4POEGHH7GNC7TCZ4PZN4PWHPTRTH2H7AI&action=58&pagePos=1&dar=5&kw=Ingenieurb%c3%bcro&form_name=detail&lastFormName=search_nat&ci=D%c3%bcsseldorf&recFrom=1&hitno=2&kgs=05111000&zvo_ok=0&orderby=name&ttforderby=rel&buc=184&verlNr=102&page=78&context=11"
"Gehlen  ","","Friedrich-Ebert-Str. 54","Düsseldorf","Stadtmitte","(02 11) 1 68 01-0","http://www.gehlen-ing.de","dus@gehlen-ing.de","https://www.dasoertliche.de/?id=0184088669119393624946&recuid=MKUM6NNTBLXQPQAOC62QBBQFM4RMQ46LD5RTJ7ZN4IA22CTBAI&action=58&pagePos=1&dar=2&kw=Ingenieurb%c3%bcro&form_name=detail&lastFormName=search_nat&ci=D%c3%bcsseldorf&recFrom=1&hitno=1&kgs=05111000&zvo_ok=0&orderby=name&ttforderby=rel&buc=184&verlNr=102&page=78&context=11"
"Müller Horst Gregor Bauingenieur  ","","Hasselbeckstr. 23","Düsseldorf","Gerresheim","(02 11) 28 23 43","","","https://www.dasoertliche.de/?id=0184082294365332974058&recuid=2CA6CTRNULGCZ3N4LQOCEMJM2UTHOY3ZG3ITWTKJIINOUAQ&action=58&pagePos=11&dar=1&kw=Ingenieurb%c3%bcro&form_name=detail&lastFormName=search_nat&ci=D%c3%bcsseldorf&recFrom=251&hitno=3&kgs=05111000&zvo_ok=0&radius=5&orderby=name&ttforderby=rel&buc=184&verlNr=102&page=78&context=11"
